[{"type": "Feature", "id": "32e99a21-f831-42eb-a4e0-13c186721d7c", "geometry": {"type": "Polygon", "coordinates": [[[30, 0], [29, 1], [29, 2], [28, 3], [28, 4], [27, 5], [27, 15], [28, 16], [28, 18], [29, 19], [29, 21], [31, 23], [31, 25], [32, 26], [32, 31], [34, 33], [37, 33], [38, 32], [38, 31], [39, 30], [39, 29], [43, 25], [44, 25], [47, 22], [47, 21], [48, 20], [48, 19], [49, 18], [49, 15], [50, 14], [50, 12], [51, 11], [51, 9], [50, 8], [50, 6], [49, 5], [49, 4], [45, 0], [30, 0]]]}, "properties": {"objectType": "annotation", "classification": {"name": "Neoplastic", "color": [255, 0, 0]}}}, {"type": "Feature", "id": "f5ab3b45-3da5-4b21-8ad1-edeff1df9eec", "geometry": {"type": "Polygon", "coordinates": [[[270, 0], [270, 4], [271, 5], [271, 9], [270, 10], [270, 17], [271, 18], [271, 20], [272, 21], [272, 22], [276, 26], [277, 26], [278, 27], [280, 27], [281, 28], [285, 28], [286, 27], [289, 27], [292, 24], [292, 23], [294, 21], [294, 20], [295, 19], [295, 14], [294, 13], [294, 12], [293, 11], [293, 10], [291, 8], [291, 7], [290, 6], [290, 5], [286, 1], [286, 0], [270, 0]]]}, "properties": {"objectType": "annotation", "classification": {"name": "Neoplastic", "color": [255, 0, 0]}}}, {"type": "Feature", "id": "edd56247-159f-4c84-9022-c48bdae491e1", "geometry": {"type": "Polygon", "coordinates": [[[353, 0], [352, 1], [351, 1], [350, 2], [350, 3], [349, 4], [349, 9], [350, 10], [350, 13], [351, 14], [351, 15], [354, 15], [355, 16], [356, 16], [357, 17], [358, 17], [361, 14], [361, 13], [362, 12], [362, 11], [363, 10], [363, 4], [362, 3], [362, 2], [360, 0], [353, 0]]]}, "properties": {"objectType": "annotation", "classification": {"name": "Neoplastic", "color": [255, 0, 0]}}}, {"type": "Feature", "id": "8097c1ac-24bc-4632-96bc-4d460d31bddc", "geometry": {"type": "Polygon", "coordinates": [[[389, 0], [389, 1], [390, 2], [391, 2], [392, 3], [393, 2], [397, 2], [398, 1], [404, 1], [405, 0], [389, 0]]]}, "properties": {"objectType": "annotation", "classification": {"name": "Neoplastic", "color": [255, 0, 0]}}}, {"type": "Feature", "id": "e1ea48d6-619c-46b8-b5e2-12437daf4a57", "geometry": {"type": "Polygon", "coordinates": [[[411, 0], [411, 1], [412, 2], [412, 3], [413, 4], [413, 5], [414, 6], [414, 7], [415, 8], [415, 9], [417, 11], [417, 12], [418, 13], [418, 14], [419, 15], [419, 21], [420, 21], [426, 15], [426, 14], [428, 12], [428, 11], [429, 10], [429, 8], [430, 7], [430, 6], [431, 5], [431, 1], [432, 0], [411, 0]]]}, "properties": {"objectType": "annotation", "classification": {"name": "Neoplastic", "color": [255, 0, 0]}}}, {"type": "Feature", "id": "21607e8f-80db-468a-9982-f0abdb0dbb03", "geometry": {"type": "Polygon", "coordinates": [[[477, 0], [476, 1], [476, 4], [475, 5], [475, 10], [476, 11], [476, 12], [478, 14], [483, 14], [484, 13], [485, 13], [486, 12], [487, 12], [489, 10], [490, 10], [492, 8], [492, 7], [493, 6], [493, 5], [494, 4], [494, 0], [477, 0]]]}, "properties": {"objectType": "annotation", "classification": {"name": "Neoplastic", "color": [255, 0, 0]}}}, {"type": "Feature", "id": "8b2cef5f-d4b2-4ac0-b5bf-18529f929116", "geometry": {"type": "Polygon", "coordinates": [[[132, 0], [130, 2], [130, 5], [124, 11], [124, 12], [123, 13], [123, 17], [124, 18], [124, 21], [125, 22], [125, 23], [126, 24], [126, 25], [127, 26], [127, 28], [128, 29], [128, 30], [133, 35], [134, 35], [135, 36], [137, 36], [138, 35], [140, 35], [141, 34], [142, 34], [147, 29], [147, 23], [148, 22], [148, 21], [147, 20], [147, 13], [146, 12], [146, 10], [144, 8], [143, 8], [139, 4], [139, 3], [136, 0], [132, 0]]]}, "properties": {"objectType": "annotation", "classification": {"name": "Neoplastic", "color": [255, 0, 0]}}}, {"type": "Feature", "id": "21cab022-60ae-4822-8b13-ab7668bc761f", "geometry": {"type": "Polygon", "coordinates": [[[408, 0], [407, 1], [405, 1], [401, 5], [400, 5], [397, 8], [397, 16], [398, 17], [398, 20], [399, 21], [399, 23], [400, 24], [400, 25], [404, 29], [405, 29], [406, 30], [408, 30], [409, 31], [412, 31], [413, 30], [414, 30], [417, 27], [417, 26], [418, 25], [418, 23], [419, 22], [418, 21], [418, 15], [417, 14], [417, 13], [416, 12], [416, 11], [414, 9], [414, 8], [413, 7], [413, 6], [412, 5], [412, 4], [411, 3], [411, 2], [410, 1], [410, 0], [408, 0]]]}, "properties": {"objectType": "annotation", "classification": {"name": "Neoplastic", "color": [255, 0, 0]}}}, {"type": "Feature", "id": "38835bc1-7ecd-415c-9d19-8bfde318dc81", "geometry": {"type": "Polygon", "coordinates": [[[216, 7], [215, 8], [211, 8], [210, 9], [202, 9], [201, 10], [199, 10], [197, 12], [196, 12], [192, 16], [192, 17], [190, 19], [190, 20], [189, 21], [189, 23], [188, 24], [188, 25], [189, 26], [189, 27], [192, 30], [193, 30], [194, 31], [195, 31], [196, 32], [197, 32], [198, 33], [201, 33], [202, 34], [216, 34], [217, 33], [218, 33], [219, 32], [220, 32], [221, 31], [222, 31], [224, 29], [225, 29], [226, 28], [227, 28], [229, 26], [229, 25], [230, 24], [230, 12], [229, 11], [229, 10], [227, 8], [225, 8], [224, 7], [216, 7]]]}, "properties": {"objectType": "annotation", "classification": {"name": "Neoplastic", "color": [255, 0, 0]}}}, {"type": "Feature", "id": "c7c03778-4e03-4863-baf9-713b092d6b32", "geometry": {"type": "Polygon", "coordinates": [[[492, 14], [491, 15], [490, 15], [489, 16], [488, 16], [483, 21], [482, 21], [476, 27], [475, 27], [474, 28], [470, 28], [469, 29], [465, 29], [465, 30], [463, 32], [463, 33], [462, 34], [462, 37], [463, 38], [463, 39], [469, 45], [471, 45], [472, 46], [476, 46], [477, 45], [479, 45], [481, 43], [483, 43], [484, 42], [485, 42], [486, 41], [487, 41], [490, 38], [491, 38], [493, 36], [493, 35], [494, 34], [494, 33], [495, 32], [495, 30], [496, 29], [496, 28], [497, 27], [497, 23], [498, 22], [498, 16], [497, 15], [497, 14], [492, 14]]]}, "properties": {"objectType": "annotation", "classification": {"name": "Neoplastic", "color": [255, 0, 0]}}}, {"type": "Feature", "id": "b36d6686-b16f-41b2-9d86-44b536807e99", "geometry": {"type": "Polygon", "coordinates": [[[56, 19], [56, 20], [55, 21], [55, 22], [54, 23], [54, 25], [53, 26], [53, 39], [55, 41], [55, 42], [56, 43], [57, 43], [58, 44], [59, 44], [60, 45], [65, 45], [66, 46], [67, 46], [71, 50], [74, 50], [74, 49], [75, 48], [75, 44], [73, 42], [73, 41], [72, 40], [72, 39], [70, 37], [70, 36], [68, 34], [68, 33], [67, 32], [67, 31], [66, 30], [66, 28], [65, 27], [65, 23], [64, 22], [64, 21], [62, 19], [56, 19]]]}, "properties": {"objectType": "annotation", "classification": {"name": "Neoplastic", "color": [255, 0, 0]}}}, {"type": "Feature", "id": "05b7a9fc-6ed4-4dca-bccd-527b10935b05", "geometry": {"type": "Polygon", "coordinates": [[[444, 32], [443, 33], [441, 33], [441, 36], [440, 37], [440, 41], [442, 41], [444, 39], [446, 41], [448, 41], [449, 42], [449, 47], [450, 47], [450, 45], [451, 44], [451, 43], [450, 42], [450, 37], [449, 36], [449, 33], [448, 33], [447, 32], [444, 32]]]}, "properties": {"objectType": "annotation", "classification": {"name": "Neoplastic", "color": [255, 0, 0]}}}, {"type": "Feature", "id": "b1fdb3cb-8077-4348-b66d-9a3d0f4b2480", "geometry": {"type": "Polygon", "coordinates": [[[183, 33], [182, 34], [181, 34], [180, 35], [179, 35], [178, 36], [178, 37], [175, 40], [175, 48], [176, 49], [176, 50], [177, 51], [178, 51], [179, 52], [183, 52], [184, 53], [185, 53], [186, 54], [187, 54], [188, 55], [191, 55], [192, 56], [194, 56], [195, 57], [201, 57], [202, 56], [203, 56], [206, 53], [206, 51], [207, 50], [207, 48], [208, 47], [208, 42], [207, 41], [207, 40], [205, 38], [204, 38], [203, 37], [202, 37], [201, 36], [199, 36], [198, 35], [196, 35], [195, 34], [192, 34], [191, 33], [183, 33]]]}, "properties": {"objectType": "annotation", "classification": {"name": "Neoplastic", "color": [255, 0, 0]}}}, {"type": "Feature", "id": "e95716d4-c86b-40a4-9667-9767b1e5c41e", "geometry": {"type": "Polygon", "coordinates": [[[406, 39], [405, 40], [404, 40], [402, 42], [401, 42], [399, 44], [399, 45], [398, 46], [398, 47], [397, 48], [397, 50], [396, 51], [396, 56], [397, 57], [397, 60], [398, 61], [398, 62], [405, 69], [406, 69], [407, 70], [415, 70], [416, 69], [428, 69], [429, 68], [430, 68], [431, 67], [432, 67], [433, 66], [433, 64], [434, 63], [434, 55], [433, 54], [433, 51], [432, 50], [432, 49], [428, 45], [428, 44], [427, 43], [426, 43], [425, 42], [422, 42], [421, 41], [418, 41], [417, 40], [415, 40], [414, 39], [406, 39]]]}, "properties": {"objectType": "annotation", "classification": {"name": "Neoplastic", "color": [255, 0, 0]}}}, {"type": "Feature", "id": "9cc2df09-50ee-4fbc-97b4-c86972e208e6", "geometry": {"type": "Polygon", "coordinates": [[[42, 38], [41, 39], [40, 39], [40, 40], [38, 42], [38, 44], [37, 45], [37, 46], [36, 47], [36, 48], [34, 50], [34, 52], [27, 59], [26, 59], [26, 60], [21, 65], [21, 67], [20, 68], [20, 71], [19, 72], [19, 76], [20, 77], [20, 79], [21, 80], [23, 80], [26, 77], [27, 77], [30, 74], [31, 74], [33, 72], [34, 72], [43, 63], [43, 62], [44, 61], [44, 60], [46, 58], [46, 56], [47, 55], [47, 52], [48, 51], [48, 49], [49, 48], [49, 46], [48, 45], [48, 42], [44, 38], [42, 38]]]}, "properties": {"objectType": "annotation", "classification": {"name": "Neoplastic", "color": [255, 0, 0]}}}, {"type": "Feature", "id": "deeec11b-7300-4026-a39e-5538ff1d7294", "geometry": {"type": "Polygon", "coordinates": [[[260, 41], [259, 42], [257, 42], [256, 43], [255, 43], [254, 44], [252, 44], [250, 46], [250, 48], [249, 49], [249, 50], [250, 51], [250, 52], [253, 55], [255, 55], [256, 56], [260, 56], [266, 50], [267, 50], [269, 48], [270, 48], [270, 47], [269, 46], [269, 45], [265, 41], [260, 41]]]}, "properties": {"objectType": "annotation", "classification": {"name": "Neoplastic", "color": [255, 0, 0]}}}, {"type": "Feature", "id": "5df53d8b-605d-4290-b592-8ebc1cc19ecd", "geometry": {"type": "Polygon", "coordinates": [[[271, 48], [270, 49], [269, 49], [267, 51], [266, 51], [261, 56], [261, 64], [260, 65], [260, 71], [261, 72], [261, 74], [263, 76], [267, 76], [270, 73], [270, 72], [271, 71], [271, 70], [272, 69], [272, 68], [274, 66], [274, 64], [275, 63], [275, 59], [276, 58], [276, 56], [275, 55], [275, 53], [274, 52], [274, 51], [271, 48]]]}, "properties": {"objectType": "annotation", "classification": {"name": "Neoplastic", "color": [255, 0, 0]}}}, {"type": "Feature", "id": "f0cb98d4-d249-4fad-8270-98a906e595bb", "geometry": {"type": "Polygon", "coordinates": [[[237, 50], [236, 51], [235, 51], [234, 52], [233, 52], [232, 53], [228, 53], [227, 54], [224, 54], [223, 55], [222, 55], [218, 59], [217, 59], [212, 64], [212, 65], [211, 66], [211, 68], [210, 69], [210, 75], [209, 76], [209, 80], [210, 81], [210, 82], [211, 82], [212, 83], [213, 83], [214, 84], [219, 84], [220, 83], [221, 83], [222, 82], [223, 82], [228, 77], [229, 77], [236, 70], [236, 69], [237, 68], [237, 67], [238, 66], [238, 65], [239, 64], [239, 63], [240, 62], [240, 59], [241, 58], [241, 52], [239, 50], [237, 50]]]}, "properties": {"objectType": "annotation", "classification": {"name": "Neoplastic", "color": [255, 0, 0]}}}, {"type": "Feature", "id": "f0a28724-d91a-4a57-a7c6-c59e87cb5017", "geometry": {"type": "Polygon", "coordinates": [[[81, 59], [80, 60], [79, 60], [77, 62], [77, 63], [76, 64], [76, 65], [75, 66], [75, 67], [74, 68], [74, 70], [73, 71], [73, 73], [72, 74], [72, 84], [73, 85], [73, 87], [76, 90], [84, 90], [85, 89], [89, 89], [90, 88], [91, 88], [94, 85], [94, 83], [95, 82], [95, 80], [96, 79], [96, 75], [97, 74], [97, 69], [96, 68], [96, 66], [95, 65], [95, 64], [93, 62], [92, 62], [91, 61], [90, 61], [89, 60], [88, 60], [87, 59], [81, 59]]]}, "properties": {"objectType": "annotation", "classification": {"name": "Neoplastic", "color": [255, 0, 0]}}}, {"type": "Feature", "id": "a8bacee0-0e89-4a29-8339-17e5cca59510", "geometry": {"type": "Polygon", "coordinates": [[[130, 77], [129, 78], [127, 78], [126, 79], [125, 79], [124, 80], [123, 80], [122, 81], [119, 81], [115, 85], [115, 87], [116, 88], [116, 90], [117, 91], [117, 92], [118, 93], [118, 94], [119, 94], [123, 98], [126, 98], [127, 99], [130, 99], [131, 100], [132, 100], [133, 99], [134, 100], [137, 100], [138, 99], [144, 99], [145, 98], [146, 98], [148, 96], [149, 96], [149, 95], [150, 94], [150, 88], [149, 87], [149, 86], [148, 85], [148, 84], [146, 82], [146, 81], [143, 78], [142, 78], [141, 77], [130, 77]]]}, "properties": {"objectType": "annotation", "classification": {"name": "Neoplastic", "color": [255, 0, 0]}}}, {"type": "Feature", "id": "a17fd6b3-af97-4a53-a2e8-8093f0e25f61", "geometry": {"type": "Polygon", "coordinates": [[[284, 83], [283, 84], [283, 85], [282, 86], [282, 88], [281, 89], [281, 98], [282, 99], [282, 103], [283, 104], [283, 110], [282, 111], [282, 112], [283, 113], [283, 114], [284, 115], [286, 115], [287, 114], [289, 114], [289, 113], [292, 110], [292, 109], [294, 107], [294, 106], [295, 105], [295, 104], [296, 103], [296, 99], [297, 98], [297, 95], [296, 94], [296, 93], [295, 92], [295, 91], [294, 90], [294, 89], [289, 84], [288, 84], [287, 83], [284, 83]]]}, "properties": {"objectType": "annotation", "classification": {"name": "Neoplastic", "color": [255, 0, 0]}}}, {"type": "Feature", "id": "4afc0dd7-70ec-463d-8183-36f9c785e2a7", "geometry": {"type": "Polygon", "coordinates": [[[498, 83], [497, 84], [494, 84], [493, 85], [492, 85], [491, 86], [490, 86], [489, 87], [488, 87], [485, 90], [485, 91], [484, 92], [484, 93], [482, 95], [482, 96], [479, 99], [479, 100], [478, 101], [478, 107], [479, 108], [479, 109], [482, 112], [483, 112], [484, 113], [485, 113], [486, 114], [492, 114], [493, 113], [495, 113], [496, 112], [498, 112], [499, 111], [500, 111], [504, 107], [504, 106], [505, 105], [505, 103], [506, 102], [506, 101], [508, 99], [508, 98], [509, 97], [509, 96], [511, 94], [511, 88], [510, 87], [510, 86], [507, 86], [506, 85], [505, 85], [504, 84], [503, 84], [502, 83], [498, 83]]]}, "properties": {"objectType": "annotation", "classification": {"name": "Neoplastic", "color": [255, 0, 0]}}}, {"type": "Feature", "id": "eca320e5-8a37-4050-bd5b-7152f8b89e8d", "geometry": {"type": "Polygon", "coordinates": [[[263, 84], [262, 85], [261, 85], [257, 89], [257, 90], [256, 91], [256, 94], [257, 95], [257, 99], [258, 100], [258, 101], [259, 102], [259, 103], [260, 104], [260, 105], [261, 106], [261, 107], [262, 108], [262, 110], [263, 111], [263, 112], [265, 114], [265, 115], [267, 117], [270, 117], [271, 116], [272, 116], [273, 115], [274, 115], [275, 114], [276, 114], [277, 113], [277, 112], [278, 111], [278, 105], [277, 104], [277, 96], [276, 95], [276, 92], [275, 91], [275, 90], [272, 87], [271, 87], [269, 85], [268, 85], [267, 84], [263, 84]]]}, "properties": {"objectType": "annotation", "classification": {"name": "Neoplastic", "color": [255, 0, 0]}}}, {"type": "Feature", "id": "50427130-8cc2-487e-8117-21ada6068de4", "geometry": {"type": "Polygon", "coordinates": [[[241, 90], [240, 91], [238, 91], [237, 92], [236, 92], [234, 94], [234, 96], [233, 97], [233, 103], [234, 104], [234, 105], [235, 106], [235, 107], [236, 108], [236, 110], [237, 110], [239, 112], [239, 114], [240, 115], [240, 120], [241, 121], [241, 124], [240, 125], [240, 127], [241, 128], [241, 129], [242, 130], [242, 131], [244, 133], [250, 133], [251, 132], [251, 131], [253, 129], [253, 127], [254, 126], [254, 123], [255, 122], [255, 119], [256, 118], [256, 111], [255, 110], [255, 107], [254, 106], [254, 104], [253, 103], [253, 101], [252, 100], [252, 99], [251, 98], [251, 97], [246, 92], [245, 92], [244, 91], [242, 91], [241, 90]]]}, "properties": {"objectType": "annotation", "classification": {"name": "Neoplastic", "color": [255, 0, 0]}}}, {"type": "Feature", "id": "2a9a8622-3a8d-40ba-8e1c-2f245b2bf7c4", "geometry": {"type": "Polygon", "coordinates": [[[172, 98], [170, 100], [170, 101], [169, 102], [169, 108], [170, 109], [170, 110], [172, 112], [172, 113], [174, 115], [174, 116], [175, 117], [175, 118], [176, 119], [176, 120], [178, 122], [178, 124], [179, 125], [179, 128], [180, 129], [180, 137], [181, 138], [181, 139], [182, 140], [182, 141], [183, 142], [183, 143], [184, 144], [184, 145], [185, 146], [185, 147], [186, 148], [187, 148], [188, 149], [190, 149], [191, 148], [192, 148], [192, 146], [193, 145], [192, 144], [192, 132], [191, 131], [191, 129], [190, 128], [190, 127], [189, 126], [189, 121], [188, 120], [188, 106], [187, 105], [187, 103], [184, 100], [183, 100], [182, 99], [181, 99], [180, 98], [172, 98]]]}, "properties": {"objectType": "annotation", "classification": {"name": "Connective", "color": [35, 92, 236]}}}, {"type": "Feature", "id": "33fb8bec-8357-4db1-96be-ef02b4e3c1bb", "geometry": {"type": "Polygon", "coordinates": [[[144, 102], [142, 104], [141, 104], [140, 105], [140, 106], [134, 112], [134, 113], [133, 114], [133, 123], [136, 126], [137, 126], [140, 129], [141, 129], [142, 130], [145, 130], [146, 129], [147, 129], [149, 127], [149, 126], [150, 125], [150, 124], [151, 123], [151, 122], [152, 121], [152, 119], [153, 118], [153, 116], [154, 115], [154, 107], [153, 106], [153, 104], [151, 102], [144, 102]]]}, "properties": {"objectType": "annotation", "classification": {"name": "Neoplastic", "color": [255, 0, 0]}}}, {"type": "Feature", "id": "66aacf04-61a2-4205-83af-fd39248b908e", "geometry": {"type": "Polygon", "coordinates": [[[299, 108], [296, 111], [296, 112], [295, 113], [295, 114], [294, 115], [294, 116], [293, 117], [293, 118], [292, 119], [292, 126], [293, 127], [293, 130], [294, 131], [294, 132], [297, 135], [302, 135], [304, 133], [304, 131], [305, 130], [305, 125], [306, 124], [306, 119], [307, 118], [307, 111], [304, 108], [299, 108]]]}, "properties": {"objectType": "annotation", "classification": {"name": "Neoplastic", "color": [255, 0, 0]}}}, {"type": "Feature", "id": "d512d8a3-f10e-48d1-95f2-61b3d459752b", "geometry": {"type": "Polygon", "coordinates": [[[308, 113], [308, 118], [307, 119], [307, 124], [306, 125], [306, 130], [305, 131], [305, 133], [302, 136], [298, 136], [301, 139], [302, 139], [303, 140], [307, 140], [308, 139], [309, 139], [310, 138], [311, 138], [312, 137], [313, 137], [317, 133], [317, 132], [318, 131], [318, 129], [319, 128], [319, 121], [317, 119], [316, 119], [315, 118], [312, 118], [311, 117], [311, 115], [310, 114], [310, 113], [308, 113]]]}, "properties": {"objectType": "annotation", "classification": {"name": "Neoplastic", "color": [255, 0, 0]}}}, {"type": "Feature", "id": "3b58517a-ea1f-4f48-9996-44a7babe7cae", "geometry": {"type": "Polygon", "coordinates": [[[45, 116], [44, 117], [32, 117], [31, 118], [30, 118], [26, 122], [26, 123], [23, 126], [23, 129], [22, 130], [22, 135], [24, 137], [25, 137], [26, 138], [27, 138], [28, 139], [29, 139], [30, 140], [32, 140], [33, 141], [35, 141], [36, 142], [47, 142], [48, 141], [49, 141], [50, 140], [51, 140], [55, 136], [55, 135], [57, 133], [57, 131], [58, 130], [58, 128], [59, 127], [59, 122], [58, 121], [58, 120], [56, 118], [55, 118], [54, 117], [50, 117], [49, 116], [45, 116]]]}, "properties": {"objectType": "annotation", "classification": {"name": "Neoplastic", "color": [255, 0, 0]}}}, {"type": "Feature", "id": "0f495aab-b211-4fd8-a648-418ea50eb7e1", "geometry": {"type": "Polygon", "coordinates": [[[272, 121], [271, 122], [268, 122], [267, 123], [266, 123], [265, 124], [264, 124], [263, 125], [263, 126], [262, 127], [262, 128], [261, 129], [261, 141], [262, 142], [262, 143], [263, 144], [263, 145], [265, 147], [266, 147], [269, 150], [270, 150], [272, 152], [275, 152], [276, 151], [277, 151], [280, 148], [280, 147], [282, 145], [282, 144], [283, 143], [283, 142], [284, 141], [284, 140], [285, 139], [285, 129], [284, 128], [284, 127], [282, 125], [282, 124], [281, 124], [279, 122], [278, 122], [277, 121], [272, 121]]]}, "properties": {"objectType": "annotation", "classification": {"name": "Neoplastic", "color": [255, 0, 0]}}}, {"type": "Feature", "id": "0986c7ab-4efa-4f76-b6dc-721a8fddd4c5", "geometry": {"type": "Polygon", "coordinates": [[[214, 123], [213, 124], [212, 124], [209, 127], [209, 137], [208, 138], [208, 140], [209, 141], [209, 146], [210, 147], [210, 148], [214, 152], [215, 152], [216, 153], [218, 151], [219, 151], [220, 150], [221, 150], [222, 149], [222, 148], [223, 147], [223, 138], [222, 137], [222, 133], [221, 132], [221, 131], [220, 130], [220, 128], [216, 124], [215, 124], [214, 123]]]}, "properties": {"objectType": "annotation", "classification": {"name": "Neoplastic", "color": [255, 0, 0]}}}, {"type": "Feature", "id": "e2697d15-374a-4ce3-bb43-9fcd0f1cd6be", "geometry": {"type": "Polygon", "coordinates": [[[144, 137], [142, 139], [142, 140], [141, 141], [141, 144], [140, 145], [140, 154], [139, 155], [139, 158], [140, 159], [140, 161], [145, 166], [150, 166], [152, 164], [152, 160], [153, 159], [153, 157], [154, 156], [154, 155], [156, 153], [156, 150], [157, 149], [157, 144], [156, 143], [156, 141], [153, 138], [151, 138], [150, 137], [144, 137]]]}, "properties": {"objectType": "annotation", "classification": {"name": "Neoplastic", "color": [255, 0, 0]}}}, {"type": "Feature", "id": "0875c4e4-a294-4c7f-b6bd-aece24b18913", "geometry": {"type": "Polygon", "coordinates": [[[482, 143], [481, 144], [479, 144], [478, 145], [477, 145], [476, 146], [475, 146], [475, 147], [474, 148], [474, 150], [473, 151], [473, 161], [474, 162], [474, 164], [473, 165], [473, 168], [474, 169], [474, 170], [475, 171], [475, 172], [476, 173], [477, 173], [478, 174], [486, 174], [487, 173], [489, 173], [489, 172], [490, 171], [491, 171], [493, 169], [493, 168], [496, 165], [496, 164], [497, 163], [497, 161], [498, 160], [498, 153], [497, 152], [497, 151], [495, 149], [495, 148], [490, 143], [482, 143]]]}, "properties": {"objectType": "annotation", "classification": {"name": "Neoplastic", "color": [255, 0, 0]}}}, {"type": "Feature", "id": "b8f04926-8026-41ca-8a1a-624caf70009c", "geometry": {"type": "Polygon", "coordinates": [[[213, 152], [212, 153], [201, 153], [200, 154], [200, 155], [199, 156], [199, 161], [203, 165], [204, 165], [205, 166], [206, 166], [207, 167], [208, 167], [209, 168], [212, 168], [213, 169], [214, 168], [217, 168], [219, 166], [219, 165], [220, 164], [220, 158], [215, 153], [214, 153], [213, 152]]]}, "properties": {"objectType": "annotation", "classification": {"name": "Neoplastic", "color": [255, 0, 0]}}}, {"type": "Feature", "id": "71bc53a1-a942-4da4-94e0-fbb8b6177d11", "geometry": {"type": "Polygon", "coordinates": [[[286, 154], [282, 158], [282, 160], [281, 161], [281, 162], [280, 163], [280, 166], [279, 167], [279, 173], [280, 174], [280, 176], [281, 177], [281, 179], [283, 181], [283, 182], [284, 183], [284, 184], [286, 186], [287, 186], [288, 187], [289, 187], [290, 188], [296, 188], [297, 187], [297, 186], [299, 184], [299, 181], [300, 180], [300, 174], [299, 173], [299, 172], [298, 171], [298, 170], [299, 169], [299, 168], [300, 167], [301, 167], [301, 164], [302, 163], [302, 160], [299, 157], [298, 157], [297, 156], [296, 156], [295, 155], [291, 155], [290, 154], [286, 154]]]}, "properties": {"objectType": "annotation", "classification": {"name": "Neoplastic", "color": [255, 0, 0]}}}, {"type": "Feature", "id": "b2b91bf2-8772-4dee-b446-ce11708a91f9", "geometry": {"type": "Polygon", "coordinates": [[[503, 160], [502, 161], [501, 161], [501, 162], [500, 163], [499, 163], [498, 164], [497, 164], [497, 165], [494, 168], [494, 169], [491, 172], [490, 172], [490, 175], [487, 178], [487, 179], [486, 180], [486, 181], [485, 182], [485, 187], [487, 189], [487, 190], [489, 192], [489, 193], [490, 194], [490, 195], [491, 196], [491, 197], [492, 198], [492, 200], [493, 201], [493, 203], [496, 206], [496, 207], [497, 208], [498, 208], [499, 209], [509, 209], [510, 208], [511, 208], [512, 207], [513, 207], [516, 204], [517, 204], [519, 202], [519, 201], [520, 200], [520, 199], [521, 198], [521, 193], [522, 192], [522, 184], [523, 183], [523, 174], [524, 173], [524, 172], [523, 171], [523, 169], [518, 164], [517, 164], [516, 163], [515, 163], [514, 162], [513, 162], [512, 161], [511, 161], [510, 160], [503, 160]]]}, "properties": {"objectType": "annotation", "classification": {"name": "Neoplastic", "color": [255, 0, 0]}}}, {"type": "Feature", "id": "9703bcdb-a2bf-47b3-9c3a-a121a8172873", "geometry": {"type": "Polygon", "coordinates": [[[54, 161], [53, 162], [52, 162], [49, 165], [48, 165], [48, 166], [46, 168], [46, 170], [45, 171], [45, 172], [44, 173], [44, 174], [43, 175], [43, 185], [44, 186], [44, 187], [45, 188], [45, 189], [46, 190], [46, 191], [52, 197], [53, 197], [54, 198], [55, 198], [56, 199], [68, 199], [69, 198], [70, 198], [71, 197], [72, 197], [76, 193], [76, 192], [77, 191], [77, 190], [78, 189], [78, 187], [79, 186], [79, 185], [80, 184], [80, 173], [79, 172], [79, 169], [78, 168], [78, 167], [77, 166], [77, 165], [76, 164], [75, 164], [74, 163], [73, 163], [72, 162], [71, 162], [70, 161], [54, 161]]]}, "properties": {"objectType": "annotation", "classification": {"name": "Neoplastic", "color": [255, 0, 0]}}}, {"type": "Feature", "id": "50f7039d-68f7-4781-ab9f-ad003417c35b", "geometry": {"type": "Polygon", "coordinates": [[[303, 160], [303, 163], [302, 164], [302, 173], [301, 174], [301, 176], [309, 184], [314, 184], [315, 183], [317, 183], [319, 181], [319, 173], [318, 172], [318, 170], [317, 169], [317, 167], [316, 166], [316, 165], [315, 164], [314, 164], [312, 162], [311, 162], [310, 161], [308, 161], [307, 160], [303, 160]]]}, "properties": {"objectType": "annotation", "classification": {"name": "Neoplastic", "color": [255, 0, 0]}}}, {"type": "Feature", "id": "a3341cb1-8bd9-492b-8264-e7f7855a913c", "geometry": {"type": "Polygon", "coordinates": [[[260, 163], [259, 164], [258, 164], [257, 165], [257, 170], [258, 171], [258, 172], [259, 173], [259, 174], [261, 176], [261, 177], [262, 178], [262, 179], [263, 180], [263, 185], [265, 187], [271, 187], [272, 186], [273, 186], [275, 184], [275, 179], [274, 178], [274, 174], [273, 173], [273, 172], [271, 170], [271, 169], [268, 166], [267, 166], [266, 165], [265, 165], [264, 164], [262, 164], [261, 163], [260, 163]]]}, "properties": {"objectType": "annotation", "classification": {"name": "Neoplastic", "color": [255, 0, 0]}}}, {"type": "Feature", "id": "d2c70469-5661-4eab-966e-138af3916eb8", "geometry": {"type": "Polygon", "coordinates": [[[201, 171], [200, 172], [198, 172], [198, 173], [197, 174], [197, 177], [196, 178], [202, 184], [203, 184], [205, 186], [208, 186], [209, 187], [210, 186], [212, 186], [214, 184], [214, 181], [213, 180], [213, 179], [206, 172], [202, 172], [201, 171]]]}, "properties": {"objectType": "annotation", "classification": {"name": "Neoplastic", "color": [255, 0, 0]}}}, {"type": "Feature", "id": "d67041c6-d53a-4d4d-bd6a-fe90fcb09403", "geometry": {"type": "Polygon", "coordinates": [[[154, 173], [152, 175], [150, 175], [146, 179], [146, 182], [145, 183], [145, 189], [146, 190], [146, 192], [148, 194], [148, 195], [149, 195], [150, 196], [155, 196], [156, 195], [157, 195], [158, 194], [159, 194], [163, 190], [163, 187], [164, 186], [164, 183], [163, 182], [163, 180], [162, 179], [162, 178], [157, 173], [154, 173]]]}, "properties": {"objectType": "annotation", "classification": {"name": "Neoplastic", "color": [255, 0, 0]}}}, {"type": "Feature", "id": "11553e3d-8456-42dc-a480-3cfd5d933ad3", "geometry": {"type": "Polygon", "coordinates": [[[355, 180], [354, 181], [352, 181], [348, 185], [348, 186], [347, 187], [347, 188], [346, 189], [346, 190], [345, 191], [345, 194], [344, 195], [344, 197], [343, 198], [343, 202], [342, 203], [342, 213], [343, 214], [343, 216], [347, 220], [348, 220], [349, 221], [350, 221], [351, 222], [355, 222], [356, 221], [358, 221], [359, 220], [360, 220], [360, 212], [361, 211], [361, 207], [362, 206], [362, 205], [363, 204], [363, 203], [364, 202], [364, 190], [363, 189], [363, 188], [362, 187], [362, 185], [361, 184], [361, 182], [359, 180], [355, 180]]]}, "properties": {"objectType": "annotation", "classification": {"name": "Neoplastic", "color": [255, 0, 0]}}}, {"type": "Feature", "id": "7a184101-e570-45d3-ae2a-0efc020fa0b6", "geometry": {"type": "Polygon", "coordinates": [[[87, 182], [86, 183], [86, 184], [85, 185], [85, 186], [86, 187], [86, 189], [87, 190], [87, 193], [88, 194], [88, 195], [89, 196], [89, 197], [93, 201], [94, 201], [95, 202], [97, 202], [98, 201], [98, 200], [99, 199], [99, 194], [98, 193], [98, 191], [97, 190], [97, 189], [96, 188], [96, 187], [95, 186], [95, 185], [93, 183], [92, 183], [91, 182], [87, 182]]]}, "properties": {"objectType": "annotation", "classification": {"name": "Neoplastic", "color": [255, 0, 0]}}}, {"type": "Feature", "id": "fa2a15e4-dad7-44d6-a51e-bade6ef51b39", "geometry": {"type": "Polygon", "coordinates": [[[326, 187], [325, 188], [324, 188], [322, 190], [321, 190], [318, 193], [318, 194], [317, 195], [317, 196], [316, 197], [317, 198], [317, 199], [318, 200], [319, 200], [321, 202], [322, 202], [323, 203], [326, 203], [327, 202], [329, 202], [332, 199], [332, 198], [333, 197], [333, 191], [332, 190], [332, 189], [330, 187], [326, 187]]]}, "properties": {"objectType": "annotation", "classification": {"name": "Neoplastic", "color": [255, 0, 0]}}}, {"type": "Feature", "id": "2796394b-71bf-4f51-9827-ee796bef43ab", "geometry": {"type": "Polygon", "coordinates": [[[252, 190], [251, 191], [250, 191], [249, 192], [247, 192], [238, 201], [238, 202], [236, 204], [236, 205], [235, 206], [235, 207], [234, 208], [234, 215], [235, 216], [235, 217], [238, 220], [239, 220], [240, 221], [243, 221], [244, 222], [256, 222], [257, 221], [260, 221], [261, 220], [262, 220], [264, 218], [265, 218], [267, 216], [267, 215], [268, 214], [268, 213], [269, 212], [269, 204], [268, 203], [268, 202], [264, 198], [264, 197], [263, 196], [263, 195], [258, 190], [252, 190]]]}, "properties": {"objectType": "annotation", "classification": {"name": "Neoplastic", "color": [255, 0, 0]}}}, {"type": "Feature", "id": "d6e5f193-4923-4767-8bf5-fc245d750581", "geometry": {"type": "Polygon", "coordinates": [[[300, 198], [299, 199], [298, 199], [297, 200], [296, 200], [290, 206], [289, 206], [287, 208], [287, 209], [286, 210], [286, 211], [285, 212], [285, 216], [287, 218], [287, 219], [292, 224], [293, 224], [294, 225], [295, 225], [296, 226], [303, 226], [304, 225], [305, 225], [306, 224], [306, 223], [308, 221], [308, 220], [311, 217], [312, 217], [313, 216], [314, 216], [316, 214], [317, 214], [318, 213], [318, 212], [320, 210], [320, 208], [319, 207], [319, 206], [314, 201], [313, 201], [312, 200], [311, 200], [310, 199], [309, 199], [308, 198], [300, 198]]]}, "properties": {"objectType": "annotation", "classification": {"name": "Neoplastic", "color": [255, 0, 0]}}}, {"type": "Feature", "id": "ca6e18ec-b734-4a97-8f60-55707afbeece", "geometry": {"type": "Polygon", "coordinates": [[[365, 202], [364, 203], [364, 204], [363, 205], [363, 206], [362, 207], [362, 211], [361, 212], [361, 221], [362, 222], [370, 222], [371, 221], [377, 221], [378, 220], [379, 220], [380, 219], [379, 218], [379, 215], [378, 214], [378, 211], [377, 210], [377, 209], [376, 208], [376, 207], [372, 203], [370, 203], [369, 202], [365, 202]]]}, "properties": {"objectType": "annotation", "classification": {"name": "Neoplastic", "color": [255, 0, 0]}}}, {"type": "Feature", "id": "30d3fe6d-75e7-4687-a2d5-ef6b6db7b75f", "geometry": {"type": "Polygon", "coordinates": [[[449, 205], [443, 211], [443, 212], [441, 214], [441, 215], [439, 217], [439, 226], [440, 227], [440, 228], [439, 229], [439, 230], [440, 231], [440, 232], [442, 234], [444, 234], [445, 235], [452, 235], [453, 234], [454, 234], [459, 229], [460, 229], [462, 227], [462, 226], [464, 224], [464, 222], [465, 221], [465, 211], [464, 210], [464, 209], [461, 206], [460, 206], [459, 205], [449, 205]]]}, "properties": {"objectType": "annotation", "classification": {"name": "Neoplastic", "color": [255, 0, 0]}}}, {"type": "Feature", "id": "0a505296-55fc-4818-a1fb-f16bc52dfe78", "geometry": {"type": "Polygon", "coordinates": [[[58, 205], [57, 206], [56, 206], [55, 207], [54, 207], [53, 208], [52, 208], [48, 212], [47, 212], [47, 213], [46, 214], [46, 215], [45, 216], [45, 219], [46, 220], [46, 221], [49, 224], [50, 224], [51, 225], [53, 225], [54, 226], [55, 226], [56, 227], [64, 227], [65, 226], [65, 225], [66, 224], [66, 222], [67, 221], [67, 218], [68, 217], [68, 214], [69, 213], [69, 212], [70, 211], [70, 210], [71, 209], [71, 207], [70, 206], [68, 206], [67, 205], [58, 205]]]}, "properties": {"objectType": "annotation", "classification": {"name": "Neoplastic", "color": [255, 0, 0]}}}, {"type": "Feature", "id": "5e0500d8-432d-453b-af77-c3ad888c9998", "geometry": {"type": "Polygon", "coordinates": [[[136, 208], [135, 209], [133, 209], [128, 214], [128, 215], [127, 216], [127, 217], [125, 219], [125, 220], [124, 221], [124, 222], [123, 223], [123, 224], [122, 225], [122, 226], [121, 227], [121, 228], [120, 229], [120, 235], [121, 236], [121, 238], [122, 239], [123, 239], [124, 240], [126, 240], [127, 241], [129, 241], [130, 242], [132, 242], [133, 243], [134, 242], [135, 242], [136, 241], [138, 241], [139, 240], [141, 240], [142, 239], [144, 239], [145, 238], [145, 237], [144, 236], [145, 235], [145, 230], [146, 229], [146, 227], [147, 226], [147, 213], [143, 209], [142, 209], [141, 208], [136, 208]]]}, "properties": {"objectType": "annotation", "classification": {"name": "Neoplastic", "color": [255, 0, 0]}}}, {"type": "Feature", "id": "779c1d7b-ec37-4886-bd16-3ac5fff823e3", "geometry": {"type": "Polygon", "coordinates": [[[72, 207], [72, 209], [71, 210], [71, 211], [70, 212], [70, 213], [69, 214], [69, 217], [68, 218], [68, 221], [67, 222], [67, 224], [66, 225], [66, 226], [65, 227], [67, 229], [67, 230], [68, 231], [69, 231], [70, 232], [73, 232], [74, 231], [75, 231], [80, 226], [80, 225], [81, 224], [81, 222], [82, 221], [82, 216], [81, 215], [81, 212], [79, 210], [78, 210], [76, 208], [74, 208], [73, 207], [72, 207]]]}, "properties": {"objectType": "annotation", "classification": {"name": "Neoplastic", "color": [255, 0, 0]}}}, {"type": "Feature", "id": "32d3f537-a539-41a5-a379-db0c1a137f28", "geometry": {"type": "Polygon", "coordinates": [[[113, 216], [111, 218], [110, 218], [108, 220], [108, 223], [107, 224], [107, 225], [106, 226], [106, 227], [105, 228], [105, 229], [104, 230], [104, 232], [103, 233], [103, 234], [102, 235], [102, 240], [103, 241], [103, 242], [105, 244], [113, 244], [113, 243], [114, 242], [114, 241], [115, 240], [115, 238], [116, 237], [116, 234], [117, 233], [117, 231], [118, 230], [118, 228], [119, 227], [119, 223], [120, 222], [120, 218], [119, 217], [118, 217], [117, 216], [113, 216]]]}, "properties": {"objectType": "annotation", "classification": {"name": "Neoplastic", "color": [255, 0, 0]}}}, {"type": "Feature", "id": "34f479ee-91f6-44b0-8ad7-2fc91872c083", "geometry": {"type": "Polygon", "coordinates": [[[326, 218], [325, 219], [322, 219], [320, 221], [319, 221], [319, 222], [318, 223], [318, 224], [317, 225], [318, 226], [318, 243], [317, 244], [317, 245], [318, 246], [318, 247], [319, 248], [319, 249], [320, 249], [322, 251], [330, 251], [331, 250], [333, 250], [335, 248], [336, 248], [338, 246], [338, 245], [340, 243], [341, 243], [343, 241], [344, 241], [347, 238], [347, 237], [348, 236], [348, 230], [347, 229], [347, 228], [346, 227], [345, 227], [342, 224], [341, 224], [339, 222], [337, 222], [336, 223], [335, 222], [334, 222], [333, 221], [332, 221], [330, 219], [328, 219], [327, 218], [326, 218]]]}, "properties": {"objectType": "annotation", "classification": {"name": "Neoplastic", "color": [255, 0, 0]}}}, {"type": "Feature", "id": "562e5d02-b681-44a0-8c22-068ad6dab465", "geometry": {"type": "Polygon", "coordinates": [[[473, 221], [472, 222], [471, 222], [468, 225], [468, 226], [467, 227], [467, 229], [466, 230], [466, 233], [467, 234], [467, 238], [468, 239], [468, 241], [470, 243], [470, 244], [472, 246], [476, 246], [477, 245], [478, 245], [479, 244], [480, 244], [482, 242], [482, 241], [483, 240], [483, 236], [484, 235], [484, 229], [483, 228], [483, 226], [482, 226], [478, 222], [477, 222], [476, 221], [473, 221]]]}, "properties": {"objectType": "annotation", "classification": {"name": "Neoplastic", "color": [255, 0, 0]}}}, {"type": "Feature", "id": "4edb9b80-e622-4ec7-b62d-9010d8870712", "geometry": {"type": "Polygon", "coordinates": [[[380, 220], [379, 221], [378, 221], [377, 222], [371, 222], [370, 223], [362, 223], [356, 229], [356, 235], [357, 236], [357, 238], [358, 239], [358, 240], [359, 241], [359, 242], [363, 246], [364, 246], [365, 247], [366, 247], [367, 248], [368, 248], [369, 249], [377, 249], [378, 248], [379, 248], [382, 245], [382, 244], [384, 242], [384, 241], [385, 240], [385, 239], [386, 238], [386, 237], [388, 235], [388, 232], [389, 231], [389, 230], [388, 229], [388, 226], [387, 225], [387, 224], [386, 223], [385, 223], [383, 221], [382, 221], [381, 220], [380, 220]]]}, "properties": {"objectType": "annotation", "classification": {"name": "Neoplastic", "color": [255, 0, 0]}}}, {"type": "Feature", "id": "20b9cbd1-b82b-4559-8ef6-8bfe4e4ebcb7", "geometry": {"type": "Polygon", "coordinates": [[[498, 226], [497, 227], [490, 227], [489, 228], [488, 228], [485, 231], [485, 236], [486, 237], [486, 241], [485, 242], [485, 245], [484, 246], [484, 247], [483, 248], [483, 256], [484, 257], [484, 258], [485, 259], [498, 259], [499, 258], [503, 258], [504, 257], [505, 257], [508, 254], [508, 253], [509, 252], [509, 241], [508, 240], [508, 238], [507, 237], [507, 236], [506, 235], [506, 233], [505, 232], [505, 231], [504, 230], [504, 229], [503, 229], [501, 227], [500, 227], [499, 226], [498, 226]]]}, "properties": {"objectType": "annotation", "classification": {"name": "Neoplastic", "color": [255, 0, 0]}}}, {"type": "Feature", "id": "ab638562-2f80-4909-93b6-64e6716d8a01", "geometry": {"type": "Polygon", "coordinates": [[[310, 229], [309, 230], [306, 230], [305, 231], [304, 231], [303, 232], [302, 232], [301, 233], [300, 233], [299, 234], [298, 234], [297, 235], [295, 235], [294, 236], [293, 236], [290, 239], [289, 239], [286, 242], [286, 245], [285, 246], [286, 247], [286, 249], [287, 250], [287, 251], [288, 251], [290, 253], [295, 253], [296, 252], [297, 252], [298, 251], [299, 251], [300, 250], [301, 250], [303, 248], [304, 248], [306, 246], [307, 246], [312, 241], [312, 240], [313, 239], [313, 238], [314, 237], [314, 231], [313, 230], [313, 229], [310, 229]]]}, "properties": {"objectType": "annotation", "classification": {"name": "Neoplastic", "color": [255, 0, 0]}}}, {"type": "Feature", "id": "8607a5ef-9a63-4021-a5fb-16e0cd540176", "geometry": {"type": "Polygon", "coordinates": [[[457, 238], [456, 239], [455, 239], [454, 240], [454, 241], [453, 242], [453, 243], [452, 244], [452, 245], [451, 246], [451, 247], [450, 248], [450, 260], [451, 261], [455, 261], [456, 260], [458, 260], [459, 259], [460, 259], [461, 258], [462, 258], [467, 253], [467, 252], [469, 250], [469, 249], [468, 248], [468, 246], [466, 244], [466, 243], [465, 242], [465, 241], [464, 240], [463, 240], [461, 238], [457, 238]]]}, "properties": {"objectType": "annotation", "classification": {"name": "Neoplastic", "color": [255, 0, 0]}}}, {"type": "Feature", "id": "da201c4a-a197-462a-ac95-20d8d8d4a4d6", "geometry": {"type": "Polygon", "coordinates": [[[146, 238], [144, 240], [142, 240], [141, 241], [139, 241], [138, 242], [136, 242], [135, 243], [134, 243], [133, 244], [133, 245], [132, 246], [132, 253], [131, 254], [131, 258], [132, 259], [132, 263], [131, 264], [131, 268], [130, 269], [130, 271], [131, 272], [131, 274], [133, 276], [135, 276], [136, 277], [143, 277], [145, 275], [146, 275], [147, 274], [148, 274], [149, 273], [153, 273], [154, 272], [157, 272], [158, 271], [159, 271], [160, 270], [160, 269], [161, 268], [161, 257], [160, 256], [160, 254], [159, 253], [159, 252], [155, 248], [155, 247], [146, 238]]]}, "properties": {"objectType": "annotation", "classification": {"name": "Neoplastic", "color": [255, 0, 0]}}}, {"type": "Feature", "id": "4aec8198-8fe6-4d2f-9341-51470abb6186", "geometry": {"type": "Polygon", "coordinates": [[[105, 245], [104, 246], [104, 247], [100, 251], [100, 252], [98, 254], [98, 255], [97, 256], [97, 258], [96, 259], [96, 263], [95, 264], [95, 272], [96, 273], [96, 275], [97, 276], [97, 277], [103, 283], [104, 283], [105, 284], [113, 284], [114, 283], [115, 283], [119, 279], [119, 278], [120, 277], [120, 276], [121, 275], [121, 272], [122, 271], [122, 270], [123, 269], [123, 258], [122, 257], [122, 254], [121, 253], [121, 252], [119, 250], [119, 249], [116, 246], [115, 246], [114, 245], [105, 245]]]}, "properties": {"objectType": "annotation", "classification": {"name": "Neoplastic", "color": [255, 0, 0]}}}, {"type": "Feature", "id": "3bdb299c-bcbc-4b1f-ab17-6103c56c5524", "geometry": {"type": "Polygon", "coordinates": [[[73, 248], [72, 249], [71, 249], [70, 250], [70, 251], [68, 253], [68, 254], [67, 255], [67, 257], [66, 258], [66, 262], [67, 263], [67, 266], [68, 267], [68, 268], [70, 270], [70, 271], [72, 273], [72, 274], [73, 275], [73, 276], [74, 277], [74, 278], [75, 279], [75, 280], [76, 281], [81, 281], [86, 276], [86, 275], [88, 273], [88, 271], [89, 270], [89, 268], [90, 267], [90, 261], [89, 260], [89, 259], [88, 259], [86, 257], [85, 257], [83, 255], [83, 254], [81, 252], [81, 251], [78, 248], [73, 248]]]}, "properties": {"objectType": "annotation", "classification": {"name": "Neoplastic", "color": [255, 0, 0]}}}, {"type": "Feature", "id": "75b5c0c6-3783-4af8-90fc-180cd11a7a67", "geometry": {"type": "Polygon", "coordinates": [[[365, 253], [364, 254], [363, 254], [361, 256], [361, 264], [362, 265], [362, 266], [363, 267], [363, 268], [364, 269], [364, 270], [365, 271], [365, 272], [367, 274], [367, 275], [369, 277], [369, 278], [371, 280], [371, 281], [376, 286], [376, 287], [379, 290], [380, 290], [382, 292], [385, 292], [386, 291], [387, 291], [387, 290], [388, 289], [388, 288], [389, 287], [389, 278], [388, 277], [388, 274], [387, 273], [387, 272], [386, 271], [386, 270], [384, 268], [384, 267], [382, 265], [382, 264], [380, 262], [380, 261], [377, 258], [377, 257], [376, 256], [375, 256], [374, 255], [373, 255], [372, 254], [369, 254], [368, 253], [365, 253]]]}, "properties": {"objectType": "annotation", "classification": {"name": "Connective", "color": [35, 92, 236]}}}, {"type": "Feature", "id": "30d011df-4074-4f5e-98ed-90197a0f60c4", "geometry": {"type": "Polygon", "coordinates": [[[402, 258], [401, 259], [400, 259], [399, 260], [398, 260], [397, 261], [397, 262], [396, 263], [396, 265], [395, 266], [395, 269], [394, 270], [394, 273], [393, 274], [393, 275], [394, 276], [394, 279], [397, 282], [398, 282], [400, 284], [401, 284], [402, 285], [404, 285], [405, 286], [407, 286], [408, 287], [410, 287], [411, 288], [412, 288], [413, 289], [415, 289], [416, 290], [417, 290], [418, 291], [420, 291], [421, 292], [423, 292], [424, 293], [431, 293], [432, 292], [433, 292], [434, 291], [435, 291], [437, 289], [437, 288], [438, 287], [438, 275], [437, 274], [437, 272], [436, 271], [436, 270], [431, 265], [429, 265], [428, 264], [426, 264], [424, 262], [423, 262], [422, 261], [421, 261], [420, 260], [416, 260], [415, 259], [411, 259], [410, 258], [402, 258]]]}, "properties": {"objectType": "annotation", "classification": {"name": "Neoplastic", "color": [255, 0, 0]}}}, {"type": "Feature", "id": "cce8ac2a-f46b-4f10-9a4b-6619b11f5312", "geometry": {"type": "Polygon", "coordinates": [[[202, 265], [201, 266], [195, 266], [194, 267], [192, 267], [191, 268], [190, 268], [187, 271], [187, 279], [188, 280], [188, 282], [190, 284], [190, 285], [192, 287], [193, 287], [195, 289], [196, 289], [198, 291], [199, 291], [201, 293], [204, 293], [205, 292], [206, 292], [207, 291], [208, 291], [212, 287], [212, 283], [213, 282], [213, 279], [214, 278], [214, 276], [215, 275], [215, 270], [211, 266], [210, 266], [209, 265], [202, 265]]]}, "properties": {"objectType": "annotation", "classification": {"name": "Connective", "color": [35, 92, 236]}}}, {"type": "Feature", "id": "00e5b392-6329-49ef-b3f1-4f30d4cb222b", "geometry": {"type": "Polygon", "coordinates": [[[357, 271], [355, 273], [355, 284], [356, 285], [356, 286], [357, 287], [357, 288], [358, 289], [358, 291], [359, 292], [359, 297], [360, 298], [360, 300], [361, 301], [361, 302], [362, 303], [362, 304], [364, 306], [364, 307], [367, 310], [371, 310], [372, 309], [374, 309], [376, 307], [376, 306], [377, 305], [377, 301], [378, 300], [378, 297], [377, 296], [377, 294], [376, 293], [376, 292], [375, 291], [375, 290], [372, 287], [372, 286], [368, 282], [368, 281], [359, 272], [358, 272], [357, 271]]]}, "properties": {"objectType": "annotation", "classification": {"name": "Connective", "color": [35, 92, 236]}}}, {"type": "Feature", "id": "6257b020-cdcb-4b21-a051-1bbbaac8a731", "geometry": {"type": "Polygon", "coordinates": [[[42, 274], [40, 276], [39, 276], [35, 280], [34, 280], [34, 281], [32, 283], [32, 284], [28, 288], [28, 289], [27, 290], [27, 291], [26, 292], [26, 294], [25, 295], [25, 303], [27, 305], [27, 306], [28, 307], [29, 307], [30, 308], [31, 308], [32, 309], [37, 309], [38, 308], [41, 308], [42, 307], [43, 307], [45, 305], [45, 304], [46, 303], [46, 302], [47, 301], [47, 300], [48, 299], [48, 296], [49, 295], [49, 288], [50, 287], [50, 286], [51, 285], [51, 284], [52, 283], [52, 279], [51, 278], [51, 276], [49, 274], [42, 274]]]}, "properties": {"objectType": "annotation", "classification": {"name": "Neoplastic", "color": [255, 0, 0]}}}, {"type": "Feature", "id": "9d8ddb0c-1d8d-43a5-b010-dd7ad2b4adcb", "geometry": {"type": "Polygon", "coordinates": [[[474, 287], [471, 290], [471, 292], [472, 293], [472, 294], [474, 296], [474, 297], [475, 298], [476, 298], [477, 299], [483, 299], [484, 298], [484, 297], [485, 296], [484, 295], [484, 292], [483, 291], [483, 290], [481, 288], [480, 288], [479, 287], [474, 287]]]}, "properties": {"objectType": "annotation", "classification": {"name": "Neoplastic", "color": [255, 0, 0]}}}, {"type": "Feature", "id": "c9be5c6a-9251-4f72-8378-b4e0c4349948", "geometry": {"type": "Polygon", "coordinates": [[[310, 288], [309, 289], [308, 289], [306, 291], [306, 292], [305, 293], [305, 295], [304, 296], [304, 297], [303, 298], [303, 299], [302, 300], [302, 301], [300, 303], [300, 304], [298, 306], [298, 307], [296, 309], [295, 309], [293, 311], [293, 314], [294, 315], [294, 316], [296, 318], [301, 318], [302, 317], [303, 317], [306, 314], [307, 314], [308, 313], [309, 313], [310, 312], [311, 312], [316, 307], [316, 306], [317, 305], [317, 299], [316, 298], [316, 293], [315, 292], [315, 291], [313, 289], [312, 289], [311, 288], [310, 288]]]}, "properties": {"objectType": "annotation", "classification": {"name": "Neoplastic", "color": [255, 0, 0]}}}, {"type": "Feature", "id": "7b67b5c2-aa7d-42f9-ae8e-9320c3f7ddf6", "geometry": {"type": "Polygon", "coordinates": [[[153, 291], [151, 293], [151, 294], [150, 295], [150, 296], [149, 297], [149, 303], [148, 304], [148, 306], [147, 307], [147, 309], [146, 310], [146, 311], [142, 315], [142, 316], [141, 317], [141, 318], [137, 322], [137, 324], [139, 326], [141, 326], [142, 327], [143, 327], [144, 326], [146, 326], [147, 325], [148, 325], [149, 324], [150, 324], [151, 323], [152, 323], [153, 322], [154, 322], [157, 319], [157, 318], [158, 317], [158, 316], [160, 314], [160, 312], [161, 311], [161, 310], [162, 309], [162, 307], [163, 306], [163, 303], [164, 302], [164, 298], [163, 297], [163, 295], [161, 293], [160, 293], [159, 292], [158, 292], [157, 291], [153, 291]]]}, "properties": {"objectType": "annotation", "classification": {"name": "Neoplastic", "color": [255, 0, 0]}}}, {"type": "Feature", "id": "0e9cf490-6e60-407e-bf2e-f6e4b67287a3", "geometry": {"type": "Polygon", "coordinates": [[[487, 295], [485, 297], [485, 298], [483, 300], [483, 303], [484, 304], [484, 315], [487, 318], [488, 318], [489, 319], [497, 319], [499, 317], [500, 317], [501, 316], [502, 316], [506, 312], [506, 308], [505, 307], [505, 305], [499, 299], [498, 299], [496, 297], [495, 297], [494, 296], [493, 296], [492, 295], [487, 295]]]}, "properties": {"objectType": "annotation", "classification": {"name": "Neoplastic", "color": [255, 0, 0]}}}, {"type": "Feature", "id": "975d337f-f483-4c03-9486-09f997b01b3c", "geometry": {"type": "Polygon", "coordinates": [[[446, 301], [443, 304], [443, 307], [442, 308], [442, 311], [441, 312], [441, 317], [440, 318], [440, 320], [439, 321], [440, 322], [440, 327], [439, 328], [439, 336], [440, 336], [445, 341], [448, 341], [449, 342], [451, 342], [452, 343], [455, 343], [456, 342], [457, 342], [458, 341], [459, 341], [459, 340], [461, 338], [461, 337], [463, 335], [463, 334], [464, 333], [464, 332], [465, 331], [465, 330], [466, 329], [466, 328], [467, 327], [467, 325], [468, 324], [468, 319], [469, 318], [469, 313], [468, 312], [468, 311], [467, 310], [467, 309], [465, 307], [464, 307], [463, 306], [462, 306], [461, 305], [457, 305], [456, 304], [455, 304], [452, 301], [446, 301]]]}, "properties": {"objectType": "annotation", "classification": {"name": "Neoplastic", "color": [255, 0, 0]}}}, {"type": "Feature", "id": "b80d6702-da6c-468f-a2fe-a9882b6ef8e1", "geometry": {"type": "Polygon", "coordinates": [[[76, 305], [75, 306], [72, 306], [71, 307], [70, 307], [69, 308], [68, 308], [66, 310], [65, 310], [63, 312], [62, 312], [62, 313], [59, 316], [58, 316], [58, 317], [57, 318], [57, 319], [56, 320], [56, 326], [57, 327], [59, 327], [60, 328], [65, 328], [66, 329], [74, 329], [75, 328], [77, 328], [79, 326], [80, 326], [82, 324], [83, 324], [85, 322], [85, 321], [86, 320], [86, 319], [87, 318], [87, 310], [86, 309], [86, 308], [83, 305], [76, 305]]]}, "properties": {"objectType": "annotation", "classification": {"name": "Neoplastic", "color": [255, 0, 0]}}}, {"type": "Feature", "id": "17dea339-91fd-4ae5-8cbe-aa6ca5d1c90b", "geometry": {"type": "Polygon", "coordinates": [[[326, 307], [324, 309], [324, 310], [323, 311], [323, 312], [322, 313], [322, 317], [323, 318], [323, 319], [324, 319], [328, 323], [329, 323], [331, 325], [333, 325], [334, 326], [338, 326], [340, 324], [340, 323], [341, 322], [341, 319], [340, 318], [340, 317], [338, 315], [338, 314], [332, 308], [331, 308], [330, 307], [326, 307]]]}, "properties": {"objectType": "annotation", "classification": {"name": "Neoplastic", "color": [255, 0, 0]}}}, {"type": "Feature", "id": "2b3c85da-3fb8-452e-b792-76009f103361", "geometry": {"type": "Polygon", "coordinates": [[[240, 316], [236, 320], [236, 322], [235, 323], [235, 330], [234, 331], [234, 338], [235, 339], [235, 340], [236, 341], [238, 341], [239, 340], [240, 340], [241, 339], [241, 338], [242, 337], [242, 336], [243, 335], [243, 333], [244, 332], [244, 330], [245, 329], [245, 323], [244, 322], [244, 321], [243, 320], [243, 317], [242, 316], [240, 316]]]}, "properties": {"objectType": "annotation", "classification": {"name": "Connective", "color": [35, 92, 236]}}}, {"type": "Feature", "id": "9e7d5b19-03dd-4ba0-8c4d-b68bd795134a", "geometry": {"type": "Polygon", "coordinates": [[[316, 323], [315, 324], [314, 324], [313, 325], [312, 325], [311, 326], [310, 326], [309, 327], [308, 327], [307, 328], [306, 328], [304, 330], [304, 331], [303, 332], [303, 336], [302, 337], [302, 340], [303, 341], [303, 345], [304, 346], [304, 347], [305, 348], [305, 349], [306, 350], [307, 350], [310, 353], [310, 354], [312, 356], [313, 356], [314, 355], [315, 355], [316, 354], [320, 354], [321, 353], [324, 353], [325, 352], [328, 352], [328, 346], [329, 345], [329, 343], [330, 342], [330, 338], [331, 337], [331, 329], [327, 325], [326, 325], [325, 324], [323, 324], [322, 323], [316, 323]]]}, "properties": {"objectType": "annotation", "classification": {"name": "Neoplastic", "color": [255, 0, 0]}}}, {"type": "Feature", "id": "ed371d10-62aa-4a2b-928b-5333c2d51844", "geometry": {"type": "Polygon", "coordinates": [[[160, 325], [159, 326], [158, 326], [157, 327], [156, 327], [153, 330], [153, 331], [151, 333], [151, 334], [150, 335], [150, 336], [149, 337], [149, 338], [148, 339], [148, 340], [147, 341], [147, 344], [146, 345], [146, 349], [147, 350], [147, 354], [148, 355], [148, 356], [149, 357], [149, 358], [150, 359], [150, 360], [151, 361], [152, 361], [153, 362], [156, 362], [157, 361], [159, 361], [160, 360], [161, 360], [165, 356], [165, 355], [166, 354], [166, 353], [167, 352], [167, 350], [168, 349], [168, 340], [169, 339], [169, 327], [168, 326], [167, 326], [166, 325], [160, 325]]]}, "properties": {"objectType": "annotation", "classification": {"name": "Neoplastic", "color": [255, 0, 0]}}}, {"type": "Feature", "id": "901a8435-0925-443c-b92e-5055f0379824", "geometry": {"type": "Polygon", "coordinates": [[[88, 328], [87, 329], [86, 329], [81, 334], [80, 334], [79, 335], [79, 336], [78, 337], [78, 338], [77, 339], [77, 342], [76, 343], [76, 353], [79, 356], [80, 356], [81, 357], [84, 357], [85, 358], [89, 358], [90, 359], [93, 359], [94, 360], [97, 360], [98, 361], [106, 361], [110, 357], [110, 355], [111, 354], [111, 351], [112, 350], [112, 348], [113, 347], [113, 343], [114, 342], [114, 338], [113, 337], [113, 335], [112, 334], [111, 334], [110, 333], [108, 333], [107, 332], [104, 332], [103, 331], [99, 331], [98, 330], [96, 330], [95, 329], [94, 329], [93, 328], [88, 328]]]}, "properties": {"objectType": "annotation", "classification": {"name": "Neoplastic", "color": [255, 0, 0]}}}, {"type": "Feature", "id": "e4bae28b-0d6c-46e4-b807-e21667205080", "geometry": {"type": "Polygon", "coordinates": [[[480, 333], [479, 334], [477, 334], [475, 336], [474, 336], [474, 337], [471, 340], [471, 341], [470, 342], [470, 343], [469, 344], [469, 346], [468, 347], [468, 351], [469, 352], [469, 354], [471, 356], [472, 356], [473, 357], [478, 357], [480, 355], [481, 355], [484, 352], [485, 352], [491, 346], [491, 344], [492, 343], [492, 340], [491, 339], [491, 337], [487, 333], [480, 333]]]}, "properties": {"objectType": "annotation", "classification": {"name": "Neoplastic", "color": [255, 0, 0]}}}, {"type": "Feature", "id": "7da0761a-04f3-4642-9dc1-015ea4aaf85a", "geometry": {"type": "Polygon", "coordinates": [[[249, 340], [248, 341], [247, 341], [246, 342], [245, 342], [244, 343], [244, 344], [243, 345], [243, 346], [242, 347], [242, 349], [241, 350], [241, 352], [240, 353], [240, 355], [239, 356], [239, 357], [238, 358], [238, 359], [237, 360], [237, 361], [236, 362], [236, 363], [235, 364], [235, 365], [234, 366], [234, 367], [233, 368], [233, 369], [232, 370], [232, 371], [231, 372], [231, 373], [230, 374], [230, 376], [229, 377], [229, 380], [228, 381], [228, 386], [230, 388], [233, 388], [234, 387], [235, 387], [238, 384], [239, 384], [245, 378], [245, 377], [249, 373], [249, 372], [251, 370], [251, 369], [252, 368], [252, 367], [253, 366], [253, 364], [254, 363], [254, 360], [255, 359], [255, 358], [256, 357], [256, 354], [257, 353], [257, 348], [256, 347], [256, 344], [255, 343], [255, 342], [253, 340], [249, 340]]]}, "properties": {"objectType": "annotation", "classification": {"name": "Neoplastic", "color": [255, 0, 0]}}}, {"type": "Feature", "id": "18bea208-efda-4a98-906b-ba001fee0a7c", "geometry": {"type": "Polygon", "coordinates": [[[325, 353], [324, 354], [321, 354], [320, 355], [316, 355], [315, 356], [314, 356], [313, 357], [314, 358], [313, 359], [313, 361], [312, 362], [312, 367], [311, 368], [311, 369], [299, 381], [300, 382], [300, 394], [302, 394], [304, 396], [306, 396], [307, 395], [308, 395], [309, 394], [311, 394], [312, 393], [313, 393], [314, 392], [315, 392], [316, 391], [328, 391], [331, 388], [331, 387], [332, 386], [332, 385], [333, 384], [333, 380], [334, 379], [334, 374], [333, 373], [333, 369], [332, 368], [332, 366], [333, 365], [333, 363], [334, 362], [334, 360], [333, 359], [333, 357], [331, 355], [331, 354], [330, 354], [329, 353], [325, 353]]]}, "properties": {"objectType": "annotation", "classification": {"name": "Neoplastic", "color": [255, 0, 0]}}}, {"type": "Feature", "id": "1e9e7660-5144-40db-9149-48e3d5791577", "geometry": {"type": "Polygon", "coordinates": [[[503, 354], [502, 355], [499, 355], [495, 359], [495, 361], [496, 362], [496, 363], [497, 364], [497, 365], [498, 366], [498, 367], [499, 368], [499, 370], [500, 371], [500, 372], [503, 375], [506, 375], [507, 374], [508, 374], [510, 372], [510, 371], [511, 370], [511, 368], [512, 367], [512, 363], [511, 362], [511, 360], [510, 359], [510, 357], [507, 354], [503, 354]]]}, "properties": {"objectType": "annotation", "classification": {"name": "Neoplastic", "color": [255, 0, 0]}}}, {"type": "Feature", "id": "24ad74a0-d129-4da9-944d-ffce2c0e786b", "geometry": {"type": "Polygon", "coordinates": [[[288, 356], [279, 365], [279, 366], [270, 375], [270, 376], [269, 377], [269, 379], [268, 380], [268, 383], [269, 384], [269, 385], [270, 385], [271, 386], [276, 386], [278, 384], [279, 384], [280, 383], [281, 383], [282, 382], [283, 382], [285, 380], [286, 380], [291, 375], [291, 374], [293, 372], [293, 371], [294, 370], [294, 369], [295, 368], [295, 367], [296, 366], [296, 365], [297, 364], [297, 359], [294, 356], [288, 356]]]}, "properties": {"objectType": "annotation", "classification": {"name": "Neoplastic", "color": [255, 0, 0]}}}, {"type": "Feature", "id": "6283f332-95a2-4a6b-8617-0efc0e4915f6", "geometry": {"type": "Polygon", "coordinates": [[[483, 364], [482, 365], [480, 365], [479, 366], [478, 366], [475, 369], [475, 370], [474, 371], [474, 374], [473, 375], [473, 378], [472, 379], [472, 383], [471, 384], [471, 385], [469, 387], [469, 390], [470, 391], [470, 394], [471, 395], [472, 395], [473, 396], [482, 396], [483, 395], [484, 395], [490, 389], [490, 388], [492, 386], [492, 385], [493, 384], [493, 383], [494, 382], [494, 381], [495, 380], [495, 379], [496, 378], [496, 370], [495, 369], [495, 368], [491, 364], [483, 364]]]}, "properties": {"objectType": "annotation", "classification": {"name": "Neoplastic", "color": [255, 0, 0]}}}, {"type": "Feature", "id": "5933ce06-8561-48e1-8dc9-8273c3f6e3be", "geometry": {"type": "Polygon", "coordinates": [[[291, 381], [288, 384], [287, 384], [285, 386], [284, 386], [279, 391], [278, 391], [273, 396], [273, 397], [272, 398], [272, 399], [271, 400], [271, 402], [272, 403], [272, 405], [273, 406], [273, 407], [274, 408], [275, 408], [278, 411], [279, 411], [280, 412], [284, 412], [285, 411], [286, 411], [287, 410], [288, 410], [291, 407], [291, 406], [293, 404], [293, 403], [295, 401], [295, 400], [300, 395], [299, 394], [299, 382], [298, 381], [291, 381]]]}, "properties": {"objectType": "annotation", "classification": {"name": "Neoplastic", "color": [255, 0, 0]}}}, {"type": "Feature", "id": "851b9e9e-3d8e-43ff-8e34-48860270b796", "geometry": {"type": "Polygon", "coordinates": [[[2, 386], [2, 387], [0, 389], [0, 405], [1, 406], [1, 415], [2, 416], [2, 419], [3, 420], [3, 422], [4, 423], [4, 424], [3, 425], [3, 429], [4, 430], [4, 432], [6, 434], [11, 434], [12, 433], [13, 433], [15, 431], [15, 430], [18, 427], [18, 424], [19, 423], [19, 422], [18, 421], [18, 420], [17, 419], [17, 415], [16, 414], [16, 409], [15, 408], [15, 404], [14, 403], [14, 399], [13, 398], [13, 396], [12, 395], [12, 394], [10, 392], [10, 391], [8, 389], [7, 389], [5, 387], [4, 387], [3, 386], [2, 386]]]}, "properties": {"objectType": "annotation", "classification": {"name": "Neoplastic", "color": [255, 0, 0]}}}, {"type": "Feature", "id": "053b7c61-82b7-477d-bbd9-19c8c2bd0fd1", "geometry": {"type": "Polygon", "coordinates": [[[78, 390], [77, 391], [73, 391], [72, 392], [71, 392], [68, 395], [68, 396], [67, 397], [67, 399], [66, 400], [66, 407], [67, 407], [71, 411], [72, 411], [73, 412], [74, 412], [75, 413], [76, 413], [77, 414], [79, 414], [80, 413], [81, 413], [83, 411], [83, 410], [84, 409], [84, 408], [85, 407], [85, 399], [84, 398], [84, 397], [83, 396], [83, 394], [80, 391], [79, 391], [78, 390]]]}, "properties": {"objectType": "annotation", "classification": {"name": "Neoplastic", "color": [255, 0, 0]}}}, {"type": "Feature", "id": "c67334bd-7857-4401-a49c-83e9d684c8de", "geometry": {"type": "Polygon", "coordinates": [[[352, 390], [350, 392], [350, 393], [348, 395], [348, 396], [346, 398], [346, 399], [344, 401], [344, 403], [343, 404], [343, 406], [342, 407], [342, 408], [343, 409], [343, 412], [344, 413], [344, 414], [348, 418], [353, 418], [358, 413], [358, 412], [359, 411], [359, 407], [360, 406], [360, 400], [359, 399], [359, 396], [358, 395], [358, 392], [356, 390], [352, 390]]]}, "properties": {"objectType": "annotation", "classification": {"name": "Connective", "color": [35, 92, 236]}}}, {"type": "Feature", "id": "606241ba-952a-4107-aab7-308632cf5e6a", "geometry": {"type": "Polygon", "coordinates": [[[245, 395], [244, 396], [239, 396], [238, 397], [234, 397], [233, 398], [231, 398], [230, 399], [229, 399], [228, 400], [227, 400], [223, 404], [223, 405], [222, 406], [222, 408], [221, 409], [221, 412], [223, 414], [230, 414], [231, 413], [251, 413], [252, 412], [253, 412], [254, 411], [254, 410], [255, 409], [255, 408], [256, 407], [256, 400], [255, 399], [255, 398], [254, 397], [253, 397], [252, 396], [251, 396], [250, 395], [245, 395]]]}, "properties": {"objectType": "annotation", "classification": {"name": "Neoplastic", "color": [255, 0, 0]}}}, {"type": "Feature", "id": "0be1c0c1-9565-441d-b8fd-0f34a4144bbc", "geometry": {"type": "Polygon", "coordinates": [[[504, 395], [499, 400], [499, 401], [498, 402], [498, 404], [497, 405], [497, 407], [498, 408], [498, 410], [499, 411], [499, 413], [500, 414], [500, 416], [501, 417], [501, 419], [504, 422], [506, 422], [507, 423], [509, 423], [512, 420], [513, 420], [516, 417], [516, 416], [517, 415], [517, 414], [518, 413], [518, 411], [519, 410], [519, 407], [520, 406], [520, 401], [519, 400], [519, 399], [517, 397], [516, 397], [515, 396], [513, 396], [512, 395], [504, 395]]]}, "properties": {"objectType": "annotation", "classification": {"name": "Neoplastic", "color": [255, 0, 0]}}}, {"type": "Feature", "id": "374a53f9-27a5-435e-a345-1ac9089af468", "geometry": {"type": "Polygon", "coordinates": [[[202, 403], [201, 404], [199, 404], [198, 405], [195, 405], [194, 406], [193, 406], [189, 410], [189, 411], [188, 412], [188, 414], [187, 415], [187, 417], [188, 418], [188, 419], [189, 420], [189, 421], [190, 421], [191, 422], [192, 422], [193, 423], [198, 423], [199, 422], [200, 422], [201, 421], [202, 421], [205, 418], [206, 418], [208, 416], [208, 414], [209, 413], [209, 407], [208, 406], [208, 405], [207, 404], [205, 404], [204, 403], [202, 403]]]}, "properties": {"objectType": "annotation", "classification": {"name": "Neoplastic", "color": [255, 0, 0]}}}, {"type": "Feature", "id": "288f7861-cc2d-42ff-86d5-1109138a6c0a", "geometry": {"type": "Polygon", "coordinates": [[[470, 403], [467, 406], [467, 409], [468, 410], [468, 411], [470, 413], [470, 415], [471, 416], [471, 417], [472, 418], [472, 419], [473, 419], [474, 420], [479, 420], [480, 419], [481, 419], [482, 418], [482, 417], [483, 416], [483, 414], [482, 413], [482, 412], [481, 411], [481, 410], [480, 409], [480, 407], [479, 406], [479, 405], [478, 404], [475, 404], [474, 403], [470, 403]]]}, "properties": {"objectType": "annotation", "classification": {"name": "Neoplastic", "color": [255, 0, 0]}}}, {"type": "Feature", "id": "bc1f7337-020e-4635-8fc1-7a12806477ab", "geometry": {"type": "Polygon", "coordinates": [[[59, 406], [58, 407], [56, 407], [54, 409], [53, 409], [51, 411], [50, 411], [46, 415], [44, 415], [43, 416], [40, 416], [37, 419], [37, 420], [36, 421], [36, 422], [37, 423], [37, 424], [38, 425], [38, 426], [41, 429], [42, 429], [43, 430], [44, 430], [45, 431], [46, 431], [48, 433], [49, 433], [50, 434], [51, 434], [52, 435], [53, 435], [54, 436], [55, 436], [56, 437], [57, 437], [58, 438], [59, 438], [60, 439], [61, 439], [62, 440], [66, 440], [72, 434], [73, 434], [73, 433], [75, 431], [75, 430], [76, 429], [76, 427], [77, 426], [77, 419], [76, 418], [76, 414], [75, 414], [74, 413], [73, 413], [72, 412], [71, 412], [67, 408], [65, 408], [64, 407], [62, 407], [61, 406], [59, 406]]]}, "properties": {"objectType": "annotation", "classification": {"name": "Neoplastic", "color": [255, 0, 0]}}}, {"type": "Feature", "id": "f10d54ff-987e-433d-b4f5-8361861b899f", "geometry": {"type": "Polygon", "coordinates": [[[452, 409], [451, 410], [449, 410], [448, 411], [446, 411], [445, 412], [444, 412], [443, 413], [442, 413], [441, 414], [440, 414], [439, 415], [438, 415], [432, 421], [432, 422], [431, 423], [431, 424], [429, 426], [429, 427], [428, 428], [428, 429], [427, 430], [427, 440], [428, 441], [428, 442], [435, 449], [436, 449], [437, 450], [440, 450], [441, 451], [442, 450], [446, 450], [447, 449], [448, 449], [455, 442], [455, 441], [456, 440], [456, 439], [457, 438], [457, 436], [458, 435], [458, 433], [459, 432], [459, 430], [460, 429], [460, 428], [461, 427], [461, 426], [464, 423], [464, 421], [465, 420], [465, 415], [463, 413], [463, 412], [461, 410], [460, 410], [459, 409], [452, 409]]]}, "properties": {"objectType": "annotation", "classification": {"name": "Neoplastic", "color": [255, 0, 0]}}}, {"type": "Feature", "id": "adbdd224-fb6e-45da-9ac5-d29ef632b7fc", "geometry": {"type": "Polygon", "coordinates": [[[99, 413], [98, 414], [94, 414], [93, 415], [91, 415], [85, 421], [85, 423], [84, 424], [84, 426], [83, 427], [83, 428], [80, 431], [80, 432], [79, 433], [79, 434], [78, 435], [78, 437], [77, 438], [77, 446], [78, 447], [78, 448], [79, 449], [79, 451], [80, 451], [81, 452], [88, 452], [89, 451], [92, 451], [92, 449], [93, 448], [93, 447], [94, 446], [94, 445], [97, 442], [98, 442], [100, 440], [101, 440], [102, 439], [103, 439], [106, 436], [106, 435], [107, 434], [107, 433], [109, 431], [109, 430], [110, 429], [110, 428], [111, 427], [111, 422], [110, 421], [110, 419], [106, 415], [105, 415], [104, 414], [103, 414], [102, 413], [99, 413]]]}, "properties": {"objectType": "annotation", "classification": {"name": "Neoplastic", "color": [255, 0, 0]}}}, {"type": "Feature", "id": "c07654dd-6294-4fcf-8b4a-8eace3e14584", "geometry": {"type": "Polygon", "coordinates": [[[229, 418], [228, 419], [219, 419], [218, 420], [216, 420], [215, 421], [214, 421], [210, 425], [210, 426], [209, 427], [209, 428], [208, 429], [208, 432], [207, 433], [207, 438], [208, 439], [208, 440], [210, 442], [211, 442], [212, 443], [216, 443], [217, 442], [218, 442], [226, 434], [227, 434], [228, 433], [229, 433], [230, 432], [232, 432], [234, 430], [234, 429], [236, 427], [236, 426], [237, 425], [237, 420], [236, 419], [235, 419], [234, 418], [229, 418]]]}, "properties": {"objectType": "annotation", "classification": {"name": "Neoplastic", "color": [255, 0, 0]}}}, {"type": "Feature", "id": "19f144b8-b2f8-4094-b7e9-e21e65d9a614", "geometry": {"type": "Polygon", "coordinates": [[[486, 422], [485, 423], [484, 423], [484, 424], [479, 429], [478, 429], [478, 430], [477, 431], [477, 435], [478, 436], [478, 438], [479, 439], [479, 440], [480, 441], [480, 442], [481, 443], [481, 444], [482, 445], [482, 446], [484, 448], [484, 449], [485, 449], [486, 450], [487, 450], [488, 451], [495, 451], [496, 450], [498, 450], [499, 449], [500, 449], [503, 446], [503, 445], [504, 444], [504, 443], [505, 442], [505, 440], [506, 439], [506, 434], [505, 433], [505, 432], [504, 431], [504, 430], [500, 426], [499, 426], [497, 424], [496, 424], [495, 423], [494, 423], [493, 422], [486, 422]]]}, "properties": {"objectType": "annotation", "classification": {"name": "Neoplastic", "color": [255, 0, 0]}}}, {"type": "Feature", "id": "54622023-cf61-4309-b7cb-e4cde7729f49", "geometry": {"type": "Polygon", "coordinates": [[[329, 433], [328, 434], [325, 434], [324, 435], [321, 435], [320, 436], [319, 436], [318, 437], [317, 437], [316, 438], [316, 439], [314, 441], [314, 443], [313, 444], [313, 446], [312, 447], [312, 448], [311, 449], [311, 452], [317, 458], [318, 458], [319, 459], [320, 459], [321, 460], [323, 460], [324, 461], [325, 461], [326, 460], [328, 460], [329, 459], [332, 459], [333, 458], [337, 458], [338, 457], [340, 457], [344, 453], [344, 452], [345, 451], [345, 446], [344, 445], [344, 441], [341, 438], [341, 437], [340, 437], [337, 434], [335, 434], [334, 433], [329, 433]]]}, "properties": {"objectType": "annotation", "classification": {"name": "Neoplastic", "color": [255, 0, 0]}}}, {"type": "Feature", "id": "bea0c52f-654c-4f1d-a727-7d6a43c1fb01", "geometry": {"type": "Polygon", "coordinates": [[[109, 437], [108, 438], [105, 438], [103, 440], [102, 440], [101, 441], [100, 441], [98, 443], [97, 443], [95, 445], [95, 446], [94, 447], [94, 448], [93, 449], [93, 451], [92, 452], [92, 454], [93, 455], [93, 456], [94, 457], [94, 458], [95, 459], [95, 460], [96, 461], [97, 461], [98, 462], [100, 462], [101, 463], [103, 463], [104, 462], [106, 462], [107, 461], [108, 461], [109, 460], [111, 460], [112, 459], [114, 459], [118, 455], [118, 454], [120, 452], [120, 451], [121, 450], [120, 449], [120, 447], [121, 446], [120, 445], [120, 442], [119, 441], [119, 439], [118, 439], [116, 437], [109, 437]]]}, "properties": {"objectType": "annotation", "classification": {"name": "Neoplastic", "color": [255, 0, 0]}}}, {"type": "Feature", "id": "8b083d30-fd5c-4301-9dbd-71335d7cd364", "geometry": {"type": "Polygon", "coordinates": [[[360, 441], [359, 442], [358, 442], [357, 443], [355, 443], [352, 446], [352, 447], [351, 448], [351, 455], [353, 457], [353, 458], [358, 463], [359, 463], [360, 464], [362, 464], [363, 465], [364, 465], [365, 466], [375, 466], [376, 465], [377, 465], [383, 459], [383, 458], [384, 457], [384, 452], [383, 451], [383, 450], [380, 447], [379, 447], [378, 446], [376, 446], [375, 445], [374, 445], [373, 444], [371, 444], [370, 443], [369, 443], [368, 442], [366, 442], [365, 441], [360, 441]]]}, "properties": {"objectType": "annotation", "classification": {"name": "Neoplastic", "color": [255, 0, 0]}}}, {"type": "Feature", "id": "4e7d2655-605d-4cb5-b8c8-296512762e31", "geometry": {"type": "Polygon", "coordinates": [[[183, 441], [182, 442], [180, 442], [179, 443], [178, 443], [177, 444], [177, 445], [175, 447], [175, 449], [174, 450], [174, 451], [173, 452], [173, 453], [166, 460], [166, 461], [165, 462], [165, 468], [166, 469], [166, 470], [167, 471], [167, 472], [171, 476], [172, 476], [173, 477], [174, 477], [175, 478], [176, 478], [177, 479], [183, 479], [190, 472], [190, 466], [189, 465], [189, 464], [188, 463], [188, 462], [187, 461], [189, 459], [189, 458], [191, 456], [191, 451], [190, 450], [190, 449], [189, 448], [189, 446], [188, 445], [188, 444], [186, 442], [184, 442], [183, 441]]]}, "properties": {"objectType": "annotation", "classification": {"name": "Neoplastic", "color": [255, 0, 0]}}}, {"type": "Feature", "id": "2d5a3d88-5e86-41db-8109-4ebc47677561", "geometry": {"type": "Polygon", "coordinates": [[[462, 445], [461, 446], [459, 446], [457, 448], [456, 448], [455, 449], [455, 450], [454, 451], [454, 452], [453, 453], [453, 456], [452, 457], [452, 462], [453, 463], [453, 464], [454, 465], [454, 466], [457, 469], [458, 469], [459, 470], [463, 470], [464, 471], [466, 471], [467, 472], [468, 472], [469, 473], [472, 473], [473, 474], [479, 474], [480, 473], [481, 473], [482, 472], [483, 472], [483, 471], [484, 470], [483, 469], [483, 465], [482, 464], [482, 461], [481, 460], [481, 457], [475, 451], [475, 450], [474, 449], [474, 447], [473, 446], [472, 446], [471, 445], [462, 445]]]}, "properties": {"objectType": "annotation", "classification": {"name": "Neoplastic", "color": [255, 0, 0]}}}, {"type": "Feature", "id": "501942f5-c220-44ae-8ce0-9601ce0759c3", "geometry": {"type": "Polygon", "coordinates": [[[266, 452], [265, 453], [264, 453], [262, 455], [262, 456], [261, 457], [261, 458], [260, 459], [260, 462], [262, 464], [269, 464], [272, 461], [272, 460], [273, 459], [273, 453], [272, 452], [266, 452]]]}, "properties": {"objectType": "annotation", "classification": {"name": "Connective", "color": [35, 92, 236]}}}, {"type": "Feature", "id": "3afe311f-99d2-4843-af67-814ca3e27352", "geometry": {"type": "Polygon", "coordinates": [[[392, 463], [391, 464], [390, 464], [389, 465], [388, 465], [388, 466], [387, 467], [387, 468], [385, 470], [384, 470], [381, 473], [380, 473], [377, 476], [377, 480], [380, 483], [381, 483], [382, 484], [391, 484], [392, 483], [397, 483], [398, 482], [400, 482], [401, 481], [402, 481], [404, 479], [404, 476], [403, 475], [403, 473], [402, 472], [402, 471], [401, 470], [401, 469], [400, 468], [400, 467], [397, 464], [396, 464], [395, 463], [394, 463], [393, 464], [392, 463]]]}, "properties": {"objectType": "annotation", "classification": {"name": "Neoplastic", "color": [255, 0, 0]}}}, {"type": "Feature", "id": "e25aaa25-5dda-45f0-a347-988bf3782fa8", "geometry": {"type": "Polygon", "coordinates": [[[113, 462], [112, 463], [108, 463], [107, 464], [105, 464], [99, 470], [99, 471], [98, 472], [98, 478], [102, 482], [103, 482], [104, 483], [106, 483], [107, 484], [109, 484], [110, 485], [112, 485], [113, 486], [119, 486], [120, 485], [122, 485], [124, 483], [125, 483], [127, 481], [127, 480], [129, 478], [129, 477], [130, 476], [130, 475], [131, 474], [131, 468], [129, 466], [128, 466], [127, 465], [126, 465], [125, 464], [123, 464], [122, 463], [116, 463], [115, 462], [113, 462]]]}, "properties": {"objectType": "annotation", "classification": {"name": "Neoplastic", "color": [255, 0, 0]}}}, {"type": "Feature", "id": "db70c991-3e30-445c-b339-4edca25ef293", "geometry": {"type": "Polygon", "coordinates": [[[46, 471], [45, 472], [44, 472], [43, 473], [42, 473], [39, 476], [39, 479], [40, 480], [40, 481], [45, 486], [46, 485], [47, 485], [48, 486], [49, 486], [50, 487], [61, 487], [63, 485], [63, 484], [64, 483], [64, 479], [58, 473], [57, 473], [56, 472], [52, 472], [51, 471], [46, 471]]]}, "properties": {"objectType": "annotation", "classification": {"name": "Neoplastic", "color": [255, 0, 0]}}}, {"type": "Feature", "id": "03a38e72-125f-4917-bd3f-47deb66dcd91", "geometry": {"type": "Polygon", "coordinates": [[[422, 471], [422, 472], [421, 473], [421, 477], [422, 478], [422, 480], [425, 483], [426, 483], [430, 487], [432, 487], [434, 485], [434, 482], [433, 481], [433, 479], [431, 477], [431, 476], [428, 473], [427, 473], [425, 471], [422, 471]]]}, "properties": {"objectType": "annotation", "classification": {"name": "Connective", "color": [35, 92, 236]}}}, {"type": "Feature", "id": "28b7e044-4575-4756-b43f-08eb0bfd62f9", "geometry": {"type": "Polygon", "coordinates": [[[450, 477], [449, 478], [447, 478], [445, 480], [445, 481], [443, 483], [443, 488], [444, 489], [444, 490], [445, 491], [445, 492], [447, 494], [447, 495], [450, 498], [451, 498], [452, 499], [453, 499], [454, 500], [455, 500], [456, 501], [457, 501], [458, 502], [461, 502], [462, 503], [463, 502], [466, 502], [470, 498], [470, 497], [471, 496], [471, 495], [472, 494], [472, 492], [473, 491], [473, 485], [469, 481], [468, 481], [467, 480], [462, 480], [460, 478], [457, 478], [456, 477], [450, 477]]]}, "properties": {"objectType": "annotation", "classification": {"name": "Neoplastic", "color": [255, 0, 0]}}}, {"type": "Feature", "id": "98a74ed7-aa7c-4f76-8a65-20a905c0d9d5", "geometry": {"type": "Polygon", "coordinates": [[[46, 486], [45, 487], [45, 488], [44, 489], [44, 492], [43, 493], [44, 494], [44, 496], [45, 497], [45, 498], [46, 499], [46, 500], [47, 501], [47, 502], [49, 504], [52, 504], [54, 502], [54, 497], [53, 496], [53, 494], [52, 493], [52, 491], [51, 490], [51, 489], [49, 487], [48, 487], [47, 486], [46, 486]]]}, "properties": {"objectType": "annotation", "classification": {"name": "Neoplastic", "color": [255, 0, 0]}}}, {"type": "Feature", "id": "e688e185-7009-48ca-8a77-dc1d13f1c0e8", "geometry": {"type": "Polygon", "coordinates": [[[73, 487], [72, 488], [72, 489], [71, 490], [71, 494], [72, 495], [72, 497], [73, 498], [73, 499], [74, 500], [74, 501], [76, 503], [76, 504], [79, 507], [79, 508], [81, 510], [81, 511], [82, 512], [82, 514], [83, 515], [83, 517], [86, 520], [101, 520], [102, 519], [104, 519], [105, 518], [106, 518], [107, 517], [107, 516], [108, 515], [108, 512], [107, 511], [107, 508], [106, 507], [106, 506], [105, 505], [105, 504], [100, 499], [99, 499], [97, 497], [96, 497], [95, 496], [94, 496], [93, 495], [92, 495], [91, 494], [90, 494], [89, 493], [87, 493], [86, 492], [84, 492], [83, 491], [82, 491], [81, 490], [80, 490], [78, 488], [77, 488], [76, 487], [73, 487]]]}, "properties": {"objectType": "annotation", "classification": {"name": "Neoplastic", "color": [255, 0, 0]}}}, {"type": "Feature", "id": "e7ffb579-5452-474e-b305-b6c7a38b608d", "geometry": {"type": "Polygon", "coordinates": [[[517, 490], [516, 491], [514, 491], [510, 495], [510, 496], [509, 497], [509, 498], [508, 499], [508, 500], [506, 502], [506, 503], [503, 506], [501, 506], [500, 507], [496, 507], [495, 508], [494, 508], [493, 509], [492, 509], [491, 510], [489, 510], [486, 513], [485, 513], [485, 514], [483, 516], [483, 521], [487, 525], [488, 525], [489, 526], [492, 526], [493, 527], [496, 527], [497, 526], [500, 526], [501, 525], [503, 525], [504, 524], [505, 524], [506, 523], [508, 523], [509, 522], [512, 522], [514, 520], [515, 520], [516, 519], [516, 518], [517, 517], [517, 515], [518, 514], [518, 513], [519, 512], [519, 511], [520, 510], [520, 509], [521, 508], [521, 507], [522, 506], [522, 505], [523, 504], [523, 503], [524, 502], [524, 499], [523, 498], [523, 494], [522, 493], [522, 492], [521, 491], [520, 491], [519, 490], [517, 490]]]}, "properties": {"objectType": "annotation", "classification": {"name": "Neoplastic", "color": [255, 0, 0]}}}, {"type": "Feature", "id": "fbf9ed26-3b64-44f5-9839-9386fb0ae07b", "geometry": {"type": "Polygon", "coordinates": [[[382, 495], [381, 496], [380, 496], [378, 498], [377, 498], [376, 499], [375, 499], [375, 501], [374, 502], [375, 503], [375, 504], [377, 506], [378, 506], [379, 507], [382, 507], [383, 508], [387, 508], [388, 507], [396, 507], [397, 508], [403, 508], [404, 507], [406, 507], [407, 506], [408, 506], [411, 503], [411, 502], [408, 499], [407, 499], [406, 498], [405, 498], [404, 497], [399, 497], [398, 496], [394, 496], [393, 495], [382, 495]]]}, "properties": {"objectType": "annotation", "classification": {"name": "Connective", "color": [35, 92, 236]}}}, {"type": "Feature", "id": "6834aa57-c791-4ae1-8fa1-a7bf66f2ab43", "geometry": {"type": "Polygon", "coordinates": [[[2, 497], [1, 498], [0, 498], [0, 509], [7, 516], [8, 516], [9, 517], [15, 517], [16, 516], [17, 516], [17, 515], [18, 514], [18, 511], [17, 510], [17, 506], [16, 505], [16, 504], [15, 503], [15, 502], [14, 501], [14, 500], [13, 500], [11, 498], [10, 498], [9, 497], [2, 497]]]}, "properties": {"objectType": "annotation", "classification": {"name": "Neoplastic", "color": [255, 0, 0]}}}, {"type": "Feature", "id": "cc1d0a11-0c50-46c7-bb41-213dfa58b02c", "geometry": {"type": "Polygon", "coordinates": [[[144, 498], [143, 499], [142, 499], [141, 500], [140, 500], [140, 501], [138, 503], [138, 504], [136, 506], [136, 517], [140, 521], [141, 521], [142, 522], [143, 522], [144, 523], [147, 523], [148, 524], [149, 523], [152, 523], [153, 522], [155, 522], [156, 521], [157, 521], [159, 519], [159, 518], [160, 517], [160, 511], [159, 510], [159, 507], [158, 506], [158, 505], [154, 501], [151, 501], [150, 500], [148, 500], [147, 499], [145, 499], [144, 498]]]}, "properties": {"objectType": "annotation", "classification": {"name": "Neoplastic", "color": [255, 0, 0]}}}]