[{"type": "Feature", "id": "dc2d72bd-ee79-482f-a523-11385c169af3", "geometry": {"type": "Polygon", "coordinates": [[[450, -17], [449, -16], [448, -16], [441, -9], [440, -9], [437, -6], [437, -5], [436, -4], [436, -3], [435, -2], [435, 0], [434, 1], [434, 12], [435, 13], [435, 15], [436, 16], [436, 17], [437, 18], [437, 19], [438, 20], [439, 20], [440, 21], [444, 21], [445, 20], [446, 20], [447, 19], [448, 19], [454, 13], [454, 12], [455, 11], [455, 10], [457, 8], [457, 7], [458, 6], [458, 5], [459, 4], [459, -5], [460, -6], [460, -9], [459, -10], [459, -13], [458, -14], [458, -15], [456, -17], [450, -17]]]}, "properties": {"objectType": "annotation", "classification": {"name": "Neoplastic", "color": [255, 0, 0]}}}, {"type": "Feature", "id": "8ddb3d33-1bca-4fe4-a251-38201173b426", "geometry": {"type": "Polygon", "coordinates": [[[27, -13], [26, -12], [25, -12], [23, -10], [22, -10], [21, -9], [20, -9], [19, -8], [18, -8], [11, -1], [11, 0], [10, 1], [10, 2], [9, 3], [9, 5], [8, 6], [8, 8], [7, 9], [7, 13], [8, 14], [9, 14], [10, 15], [18, 15], [19, 14], [24, 14], [25, 13], [28, 13], [29, 12], [30, 12], [32, 10], [33, 10], [35, 8], [36, 8], [37, 7], [37, 5], [38, 4], [38, -3], [36, -5], [36, -6], [35, -7], [35, -8], [33, -10], [32, -10], [29, -13], [27, -13]]]}, "properties": {"objectType": "annotation", "classification": {"name": "Connective", "color": [35, 92, 236]}}}, {"type": "Feature", "id": "af7fe1b0-5d6f-44a6-ad81-053a4e6066a5", "geometry": {"type": "Polygon", "coordinates": [[[365, -9], [363, -7], [362, -7], [361, -6], [360, -6], [350, 4], [349, 4], [347, 6], [347, 7], [345, 9], [345, 10], [344, 11], [344, 12], [342, 14], [342, 16], [341, 17], [341, 20], [342, 21], [342, 22], [343, 23], [344, 23], [345, 24], [347, 24], [348, 25], [351, 25], [352, 24], [354, 24], [354, 23], [355, 22], [355, 20], [356, 19], [356, 18], [357, 17], [357, 16], [359, 14], [359, 10], [360, 9], [360, 8], [363, 5], [363, 4], [365, 2], [365, 1], [370, -4], [370, -8], [369, -9], [365, -9]]]}, "properties": {"objectType": "annotation", "classification": {"name": "Neoplastic", "color": [255, 0, 0]}}}, {"type": "Feature", "id": "20b9ad8a-8cbf-459b-8b80-a73a9082a594", "geometry": {"type": "Polygon", "coordinates": [[[300, -2], [298, 0], [297, 0], [295, 2], [295, 5], [298, 8], [299, 8], [300, 9], [301, 9], [302, 10], [303, 10], [304, 11], [306, 11], [307, 12], [309, 12], [310, 13], [311, 13], [314, 16], [316, 16], [317, 17], [321, 17], [324, 14], [324, 8], [319, 3], [318, 3], [317, 2], [316, 2], [314, 0], [313, 0], [312, -1], [309, -1], [308, -2], [300, -2]]]}, "properties": {"objectType": "annotation", "classification": {"name": "Neoplastic", "color": [255, 0, 0]}}}, {"type": "Feature", "id": "13a6702a-7a21-4ef5-9269-3154e31168e7", "geometry": {"type": "Polygon", "coordinates": [[[368, 7], [367, 8], [366, 8], [363, 11], [363, 12], [360, 15], [359, 15], [358, 16], [358, 17], [357, 18], [357, 19], [356, 20], [356, 22], [355, 23], [355, 24], [359, 24], [360, 25], [362, 25], [363, 24], [364, 25], [365, 24], [367, 24], [371, 20], [371, 19], [372, 18], [372, 11], [371, 10], [371, 9], [369, 7], [368, 7]]]}, "properties": {"objectType": "annotation", "classification": {"name": "Neoplastic", "color": [255, 0, 0]}}}, {"type": "Feature", "id": "cfe52403-1fae-4d64-ab1a-4cf48f99e35a", "geometry": {"type": "Polygon", "coordinates": [[[68, 8], [67, 9], [63, 9], [62, 10], [60, 10], [57, 13], [57, 14], [55, 16], [55, 18], [54, 19], [54, 22], [53, 23], [53, 27], [54, 28], [54, 29], [55, 30], [55, 31], [59, 35], [60, 35], [61, 36], [63, 36], [64, 37], [68, 37], [69, 36], [71, 36], [73, 34], [74, 34], [76, 32], [76, 31], [80, 27], [80, 26], [81, 25], [81, 24], [82, 23], [82, 13], [79, 10], [78, 10], [77, 9], [74, 9], [73, 8], [68, 8]]]}, "properties": {"objectType": "annotation", "classification": {"name": "Neoplastic", "color": [255, 0, 0]}}}, {"type": "Feature", "id": "93836736-c992-445c-b19b-c594f9f787e8", "geometry": {"type": "Polygon", "coordinates": [[[238, 10], [237, 11], [236, 11], [234, 13], [234, 19], [235, 20], [235, 21], [236, 22], [236, 23], [241, 28], [242, 28], [245, 31], [246, 31], [247, 32], [253, 32], [254, 33], [255, 33], [257, 35], [259, 35], [260, 36], [270, 36], [271, 35], [273, 35], [275, 33], [276, 33], [280, 29], [281, 29], [281, 28], [282, 27], [282, 22], [281, 21], [281, 20], [280, 19], [279, 19], [278, 18], [276, 18], [275, 17], [274, 17], [273, 16], [272, 16], [271, 15], [270, 15], [269, 14], [265, 14], [264, 13], [260, 13], [259, 12], [256, 12], [255, 11], [245, 11], [244, 10], [238, 10]]]}, "properties": {"objectType": "annotation", "classification": {"name": "Neoplastic", "color": [255, 0, 0]}}}, {"type": "Feature", "id": "08b1e3c0-b835-4bef-b80f-52f47d388a4f", "geometry": {"type": "Polygon", "coordinates": [[[292, 13], [289, 16], [288, 16], [288, 18], [287, 19], [287, 20], [286, 21], [286, 29], [287, 30], [287, 31], [291, 31], [292, 32], [293, 32], [294, 33], [296, 33], [297, 32], [298, 32], [299, 31], [301, 31], [302, 32], [305, 32], [306, 31], [307, 31], [308, 30], [309, 30], [312, 27], [312, 26], [313, 25], [313, 21], [312, 20], [312, 19], [311, 18], [310, 18], [309, 17], [308, 17], [307, 16], [306, 16], [305, 15], [304, 15], [303, 14], [301, 14], [300, 13], [292, 13]]]}, "properties": {"objectType": "annotation", "classification": {"name": "Neoplastic", "color": [255, 0, 0]}}}, {"type": "Feature", "id": "e83c4cf9-1a5d-4345-9be9-634e58bd8005", "geometry": {"type": "Polygon", "coordinates": [[[169, 16], [168, 17], [167, 17], [166, 18], [166, 19], [165, 20], [165, 28], [166, 29], [166, 31], [173, 38], [174, 38], [175, 39], [177, 39], [178, 40], [188, 40], [189, 39], [193, 39], [194, 38], [195, 38], [196, 37], [197, 37], [200, 34], [200, 26], [199, 25], [199, 23], [198, 22], [198, 20], [197, 19], [197, 18], [196, 17], [193, 17], [192, 16], [169, 16]]]}, "properties": {"objectType": "annotation", "classification": {"name": "Neoplastic", "color": [255, 0, 0]}}}, {"type": "Feature", "id": "dd98f64a-941d-45a9-a6d8-f401d1338c63", "geometry": {"type": "Polygon", "coordinates": [[[16, 24], [15, 25], [14, 25], [13, 26], [12, 26], [8, 30], [8, 34], [7, 35], [7, 39], [8, 40], [8, 41], [9, 42], [9, 43], [10, 44], [10, 45], [11, 46], [11, 47], [12, 48], [12, 57], [13, 58], [13, 59], [14, 60], [17, 60], [18, 59], [19, 59], [20, 58], [20, 57], [22, 55], [22, 54], [23, 53], [23, 52], [24, 51], [24, 50], [25, 49], [25, 46], [26, 45], [26, 43], [27, 42], [27, 36], [28, 35], [28, 32], [27, 31], [27, 30], [26, 29], [26, 28], [23, 25], [22, 25], [21, 24], [16, 24]]]}, "properties": {"objectType": "annotation", "classification": {"name": "Neoplastic", "color": [255, 0, 0]}}}, {"type": "Feature", "id": "68b687a0-ec3f-4e51-9e2a-8a84f0539988", "geometry": {"type": "Polygon", "coordinates": [[[390, 24], [389, 25], [387, 25], [386, 26], [384, 26], [379, 31], [378, 31], [376, 33], [375, 33], [373, 35], [372, 35], [369, 38], [369, 39], [367, 41], [367, 43], [366, 44], [366, 45], [365, 46], [365, 52], [366, 53], [366, 55], [370, 59], [371, 59], [372, 60], [379, 60], [380, 59], [392, 59], [393, 58], [394, 58], [399, 53], [399, 51], [400, 50], [400, 48], [401, 47], [401, 43], [402, 42], [402, 39], [403, 38], [403, 36], [404, 35], [404, 31], [403, 30], [403, 29], [400, 26], [399, 26], [398, 25], [397, 25], [396, 24], [390, 24]]]}, "properties": {"objectType": "annotation", "classification": {"name": "Neoplastic", "color": [255, 0, 0]}}}, {"type": "Feature", "id": "b994d03c-2971-4bee-a007-0547eecf66e0", "geometry": {"type": "Polygon", "coordinates": [[[488, 30], [487, 31], [482, 31], [481, 32], [478, 32], [477, 33], [475, 33], [472, 36], [472, 37], [471, 38], [471, 39], [473, 41], [473, 42], [474, 42], [475, 43], [483, 43], [484, 44], [485, 44], [487, 46], [488, 46], [489, 47], [499, 47], [501, 45], [501, 44], [502, 43], [502, 33], [501, 32], [500, 32], [499, 31], [495, 31], [494, 30], [488, 30]]]}, "properties": {"objectType": "annotation", "classification": {"name": "Connective", "color": [35, 92, 236]}}}, {"type": "Feature", "id": "d326e949-e7bd-43e1-a7e5-9ec8c021926a", "geometry": {"type": "Polygon", "coordinates": [[[434, 33], [433, 34], [430, 34], [427, 37], [427, 38], [423, 42], [423, 44], [424, 45], [424, 46], [425, 47], [425, 48], [428, 51], [436, 51], [440, 47], [440, 46], [442, 44], [442, 43], [443, 42], [443, 40], [444, 39], [444, 37], [442, 35], [440, 35], [439, 34], [437, 34], [436, 33], [434, 33]]]}, "properties": {"objectType": "annotation", "classification": {"name": "Neoplastic", "color": [255, 0, 0]}}}, {"type": "Feature", "id": "99b66e95-6465-4f6b-ba34-3594bf3fd684", "geometry": {"type": "Polygon", "coordinates": [[[216, 37], [215, 38], [213, 38], [212, 39], [210, 39], [209, 40], [207, 40], [206, 41], [204, 41], [203, 42], [202, 42], [201, 43], [200, 43], [199, 44], [199, 45], [198, 46], [198, 47], [197, 48], [197, 52], [199, 54], [201, 54], [202, 55], [208, 55], [209, 54], [220, 54], [221, 55], [222, 54], [227, 54], [228, 53], [230, 53], [233, 50], [233, 45], [232, 44], [232, 43], [229, 40], [228, 40], [227, 39], [226, 39], [225, 38], [222, 38], [221, 37], [216, 37]]]}, "properties": {"objectType": "annotation", "classification": {"name": "Neoplastic", "color": [255, 0, 0]}}}, {"type": "Feature", "id": "64b39c28-2edd-4467-8f9f-681c387b3907", "geometry": {"type": "Polygon", "coordinates": [[[450, 40], [447, 43], [447, 47], [449, 49], [449, 50], [450, 50], [452, 52], [453, 52], [454, 53], [460, 53], [461, 52], [463, 52], [464, 51], [465, 51], [466, 50], [468, 50], [470, 48], [470, 43], [465, 43], [464, 42], [463, 42], [462, 41], [460, 41], [459, 40], [450, 40]]]}, "properties": {"objectType": "annotation", "classification": {"name": "Connective", "color": [35, 92, 236]}}}, {"type": "Feature", "id": "cc67fc40-11a1-43ff-87c0-6dbead9fb72b", "geometry": {"type": "Polygon", "coordinates": [[[355, 47], [354, 48], [352, 48], [351, 49], [344, 49], [341, 52], [341, 53], [340, 54], [340, 56], [341, 57], [341, 60], [342, 61], [342, 63], [344, 65], [345, 65], [346, 66], [349, 66], [350, 65], [351, 65], [355, 61], [355, 60], [356, 59], [356, 56], [357, 55], [357, 48], [356, 48], [355, 47]]]}, "properties": {"objectType": "annotation", "classification": {"name": "Neoplastic", "color": [255, 0, 0]}}}, {"type": "Feature", "id": "08d9478b-1151-4cb7-983f-4aeb22165a79", "geometry": {"type": "Polygon", "coordinates": [[[266, 51], [259, 58], [259, 59], [258, 60], [258, 63], [257, 64], [257, 65], [258, 66], [258, 68], [259, 69], [259, 71], [266, 78], [268, 78], [269, 79], [273, 79], [274, 78], [275, 78], [276, 77], [277, 77], [281, 73], [281, 72], [285, 68], [285, 67], [286, 66], [286, 65], [290, 61], [290, 57], [288, 55], [287, 55], [286, 54], [282, 54], [281, 53], [280, 53], [279, 52], [278, 52], [277, 51], [266, 51]]]}, "properties": {"objectType": "annotation", "classification": {"name": "Neoplastic", "color": [255, 0, 0]}}}, {"type": "Feature", "id": "6be9f07a-9a78-4484-a338-8f01b426f09d", "geometry": {"type": "Polygon", "coordinates": [[[397, 64], [396, 65], [393, 65], [392, 66], [388, 66], [387, 67], [386, 67], [383, 70], [383, 75], [382, 76], [382, 79], [383, 80], [383, 83], [386, 86], [388, 86], [389, 87], [390, 87], [391, 86], [393, 86], [394, 85], [395, 85], [396, 84], [397, 84], [399, 82], [400, 82], [402, 80], [403, 80], [407, 76], [408, 76], [410, 74], [410, 73], [411, 72], [411, 68], [409, 66], [409, 65], [401, 65], [400, 64], [397, 64]]]}, "properties": {"objectType": "annotation", "classification": {"name": "Neoplastic", "color": [255, 0, 0]}}}, {"type": "Feature", "id": "85dca01e-bbfa-40e5-a317-fcad6b087b4c", "geometry": {"type": "Polygon", "coordinates": [[[468, 68], [467, 69], [466, 69], [464, 71], [464, 73], [463, 74], [463, 85], [464, 86], [464, 87], [468, 91], [468, 92], [469, 92], [470, 93], [471, 93], [473, 95], [475, 95], [476, 96], [478, 96], [479, 97], [480, 97], [481, 98], [483, 98], [484, 99], [486, 99], [487, 100], [493, 100], [494, 99], [495, 99], [496, 98], [498, 98], [499, 97], [500, 97], [501, 96], [503, 96], [504, 95], [505, 95], [508, 92], [508, 91], [509, 90], [509, 85], [508, 84], [508, 82], [507, 81], [507, 80], [505, 78], [504, 78], [503, 77], [502, 77], [501, 76], [499, 76], [498, 75], [495, 75], [494, 74], [491, 74], [490, 73], [488, 73], [487, 72], [485, 72], [484, 71], [483, 71], [482, 70], [481, 70], [480, 69], [476, 69], [475, 68], [468, 68]]]}, "properties": {"objectType": "annotation", "classification": {"name": "Neoplastic", "color": [255, 0, 0]}}}, {"type": "Feature", "id": "88e98b6f-3b67-41ce-9da9-cf7bec1e5d87", "geometry": {"type": "Polygon", "coordinates": [[[215, 70], [214, 71], [210, 71], [209, 72], [208, 72], [204, 76], [204, 77], [201, 80], [201, 81], [198, 84], [198, 85], [196, 87], [196, 88], [192, 92], [192, 94], [191, 95], [191, 98], [190, 99], [190, 106], [193, 109], [195, 109], [196, 110], [198, 110], [199, 109], [200, 109], [203, 106], [204, 106], [206, 104], [207, 104], [209, 102], [211, 102], [212, 101], [214, 101], [215, 100], [217, 100], [218, 99], [220, 99], [221, 98], [223, 98], [224, 97], [226, 97], [227, 96], [228, 96], [230, 94], [231, 94], [231, 93], [232, 92], [232, 87], [231, 86], [231, 85], [232, 84], [232, 83], [231, 82], [231, 80], [229, 78], [228, 78], [221, 71], [218, 71], [217, 70], [215, 70]]]}, "properties": {"objectType": "annotation", "classification": {"name": "Neoplastic", "color": [255, 0, 0]}}}, {"type": "Feature", "id": "05d49a6d-5e3d-4a69-93e9-2050ceabb416", "geometry": {"type": "Polygon", "coordinates": [[[444, 78], [443, 79], [442, 79], [436, 85], [436, 95], [437, 96], [437, 97], [436, 98], [437, 99], [437, 101], [439, 103], [440, 103], [441, 104], [443, 102], [444, 102], [446, 100], [447, 100], [448, 99], [452, 99], [453, 98], [457, 98], [457, 97], [456, 96], [457, 95], [457, 91], [456, 90], [456, 87], [455, 86], [455, 85], [453, 83], [453, 82], [452, 81], [452, 79], [451, 78], [444, 78]]]}, "properties": {"objectType": "annotation", "classification": {"name": "Connective", "color": [35, 92, 236]}}}, {"type": "Feature", "id": "0f3d9f9b-5513-413d-b35c-0082b96c6056", "geometry": {"type": "Polygon", "coordinates": [[[350, 80], [349, 81], [348, 81], [344, 85], [344, 88], [345, 89], [346, 89], [347, 90], [348, 90], [349, 91], [350, 91], [351, 92], [353, 92], [354, 93], [355, 92], [356, 92], [358, 90], [358, 89], [359, 88], [359, 84], [358, 83], [358, 82], [356, 80], [350, 80]]]}, "properties": {"objectType": "annotation", "classification": {"name": "Neoplastic", "color": [255, 0, 0]}}}, {"type": "Feature", "id": "82e64fe9-8835-4401-b774-d2fdcd506c40", "geometry": {"type": "Polygon", "coordinates": [[[366, 87], [363, 90], [363, 91], [361, 93], [361, 94], [360, 95], [360, 96], [359, 97], [359, 102], [360, 103], [360, 105], [361, 106], [361, 107], [363, 109], [364, 109], [365, 110], [366, 110], [367, 111], [373, 111], [374, 112], [376, 112], [377, 111], [378, 111], [379, 110], [380, 110], [381, 109], [384, 109], [385, 108], [387, 108], [389, 106], [389, 103], [388, 102], [388, 99], [387, 98], [387, 97], [382, 92], [381, 92], [379, 90], [378, 90], [377, 89], [376, 89], [375, 88], [374, 88], [373, 89], [371, 89], [370, 88], [368, 88], [367, 87], [366, 87]]]}, "properties": {"objectType": "annotation", "classification": {"name": "Neoplastic", "color": [255, 0, 0]}}}, {"type": "Feature", "id": "2ebfb91b-8490-43bb-bd50-0320319faffa", "geometry": {"type": "Polygon", "coordinates": [[[145, 93], [144, 94], [138, 94], [137, 95], [136, 95], [135, 96], [133, 96], [132, 97], [131, 97], [130, 98], [129, 98], [128, 99], [127, 99], [127, 100], [126, 101], [127, 102], [127, 103], [131, 107], [132, 107], [133, 108], [135, 108], [136, 109], [137, 109], [138, 110], [140, 110], [142, 112], [143, 112], [145, 114], [148, 114], [149, 115], [152, 115], [153, 114], [155, 114], [158, 111], [158, 108], [159, 107], [159, 100], [158, 99], [158, 97], [157, 96], [157, 95], [156, 95], [155, 94], [154, 94], [153, 93], [145, 93]]]}, "properties": {"objectType": "annotation", "classification": {"name": "Neoplastic", "color": [255, 0, 0]}}}, {"type": "Feature", "id": "1a8aa02d-090c-4ae9-8f04-af252db77cfc", "geometry": {"type": "Polygon", "coordinates": [[[453, 99], [452, 100], [448, 100], [447, 101], [446, 101], [444, 103], [443, 103], [442, 104], [442, 105], [443, 106], [443, 108], [444, 109], [444, 110], [448, 114], [450, 114], [451, 115], [453, 115], [454, 114], [456, 114], [457, 113], [458, 113], [459, 112], [459, 111], [461, 109], [461, 107], [462, 106], [462, 104], [461, 103], [461, 102], [458, 99], [453, 99]]]}, "properties": {"objectType": "annotation", "classification": {"name": "Connective", "color": [35, 92, 236]}}}, {"type": "Feature", "id": "7a479e69-539f-4ef2-91a4-62197899d639", "geometry": {"type": "Polygon", "coordinates": [[[114, 102], [112, 104], [111, 104], [108, 107], [108, 108], [106, 110], [106, 112], [105, 113], [106, 114], [106, 115], [105, 116], [105, 120], [106, 121], [106, 124], [108, 126], [108, 127], [109, 127], [113, 131], [116, 131], [119, 128], [119, 127], [120, 126], [120, 125], [125, 120], [126, 120], [130, 116], [130, 115], [131, 114], [130, 113], [130, 111], [127, 108], [127, 107], [126, 106], [125, 106], [122, 103], [121, 103], [120, 102], [114, 102]]]}, "properties": {"objectType": "annotation", "classification": {"name": "Neoplastic", "color": [255, 0, 0]}}}, {"type": "Feature", "id": "6c47e18f-e2ab-47b7-bf0e-c21191279257", "geometry": {"type": "Polygon", "coordinates": [[[483, 105], [482, 106], [480, 106], [479, 107], [476, 107], [475, 108], [473, 108], [472, 109], [467, 109], [466, 110], [466, 112], [465, 113], [465, 115], [464, 116], [464, 117], [465, 118], [465, 119], [466, 120], [466, 121], [468, 123], [469, 123], [470, 124], [471, 124], [472, 125], [478, 125], [479, 124], [480, 124], [481, 123], [487, 123], [488, 122], [491, 122], [492, 121], [493, 121], [496, 118], [496, 113], [495, 112], [495, 110], [492, 107], [491, 107], [490, 106], [489, 106], [488, 105], [483, 105]]]}, "properties": {"objectType": "annotation", "classification": {"name": "Connective", "color": [35, 92, 236]}}}, {"type": "Feature", "id": "c6488518-dc40-4c91-86fe-934a928ce799", "geometry": {"type": "Polygon", "coordinates": [[[257, 108], [255, 110], [249, 110], [248, 111], [246, 111], [245, 112], [244, 112], [243, 113], [243, 114], [242, 115], [242, 119], [243, 120], [243, 122], [244, 123], [244, 124], [246, 126], [246, 127], [248, 129], [249, 129], [250, 130], [252, 130], [253, 131], [257, 131], [258, 132], [262, 132], [263, 133], [270, 133], [271, 132], [273, 132], [274, 131], [275, 131], [279, 127], [279, 121], [278, 120], [278, 118], [276, 116], [276, 115], [273, 112], [272, 112], [270, 110], [269, 110], [268, 109], [267, 109], [266, 108], [257, 108]]]}, "properties": {"objectType": "annotation", "classification": {"name": "Neoplastic", "color": [255, 0, 0]}}}, {"type": "Feature", "id": "e2447119-d2c3-4ad7-a716-bc1774fb6237", "geometry": {"type": "Polygon", "coordinates": [[[349, 110], [348, 111], [347, 111], [344, 114], [344, 120], [345, 121], [345, 123], [346, 124], [346, 125], [348, 127], [348, 128], [350, 130], [351, 130], [353, 132], [355, 132], [356, 133], [357, 133], [358, 132], [361, 132], [362, 131], [363, 131], [364, 130], [365, 130], [366, 129], [367, 129], [374, 122], [374, 118], [373, 117], [373, 116], [372, 116], [370, 114], [368, 114], [367, 113], [365, 113], [364, 112], [362, 112], [361, 111], [359, 111], [358, 110], [349, 110]]]}, "properties": {"objectType": "annotation", "classification": {"name": "Neoplastic", "color": [255, 0, 0]}}}, {"type": "Feature", "id": "93e8b1de-ba79-4e4c-95d1-0aa64afd7770", "geometry": {"type": "Polygon", "coordinates": [[[177, 112], [176, 113], [175, 113], [172, 116], [172, 117], [171, 118], [171, 119], [170, 120], [170, 122], [169, 123], [169, 125], [168, 126], [168, 131], [169, 132], [169, 136], [170, 137], [170, 138], [171, 139], [171, 140], [175, 144], [176, 144], [177, 145], [185, 145], [186, 144], [189, 144], [192, 141], [192, 140], [193, 139], [193, 138], [194, 137], [194, 136], [195, 135], [195, 134], [196, 133], [196, 131], [195, 130], [195, 124], [194, 123], [194, 122], [193, 121], [193, 120], [192, 119], [192, 117], [191, 116], [191, 115], [189, 113], [188, 113], [187, 112], [177, 112]]]}, "properties": {"objectType": "annotation", "classification": {"name": "Neoplastic", "color": [255, 0, 0]}}}, {"type": "Feature", "id": "a3f0cba4-8421-4a3c-ad59-5a5f79d31aaa", "geometry": {"type": "Polygon", "coordinates": [[[305, 114], [304, 115], [302, 115], [301, 116], [301, 117], [300, 118], [300, 120], [299, 121], [299, 123], [300, 124], [300, 126], [301, 127], [301, 128], [305, 132], [306, 132], [307, 133], [308, 133], [309, 134], [313, 134], [315, 132], [315, 131], [316, 130], [316, 128], [318, 126], [319, 127], [319, 126], [321, 124], [321, 123], [322, 122], [322, 120], [321, 119], [321, 118], [319, 116], [318, 116], [317, 115], [314, 115], [313, 114], [305, 114]]]}, "properties": {"objectType": "annotation", "classification": {"name": "Neoplastic", "color": [255, 0, 0]}}}, {"type": "Feature", "id": "a9cef3e4-c033-4ad6-90d5-dfea5ad1a037", "geometry": {"type": "Polygon", "coordinates": [[[421, 115], [420, 116], [419, 116], [418, 117], [418, 118], [417, 119], [417, 128], [419, 130], [420, 130], [421, 131], [428, 131], [432, 127], [432, 126], [433, 125], [433, 123], [434, 122], [434, 121], [433, 120], [433, 119], [431, 117], [430, 117], [428, 115], [421, 115]]]}, "properties": {"objectType": "annotation", "classification": {"name": "Inflammatory", "color": [34, 221, 77]}}}, {"type": "Feature", "id": "94087301-3f1d-413e-8419-2f0c7708b33a", "geometry": {"type": "Polygon", "coordinates": [[[327, 122], [326, 123], [324, 123], [323, 124], [322, 124], [320, 126], [320, 127], [319, 128], [319, 131], [320, 132], [320, 133], [322, 135], [323, 135], [329, 141], [333, 141], [334, 140], [336, 140], [337, 139], [339, 139], [341, 137], [341, 136], [342, 135], [342, 134], [343, 133], [343, 129], [339, 125], [339, 124], [337, 122], [327, 122]]]}, "properties": {"objectType": "annotation", "classification": {"name": "Neoplastic", "color": [255, 0, 0]}}}, {"type": "Feature", "id": "537d3146-b3ef-4e29-9a19-5e26c10cd290", "geometry": {"type": "Polygon", "coordinates": [[[500, 123], [498, 125], [497, 125], [494, 128], [493, 128], [493, 129], [492, 130], [492, 131], [491, 132], [491, 133], [490, 134], [490, 135], [487, 138], [487, 140], [486, 141], [486, 144], [488, 146], [489, 146], [490, 147], [492, 147], [493, 146], [495, 146], [501, 140], [502, 140], [503, 139], [504, 139], [506, 137], [506, 136], [509, 133], [509, 132], [510, 131], [510, 127], [509, 126], [509, 125], [508, 125], [506, 123], [500, 123]]]}, "properties": {"objectType": "annotation", "classification": {"name": "Connective", "color": [35, 92, 236]}}}, {"type": "Feature", "id": "e7d8c21c-47b8-4875-babe-6624f5264db9", "geometry": {"type": "Polygon", "coordinates": [[[89, 122], [88, 123], [85, 123], [84, 124], [81, 124], [80, 125], [79, 125], [77, 127], [77, 128], [75, 130], [75, 132], [74, 133], [74, 136], [73, 137], [73, 143], [75, 145], [75, 146], [77, 148], [77, 149], [78, 150], [79, 150], [81, 152], [84, 152], [85, 153], [90, 153], [91, 152], [93, 152], [94, 151], [97, 151], [98, 150], [105, 150], [106, 149], [108, 149], [109, 148], [110, 148], [110, 147], [112, 145], [112, 139], [113, 138], [113, 132], [109, 128], [108, 128], [107, 127], [107, 126], [105, 124], [105, 123], [102, 123], [101, 122], [89, 122]]]}, "properties": {"objectType": "annotation", "classification": {"name": "Neoplastic", "color": [255, 0, 0]}}}, {"type": "Feature", "id": "9f480d97-3f5f-4bb8-a97a-71be85386224", "geometry": {"type": "Polygon", "coordinates": [[[247, 136], [246, 137], [244, 137], [240, 141], [240, 142], [238, 144], [238, 145], [237, 146], [237, 150], [238, 151], [238, 152], [239, 153], [241, 153], [242, 154], [244, 154], [245, 155], [248, 155], [249, 156], [254, 156], [255, 155], [257, 155], [261, 151], [261, 150], [262, 149], [262, 146], [261, 145], [261, 144], [258, 141], [258, 140], [257, 140], [255, 138], [254, 138], [253, 137], [251, 137], [250, 136], [247, 136]]]}, "properties": {"objectType": "annotation", "classification": {"name": "Neoplastic", "color": [255, 0, 0]}}}, {"type": "Feature", "id": "7957b2af-5c26-4fce-96cc-7b41acfe0209", "geometry": {"type": "Polygon", "coordinates": [[[122, 139], [121, 140], [118, 140], [117, 141], [116, 141], [116, 142], [115, 143], [115, 146], [114, 147], [114, 151], [113, 152], [113, 154], [112, 155], [112, 156], [113, 157], [113, 158], [115, 160], [117, 160], [118, 161], [119, 160], [122, 160], [124, 158], [125, 158], [126, 157], [127, 157], [131, 153], [131, 148], [130, 147], [130, 146], [129, 145], [129, 144], [127, 142], [127, 141], [126, 141], [125, 140], [124, 140], [123, 139], [122, 139]]]}, "properties": {"objectType": "annotation", "classification": {"name": "Neoplastic", "color": [255, 0, 0]}}}, {"type": "Feature", "id": "4dde8fb0-a904-4347-84ac-c87d82060a0d", "geometry": {"type": "Polygon", "coordinates": [[[22, 141], [21, 142], [19, 142], [18, 143], [17, 143], [16, 144], [15, 144], [14, 145], [13, 145], [9, 149], [9, 150], [8, 151], [8, 155], [7, 156], [8, 157], [8, 159], [9, 160], [9, 161], [11, 163], [14, 163], [15, 164], [17, 164], [18, 163], [19, 163], [22, 160], [23, 160], [25, 158], [26, 158], [28, 156], [28, 154], [29, 153], [29, 149], [28, 148], [28, 143], [27, 142], [26, 142], [25, 141], [22, 141]]]}, "properties": {"objectType": "annotation", "classification": {"name": "Connective", "color": [35, 92, 236]}}}, {"type": "Feature", "id": "9f9e490b-ffd4-48ce-9d39-7efae99328f4", "geometry": {"type": "Polygon", "coordinates": [[[275, 141], [274, 142], [273, 142], [269, 146], [269, 147], [267, 149], [267, 150], [266, 151], [266, 160], [265, 161], [265, 168], [266, 169], [266, 171], [267, 172], [267, 173], [269, 175], [273, 175], [274, 174], [277, 174], [278, 173], [279, 173], [280, 172], [281, 172], [282, 171], [283, 171], [284, 170], [285, 170], [294, 161], [294, 160], [295, 159], [295, 158], [296, 157], [296, 153], [294, 151], [293, 151], [292, 150], [292, 149], [289, 146], [289, 145], [287, 143], [286, 143], [285, 142], [284, 142], [283, 141], [275, 141]]]}, "properties": {"objectType": "annotation", "classification": {"name": "Neoplastic", "color": [255, 0, 0]}}}, {"type": "Feature", "id": "253e819d-a35a-4649-89ef-519e656517c6", "geometry": {"type": "Polygon", "coordinates": [[[375, 144], [373, 146], [373, 147], [372, 148], [372, 154], [375, 157], [380, 157], [381, 156], [382, 156], [383, 155], [384, 155], [387, 152], [387, 151], [388, 150], [388, 147], [387, 146], [387, 145], [386, 145], [385, 144], [375, 144]]]}, "properties": {"objectType": "annotation", "classification": {"name": "Connective", "color": [35, 92, 236]}}}, {"type": "Feature", "id": "fa947eb1-936e-452e-b868-c7a6a6bcb2dc", "geometry": {"type": "Polygon", "coordinates": [[[445, 143], [444, 144], [438, 144], [437, 145], [433, 145], [432, 146], [430, 146], [429, 147], [427, 147], [425, 149], [424, 149], [424, 153], [425, 153], [426, 154], [428, 154], [429, 155], [433, 155], [434, 156], [438, 156], [439, 157], [447, 157], [448, 156], [450, 156], [453, 153], [453, 152], [454, 151], [454, 149], [455, 148], [455, 147], [454, 146], [454, 145], [453, 144], [452, 144], [451, 143], [445, 143]]]}, "properties": {"objectType": "annotation", "classification": {"name": "Connective", "color": [35, 92, 236]}}}, {"type": "Feature", "id": "fb225f3c-4085-4d1a-9526-d8bee8a83fc3", "geometry": {"type": "Polygon", "coordinates": [[[355, 147], [355, 148], [354, 149], [354, 151], [353, 152], [353, 156], [352, 157], [352, 159], [351, 160], [351, 161], [350, 162], [350, 164], [349, 165], [349, 166], [346, 169], [346, 171], [345, 172], [345, 176], [346, 177], [346, 178], [348, 180], [355, 180], [356, 179], [358, 179], [359, 178], [360, 178], [361, 177], [362, 177], [363, 176], [363, 174], [365, 172], [365, 171], [366, 170], [366, 169], [367, 168], [367, 167], [368, 166], [368, 164], [369, 163], [369, 157], [368, 156], [368, 155], [360, 147], [355, 147]]]}, "properties": {"objectType": "annotation", "classification": {"name": "Connective", "color": [35, 92, 236]}}}, {"type": "Feature", "id": "a1ed4743-82f5-4a24-aa2d-673966537ead", "geometry": {"type": "Polygon", "coordinates": [[[166, 149], [165, 150], [163, 150], [162, 151], [161, 151], [159, 153], [158, 153], [157, 154], [155, 154], [152, 157], [151, 157], [148, 160], [148, 161], [147, 162], [147, 163], [146, 164], [146, 165], [145, 166], [145, 168], [144, 169], [144, 170], [145, 171], [145, 174], [147, 176], [147, 177], [148, 177], [150, 179], [151, 179], [153, 181], [155, 181], [156, 182], [167, 182], [168, 181], [169, 181], [170, 180], [171, 180], [173, 178], [174, 178], [175, 177], [176, 177], [182, 171], [182, 170], [184, 168], [184, 167], [185, 166], [185, 159], [184, 158], [184, 157], [183, 156], [183, 155], [178, 150], [176, 150], [175, 149], [166, 149]]]}, "properties": {"objectType": "annotation", "classification": {"name": "Neoplastic", "color": [255, 0, 0]}}}, {"type": "Feature", "id": "c30c5ec1-5327-4eec-9ed0-6681f4ed2cc5", "geometry": {"type": "Polygon", "coordinates": [[[96, 154], [94, 156], [94, 157], [92, 159], [92, 162], [96, 166], [97, 166], [98, 167], [100, 167], [101, 168], [102, 168], [103, 167], [104, 167], [108, 163], [108, 158], [104, 154], [96, 154]]]}, "properties": {"objectType": "annotation", "classification": {"name": "Inflammatory", "color": [34, 221, 77]}}}, {"type": "Feature", "id": "1a01b20e-f955-4735-9a1c-6a15882520b1", "geometry": {"type": "Polygon", "coordinates": [[[324, 155], [323, 156], [317, 156], [316, 157], [315, 157], [314, 158], [313, 158], [313, 159], [312, 160], [312, 161], [311, 162], [311, 167], [313, 169], [314, 169], [315, 170], [316, 170], [317, 171], [318, 171], [319, 172], [320, 172], [321, 173], [326, 173], [327, 172], [328, 172], [330, 170], [330, 169], [331, 168], [331, 166], [332, 165], [332, 159], [331, 158], [331, 157], [330, 157], [329, 156], [327, 156], [326, 155], [324, 155]]]}, "properties": {"objectType": "annotation", "classification": {"name": "Neoplastic", "color": [255, 0, 0]}}}, {"type": "Feature", "id": "f01515ac-657d-4e30-bd8f-c5f03228c9bc", "geometry": {"type": "Polygon", "coordinates": [[[51, 157], [50, 158], [47, 158], [45, 160], [44, 160], [43, 161], [42, 161], [37, 166], [36, 166], [36, 167], [34, 169], [34, 174], [35, 175], [35, 179], [40, 184], [40, 185], [42, 185], [44, 187], [45, 187], [46, 188], [52, 188], [54, 186], [55, 186], [56, 185], [57, 185], [57, 184], [58, 183], [58, 182], [59, 181], [59, 163], [58, 162], [58, 161], [57, 160], [57, 159], [56, 159], [54, 157], [51, 157]]]}, "properties": {"objectType": "annotation", "classification": {"name": "Neoplastic", "color": [255, 0, 0]}}}, {"type": "Feature", "id": "2b8ee638-2e4b-4a8c-8f87-b2052e187a17", "geometry": {"type": "Polygon", "coordinates": [[[231, 165], [230, 166], [228, 166], [227, 167], [225, 167], [224, 168], [223, 168], [220, 171], [220, 172], [219, 173], [219, 176], [218, 177], [218, 179], [221, 182], [225, 182], [226, 181], [227, 182], [231, 182], [232, 181], [239, 181], [240, 180], [243, 180], [244, 179], [246, 179], [247, 178], [248, 178], [250, 176], [251, 176], [253, 174], [253, 172], [252, 171], [252, 170], [251, 170], [250, 169], [249, 169], [248, 168], [247, 168], [246, 167], [243, 167], [242, 166], [240, 166], [239, 165], [231, 165]]]}, "properties": {"objectType": "annotation", "classification": {"name": "Neoplastic", "color": [255, 0, 0]}}}, {"type": "Feature", "id": "f0788fec-1cee-45d0-812e-0db1dfa2c298", "geometry": {"type": "Polygon", "coordinates": [[[466, 173], [465, 174], [460, 174], [459, 175], [457, 175], [456, 176], [455, 176], [455, 177], [454, 178], [454, 180], [456, 182], [458, 182], [459, 183], [473, 183], [474, 182], [475, 182], [477, 180], [477, 176], [474, 173], [466, 173]]]}, "properties": {"objectType": "annotation", "classification": {"name": "Connective", "color": [35, 92, 236]}}}, {"type": "Feature", "id": "ae733da5-179e-4f22-8334-5095a2942bfc", "geometry": {"type": "Polygon", "coordinates": [[[498, 173], [497, 174], [496, 174], [494, 176], [493, 176], [489, 180], [489, 181], [487, 183], [487, 185], [490, 188], [496, 188], [497, 189], [505, 189], [506, 190], [510, 190], [511, 191], [511, 174], [510, 173], [498, 173]]]}, "properties": {"objectType": "annotation", "classification": {"name": "Connective", "color": [35, 92, 236]}}}, {"type": "Feature", "id": "00dfea43-b2d4-445f-bbb9-56f10f1806d1", "geometry": {"type": "Polygon", "coordinates": [[[310, 174], [309, 175], [307, 175], [304, 178], [304, 179], [303, 180], [303, 182], [304, 183], [304, 184], [305, 185], [314, 185], [315, 186], [320, 186], [321, 187], [329, 187], [330, 188], [337, 188], [337, 187], [338, 186], [338, 185], [339, 184], [339, 183], [338, 182], [338, 178], [335, 175], [331, 175], [330, 176], [325, 176], [324, 177], [323, 177], [322, 176], [319, 176], [318, 175], [316, 175], [315, 174], [310, 174]]]}, "properties": {"objectType": "annotation", "classification": {"name": "Connective", "color": [35, 92, 236]}}}, {"type": "Feature", "id": "47ac9ab9-a678-402a-8c3c-d09f670b355b", "geometry": {"type": "Polygon", "coordinates": [[[20, 176], [19, 177], [18, 177], [18, 178], [17, 179], [17, 180], [16, 181], [16, 188], [17, 189], [18, 189], [19, 190], [25, 190], [26, 191], [28, 191], [29, 192], [33, 192], [34, 191], [37, 191], [38, 190], [38, 186], [37, 185], [37, 184], [35, 182], [34, 182], [33, 181], [32, 181], [30, 179], [29, 179], [28, 178], [27, 178], [26, 177], [25, 177], [24, 176], [20, 176]]]}, "properties": {"objectType": "annotation", "classification": {"name": "Neoplastic", "color": [255, 0, 0]}}}, {"type": "Feature", "id": "595744f5-4b9d-4b7d-b777-56ff6384c0ce", "geometry": {"type": "Polygon", "coordinates": [[[279, 187], [278, 188], [276, 188], [275, 189], [274, 189], [272, 191], [272, 193], [273, 193], [274, 194], [275, 194], [276, 193], [279, 193], [283, 189], [283, 187], [279, 187]]]}, "properties": {"objectType": "annotation", "classification": {"name": "Connective", "color": [35, 92, 236]}}}, {"type": "Feature", "id": "dc69859d-c950-4d4d-a892-dc15aa3c625e", "geometry": {"type": "Polygon", "coordinates": [[[6, 206], [5, 207], [2, 207], [1, 208], [1, 211], [-1, 213], [-1, 215], [-2, 216], [-2, 218], [-3, 219], [-3, 221], [-4, 222], [-4, 226], [-3, 227], [-3, 228], [-2, 229], [2, 229], [3, 230], [4, 230], [5, 231], [8, 228], [8, 227], [9, 226], [9, 225], [10, 224], [10, 222], [11, 221], [11, 218], [12, 217], [12, 213], [11, 212], [11, 209], [9, 207], [8, 207], [7, 206], [6, 206]]]}, "properties": {"objectType": "annotation", "classification": {"name": "Neoplastic", "color": [255, 0, 0]}}}, {"type": "Feature", "id": "c82ac7b6-7df7-4196-8944-c0869f7d1de3", "geometry": {"type": "Polygon", "coordinates": [[[107, 212], [106, 213], [104, 213], [103, 214], [102, 214], [101, 215], [100, 215], [97, 218], [96, 218], [94, 220], [94, 221], [91, 224], [91, 226], [90, 227], [90, 232], [91, 233], [91, 236], [92, 237], [92, 238], [94, 240], [94, 241], [95, 241], [96, 242], [99, 242], [100, 241], [102, 241], [104, 239], [105, 239], [107, 237], [108, 237], [112, 233], [112, 232], [114, 230], [114, 229], [115, 228], [115, 227], [116, 226], [116, 222], [117, 221], [117, 216], [115, 214], [114, 214], [113, 213], [110, 213], [109, 212], [107, 212]]]}, "properties": {"objectType": "annotation", "classification": {"name": "Connective", "color": [35, 92, 236]}}}, {"type": "Feature", "id": "9b61e3dd-1c7e-4a9a-9938-52276170620c", "geometry": {"type": "Polygon", "coordinates": [[[139, 220], [138, 221], [137, 221], [136, 222], [135, 222], [134, 223], [133, 223], [129, 227], [129, 228], [128, 229], [128, 230], [127, 231], [127, 233], [126, 234], [127, 235], [127, 236], [128, 237], [130, 237], [139, 228], [140, 228], [142, 226], [142, 225], [143, 224], [143, 223], [142, 222], [142, 221], [141, 221], [140, 220], [139, 220]]]}, "properties": {"objectType": "annotation", "classification": {"name": "Connective", "color": [35, 92, 236]}}}, {"type": "Feature", "id": "b7e0a170-7148-4454-96a6-ae8543a1926d", "geometry": {"type": "Polygon", "coordinates": [[[268, 222], [267, 223], [263, 223], [262, 224], [260, 224], [258, 226], [260, 228], [260, 229], [261, 230], [261, 231], [265, 235], [266, 235], [267, 236], [270, 236], [271, 237], [274, 237], [275, 238], [277, 238], [278, 239], [280, 239], [281, 240], [283, 240], [284, 241], [285, 241], [286, 242], [291, 242], [292, 241], [293, 241], [294, 240], [295, 240], [296, 239], [298, 239], [299, 238], [301, 238], [302, 237], [303, 237], [304, 236], [305, 236], [308, 233], [309, 233], [312, 230], [313, 230], [313, 229], [312, 228], [303, 228], [302, 227], [297, 227], [296, 226], [294, 226], [293, 225], [288, 225], [287, 224], [285, 224], [284, 223], [282, 223], [281, 222], [268, 222]]]}, "properties": {"objectType": "annotation", "classification": {"name": "Connective", "color": [35, 92, 236]}}}, {"type": "Feature", "id": "9f77f4a3-2c04-4a97-8590-a7e16156c54b", "geometry": {"type": "Polygon", "coordinates": [[[176, 219], [175, 220], [173, 220], [172, 221], [169, 221], [168, 222], [167, 222], [166, 223], [164, 223], [163, 224], [161, 224], [160, 225], [159, 225], [155, 229], [154, 229], [153, 230], [152, 230], [151, 231], [150, 231], [144, 237], [143, 237], [141, 239], [140, 239], [137, 242], [136, 242], [135, 243], [135, 244], [136, 245], [139, 245], [140, 244], [142, 244], [143, 243], [144, 243], [145, 242], [147, 242], [148, 241], [149, 241], [150, 240], [151, 240], [156, 235], [157, 235], [158, 234], [159, 234], [160, 233], [161, 233], [162, 232], [163, 232], [165, 230], [166, 230], [170, 226], [171, 226], [173, 224], [174, 224], [177, 221], [178, 221], [178, 219], [176, 219]]]}, "properties": {"objectType": "annotation", "classification": {"name": "Connective", "color": [35, 92, 236]}}}, {"type": "Feature", "id": "0fb28e69-f3cc-45a8-99a2-3485a44fab7d", "geometry": {"type": "Polygon", "coordinates": [[[177, 228], [176, 229], [175, 229], [174, 230], [173, 230], [172, 231], [171, 231], [169, 233], [168, 233], [167, 234], [166, 234], [165, 235], [164, 235], [163, 236], [162, 236], [157, 241], [157, 242], [156, 243], [156, 244], [155, 245], [155, 249], [156, 250], [158, 250], [159, 249], [160, 249], [161, 248], [162, 248], [163, 247], [164, 247], [165, 246], [166, 246], [167, 245], [168, 245], [169, 244], [171, 244], [171, 243], [172, 242], [172, 241], [173, 240], [174, 240], [175, 239], [176, 239], [177, 238], [178, 238], [179, 237], [180, 237], [184, 233], [184, 232], [186, 230], [186, 229], [185, 228], [177, 228]]]}, "properties": {"objectType": "annotation", "classification": {"name": "Connective", "color": [35, 92, 236]}}}, {"type": "Feature", "id": "fa4829de-b3ff-46cb-9cc3-a10b9928d9e9", "geometry": {"type": "Polygon", "coordinates": [[[377, 243], [376, 244], [374, 244], [373, 245], [367, 245], [366, 246], [365, 246], [364, 247], [364, 248], [363, 249], [363, 252], [367, 256], [368, 256], [369, 257], [371, 257], [372, 258], [374, 258], [375, 259], [379, 259], [381, 257], [381, 256], [382, 255], [382, 244], [381, 243], [377, 243]]]}, "properties": {"objectType": "annotation", "classification": {"name": "Connective", "color": [35, 92, 236]}}}, {"type": "Feature", "id": "c547eb50-7945-4cdc-91b1-26cdf6277c26", "geometry": {"type": "Polygon", "coordinates": [[[299, 244], [298, 245], [295, 245], [295, 246], [294, 247], [294, 249], [296, 251], [297, 251], [298, 252], [299, 252], [300, 253], [301, 253], [302, 254], [317, 254], [318, 253], [320, 253], [321, 252], [324, 252], [325, 251], [326, 251], [327, 250], [328, 250], [329, 249], [330, 249], [330, 248], [327, 245], [319, 245], [318, 246], [314, 246], [313, 245], [306, 245], [305, 244], [299, 244]]]}, "properties": {"objectType": "annotation", "classification": {"name": "Connective", "color": [35, 92, 236]}}}, {"type": "Feature", "id": "afd14878-27df-41a3-a0c6-ddab4566dc56", "geometry": {"type": "Polygon", "coordinates": [[[483, 243], [482, 244], [482, 247], [481, 248], [481, 252], [480, 253], [480, 254], [478, 256], [478, 257], [476, 259], [476, 260], [475, 261], [475, 262], [474, 263], [475, 264], [475, 265], [476, 266], [477, 266], [478, 267], [482, 267], [483, 266], [485, 266], [487, 264], [488, 264], [495, 257], [495, 256], [496, 255], [496, 253], [495, 252], [495, 250], [494, 249], [493, 249], [492, 248], [491, 248], [490, 247], [489, 247], [488, 246], [487, 246], [484, 243], [483, 243]]]}, "properties": {"objectType": "annotation", "classification": {"name": "Connective", "color": [35, 92, 236]}}}, {"type": "Feature", "id": "0babc1b8-fee5-4fd4-98cc-602d13a0866a", "geometry": {"type": "Polygon", "coordinates": [[[18, 249], [16, 251], [15, 251], [14, 252], [14, 253], [13, 254], [13, 255], [15, 257], [20, 257], [21, 256], [23, 256], [24, 255], [24, 254], [25, 253], [25, 252], [24, 251], [24, 250], [23, 250], [22, 249], [18, 249]]]}, "properties": {"objectType": "annotation", "classification": {"name": "Connective", "color": [35, 92, 236]}}}, {"type": "Feature", "id": "117af389-3c35-4437-893d-cbe4b67aabe0", "geometry": {"type": "Polygon", "coordinates": [[[59, 265], [58, 266], [53, 266], [52, 267], [49, 267], [48, 268], [46, 268], [45, 269], [43, 269], [42, 270], [40, 270], [38, 272], [37, 272], [35, 274], [35, 275], [33, 277], [33, 278], [32, 279], [32, 282], [34, 284], [39, 284], [40, 283], [43, 283], [44, 282], [46, 282], [47, 281], [49, 281], [50, 280], [51, 280], [52, 279], [53, 279], [54, 278], [57, 278], [58, 277], [62, 277], [63, 276], [64, 276], [67, 273], [67, 272], [68, 271], [67, 270], [67, 268], [65, 266], [64, 266], [63, 265], [59, 265]]]}, "properties": {"objectType": "annotation", "classification": {"name": "Connective", "color": [35, 92, 236]}}}, {"type": "Feature", "id": "b9b80331-7ea3-4a7c-aa7c-b3406e94b5a0", "geometry": {"type": "Polygon", "coordinates": [[[12, 266], [11, 267], [10, 267], [7, 270], [6, 270], [-3, 279], [-3, 280], [-5, 282], [-5, 286], [-4, 286], [-3, 287], [3, 287], [4, 288], [5, 287], [6, 287], [7, 286], [8, 286], [10, 284], [11, 284], [14, 281], [14, 280], [18, 276], [18, 275], [19, 274], [19, 270], [18, 269], [18, 268], [17, 267], [17, 266], [12, 266]]]}, "properties": {"objectType": "annotation", "classification": {"name": "Connective", "color": [35, 92, 236]}}}, {"type": "Feature", "id": "50b9bc8c-c30d-469b-a69f-0024c61ed2fd", "geometry": {"type": "Polygon", "coordinates": [[[80, 271], [79, 272], [78, 272], [73, 277], [73, 278], [72, 279], [72, 281], [71, 282], [71, 284], [70, 285], [70, 287], [69, 288], [69, 290], [68, 291], [68, 295], [67, 296], [67, 300], [71, 304], [73, 304], [74, 305], [76, 305], [77, 304], [84, 304], [85, 303], [86, 303], [89, 300], [89, 299], [90, 298], [90, 292], [91, 291], [90, 290], [90, 280], [91, 279], [90, 278], [90, 276], [89, 275], [89, 274], [86, 271], [80, 271]]]}, "properties": {"objectType": "annotation", "classification": {"name": "Connective", "color": [35, 92, 236]}}}, {"type": "Feature", "id": "28c9ef78-0181-41a2-ba37-9b6c2e796780", "geometry": {"type": "Polygon", "coordinates": [[[99, 272], [98, 273], [96, 273], [93, 276], [93, 277], [92, 278], [92, 279], [91, 280], [91, 290], [92, 291], [92, 293], [93, 294], [93, 295], [94, 296], [94, 297], [97, 300], [98, 300], [100, 302], [106, 302], [109, 299], [109, 297], [110, 296], [110, 292], [111, 291], [111, 279], [110, 278], [110, 277], [107, 274], [106, 274], [105, 273], [103, 273], [102, 272], [99, 272]]]}, "properties": {"objectType": "annotation", "classification": {"name": "Connective", "color": [35, 92, 236]}}}, {"type": "Feature", "id": "2244ad81-aa32-48ff-aaa4-54ff58f4ecd6", "geometry": {"type": "Polygon", "coordinates": [[[131, 277], [128, 280], [128, 285], [129, 286], [129, 287], [130, 288], [130, 290], [131, 291], [132, 291], [133, 292], [137, 292], [141, 288], [141, 282], [139, 280], [139, 279], [138, 279], [136, 277], [131, 277]]]}, "properties": {"objectType": "annotation", "classification": {"name": "Connective", "color": [35, 92, 236]}}}, {"type": "Feature", "id": "1f4256e5-2034-4302-8dd3-3b2eddb3d7c6", "geometry": {"type": "Polygon", "coordinates": [[[171, 293], [170, 294], [169, 294], [168, 295], [168, 296], [167, 297], [167, 300], [168, 301], [168, 303], [169, 304], [169, 305], [170, 306], [171, 306], [172, 307], [173, 307], [174, 308], [180, 308], [181, 309], [184, 309], [185, 308], [187, 308], [188, 307], [189, 307], [189, 302], [188, 301], [188, 300], [187, 299], [187, 298], [183, 294], [182, 294], [181, 293], [171, 293]]]}, "properties": {"objectType": "annotation", "classification": {"name": "Inflammatory", "color": [34, 221, 77]}}}, {"type": "Feature", "id": "737645da-b517-4b06-89f0-68f03f9692b5", "geometry": {"type": "Polygon", "coordinates": [[[445, 296], [444, 297], [444, 298], [443, 299], [443, 301], [444, 302], [444, 308], [445, 309], [445, 310], [446, 311], [446, 314], [447, 315], [447, 316], [449, 318], [453, 318], [453, 317], [455, 315], [455, 310], [454, 309], [454, 308], [452, 306], [452, 305], [451, 304], [451, 302], [450, 301], [450, 300], [447, 297], [446, 297], [445, 296]]]}, "properties": {"objectType": "annotation", "classification": {"name": "Connective", "color": [35, 92, 236]}}}, {"type": "Feature", "id": "c056f621-4591-4303-9de3-90ace6dbf391", "geometry": {"type": "Polygon", "coordinates": [[[42, 295], [41, 296], [39, 296], [38, 297], [37, 297], [34, 300], [33, 300], [27, 306], [26, 306], [23, 309], [22, 309], [20, 311], [20, 312], [17, 315], [17, 316], [15, 318], [15, 319], [14, 320], [14, 321], [13, 322], [13, 324], [12, 325], [12, 326], [13, 327], [13, 330], [14, 331], [19, 331], [20, 330], [21, 330], [33, 318], [33, 317], [34, 316], [34, 315], [35, 314], [35, 313], [37, 311], [37, 310], [38, 309], [38, 308], [41, 305], [41, 304], [43, 302], [43, 301], [45, 299], [46, 299], [48, 297], [48, 295], [42, 295]]]}, "properties": {"objectType": "annotation", "classification": {"name": "Connective", "color": [35, 92, 236]}}}, {"type": "Feature", "id": "d5a75beb-fe3e-41d2-9441-7ad5475ade08", "geometry": {"type": "Polygon", "coordinates": [[[435, 300], [431, 304], [431, 305], [430, 306], [430, 309], [431, 310], [431, 313], [432, 314], [432, 316], [433, 317], [433, 326], [434, 327], [434, 329], [438, 333], [440, 333], [441, 334], [442, 334], [444, 332], [444, 328], [443, 327], [443, 325], [441, 323], [441, 320], [440, 319], [440, 315], [441, 314], [441, 313], [440, 312], [441, 311], [441, 303], [438, 300], [435, 300]]]}, "properties": {"objectType": "annotation", "classification": {"name": "Connective", "color": [35, 92, 236]}}}, {"type": "Feature", "id": "8e0ff61a-d2c9-4b22-9a74-8f8636ab5a24", "geometry": {"type": "Polygon", "coordinates": [[[328, 319], [326, 321], [326, 323], [327, 324], [327, 325], [329, 327], [329, 328], [334, 333], [335, 333], [336, 334], [337, 334], [338, 335], [340, 335], [341, 336], [342, 336], [343, 337], [348, 337], [349, 336], [350, 336], [354, 332], [354, 329], [353, 328], [353, 327], [351, 325], [349, 325], [347, 323], [346, 323], [345, 322], [344, 322], [343, 321], [342, 321], [341, 320], [337, 320], [336, 319], [328, 319]]]}, "properties": {"objectType": "annotation", "classification": {"name": "Connective", "color": [35, 92, 236]}}}, {"type": "Feature", "id": "520b6f81-b879-42a4-a7bd-e2dfc1a0c3b7", "geometry": {"type": "Polygon", "coordinates": [[[163, 322], [160, 325], [160, 327], [161, 328], [161, 329], [162, 330], [163, 330], [164, 331], [166, 331], [167, 332], [168, 332], [169, 331], [170, 331], [170, 330], [171, 329], [170, 328], [170, 326], [166, 322], [163, 322]]]}, "properties": {"objectType": "annotation", "classification": {"name": "Inflammatory", "color": [34, 221, 77]}}}, {"type": "Feature", "id": "fbd322e6-30dd-418d-a821-cc43e2dd7bfb", "geometry": {"type": "Polygon", "coordinates": [[[460, 321], [459, 322], [456, 322], [455, 323], [455, 324], [454, 325], [454, 332], [455, 333], [455, 335], [461, 341], [462, 341], [463, 340], [463, 339], [464, 338], [464, 325], [463, 324], [463, 323], [461, 321], [460, 321]]]}, "properties": {"objectType": "annotation", "classification": {"name": "Connective", "color": [35, 92, 236]}}}, {"type": "Feature", "id": "725a4fd2-b88c-4a5d-a45d-056ce774aeef", "geometry": {"type": "Polygon", "coordinates": [[[326, 334], [325, 335], [325, 338], [324, 339], [324, 344], [323, 345], [323, 349], [324, 350], [324, 351], [325, 352], [325, 353], [326, 354], [327, 354], [329, 356], [330, 356], [331, 357], [331, 358], [333, 360], [333, 361], [334, 362], [334, 363], [335, 364], [335, 366], [336, 367], [337, 367], [338, 366], [339, 366], [344, 361], [344, 358], [345, 357], [345, 355], [344, 354], [344, 350], [343, 349], [343, 348], [341, 346], [341, 345], [335, 339], [334, 339], [331, 336], [330, 336], [329, 335], [328, 335], [327, 334], [326, 334]]]}, "properties": {"objectType": "annotation", "classification": {"name": "Connective", "color": [35, 92, 236]}}}, {"type": "Feature", "id": "07e0ff3d-2f86-4349-8cb5-8deedd345253", "geometry": {"type": "Polygon", "coordinates": [[[116, 337], [115, 338], [114, 338], [112, 340], [111, 340], [110, 341], [109, 341], [107, 343], [107, 344], [106, 345], [106, 357], [107, 358], [107, 362], [110, 365], [110, 366], [117, 373], [118, 373], [119, 372], [119, 371], [120, 370], [120, 368], [121, 367], [121, 366], [122, 365], [122, 364], [125, 361], [126, 361], [127, 360], [127, 359], [128, 358], [128, 357], [129, 356], [129, 354], [128, 353], [128, 350], [127, 349], [127, 348], [126, 347], [126, 346], [124, 344], [124, 343], [122, 341], [122, 340], [119, 337], [116, 337]]]}, "properties": {"objectType": "annotation", "classification": {"name": "Connective", "color": [35, 92, 236]}}}, {"type": "Feature", "id": "9b085a70-ad50-4013-87c7-a410058f6556", "geometry": {"type": "Polygon", "coordinates": [[[351, 340], [350, 341], [350, 344], [349, 345], [349, 360], [351, 362], [355, 362], [356, 361], [359, 361], [360, 360], [361, 360], [365, 356], [365, 355], [366, 354], [366, 351], [367, 350], [367, 347], [366, 346], [366, 344], [365, 343], [365, 342], [364, 342], [363, 341], [359, 341], [358, 340], [351, 340]]]}, "properties": {"objectType": "annotation", "classification": {"name": "Connective", "color": [35, 92, 236]}}}, {"type": "Feature", "id": "5f5c5ff9-d28f-4d9e-bd08-3d82e78045f5", "geometry": {"type": "Polygon", "coordinates": [[[159, 358], [158, 359], [157, 359], [155, 361], [155, 362], [154, 363], [154, 367], [155, 368], [158, 368], [159, 367], [160, 367], [161, 366], [162, 366], [162, 365], [163, 364], [163, 359], [162, 358], [159, 358]]]}, "properties": {"objectType": "annotation", "classification": {"name": "Connective", "color": [35, 92, 236]}}}, {"type": "Feature", "id": "1be7619b-ac82-4899-ba6f-5e90798aaff1", "geometry": {"type": "Polygon", "coordinates": [[[299, 363], [298, 364], [297, 364], [293, 368], [293, 369], [292, 370], [292, 371], [291, 372], [291, 373], [290, 374], [290, 376], [289, 377], [289, 385], [290, 386], [290, 388], [294, 392], [295, 392], [296, 393], [303, 393], [304, 392], [306, 392], [307, 391], [308, 391], [310, 389], [310, 386], [309, 385], [309, 382], [308, 381], [308, 378], [307, 377], [307, 374], [306, 373], [306, 372], [305, 371], [305, 370], [304, 369], [304, 367], [303, 366], [303, 365], [301, 363], [299, 363]]]}, "properties": {"objectType": "annotation", "classification": {"name": "Connective", "color": [35, 92, 236]}}}, {"type": "Feature", "id": "eed45ffe-f211-461d-b95b-07618c3ee8a7", "geometry": {"type": "Polygon", "coordinates": [[[348, 366], [347, 367], [345, 367], [337, 375], [337, 376], [335, 378], [335, 379], [334, 380], [334, 381], [333, 382], [333, 385], [332, 386], [332, 388], [333, 389], [333, 390], [334, 391], [336, 391], [337, 392], [342, 392], [343, 391], [344, 391], [345, 390], [346, 390], [350, 386], [350, 385], [352, 383], [352, 382], [355, 379], [355, 378], [357, 376], [357, 375], [358, 374], [357, 373], [357, 370], [356, 370], [354, 368], [353, 368], [352, 367], [351, 367], [350, 366], [348, 366]]]}, "properties": {"objectType": "annotation", "classification": {"name": "Connective", "color": [35, 92, 236]}}}, {"type": "Feature", "id": "763fedf6-f503-4455-9976-659aad87be53", "geometry": {"type": "Polygon", "coordinates": [[[181, 382], [180, 383], [178, 383], [177, 384], [176, 384], [173, 387], [173, 392], [174, 393], [175, 393], [176, 394], [179, 394], [180, 393], [181, 393], [183, 391], [183, 388], [184, 387], [184, 383], [183, 382], [181, 382]]]}, "properties": {"objectType": "annotation", "classification": {"name": "Inflammatory", "color": [34, 221, 77]}}}, {"type": "Feature", "id": "cb9c561b-6979-4499-bd01-43bbfaafb904", "geometry": {"type": "Polygon", "coordinates": [[[280, 394], [279, 395], [278, 395], [276, 397], [276, 398], [275, 399], [275, 400], [274, 401], [274, 404], [277, 407], [278, 407], [279, 408], [280, 408], [281, 409], [282, 409], [283, 410], [286, 410], [287, 409], [289, 409], [290, 408], [292, 408], [295, 405], [295, 401], [294, 400], [294, 399], [293, 399], [291, 397], [289, 397], [288, 396], [287, 396], [286, 395], [285, 395], [284, 394], [280, 394]]]}, "properties": {"objectType": "annotation", "classification": {"name": "Inflammatory", "color": [34, 221, 77]}}}, {"type": "Feature", "id": "9ca9b8d0-5191-4a58-b6b8-dc96455da6e0", "geometry": {"type": "Polygon", "coordinates": [[[121, 404], [120, 405], [118, 405], [117, 406], [116, 406], [115, 407], [115, 413], [115, 412], [116, 411], [116, 410], [117, 409], [118, 409], [119, 410], [120, 410], [122, 412], [122, 413], [123, 413], [123, 409], [121, 407], [122, 406], [123, 406], [123, 405], [122, 404], [121, 404]]]}, "properties": {"objectType": "annotation", "classification": {"name": "Connective", "color": [35, 92, 236]}}}, {"type": "Feature", "id": "a94cb880-c6ff-4504-8a00-2f0d26d78c98", "geometry": {"type": "Polygon", "coordinates": [[[80, 404], [79, 405], [78, 405], [77, 406], [76, 406], [75, 407], [74, 407], [73, 408], [70, 408], [69, 409], [68, 409], [64, 413], [64, 415], [63, 416], [63, 417], [65, 419], [66, 419], [67, 420], [73, 420], [74, 419], [77, 419], [78, 418], [79, 418], [81, 416], [82, 416], [83, 415], [83, 414], [85, 412], [85, 411], [86, 410], [86, 406], [85, 405], [85, 404], [80, 404]]]}, "properties": {"objectType": "annotation", "classification": {"name": "Connective", "color": [35, 92, 236]}}}, {"type": "Feature", "id": "45a1d040-ebbf-4eeb-8a06-af41df7ca3ec", "geometry": {"type": "Polygon", "coordinates": [[[320, 410], [319, 411], [318, 411], [317, 412], [317, 414], [316, 415], [316, 421], [317, 422], [317, 423], [318, 424], [320, 424], [321, 423], [321, 422], [322, 421], [322, 419], [323, 418], [323, 410], [320, 410]]]}, "properties": {"objectType": "annotation", "classification": {"name": "Inflammatory", "color": [34, 221, 77]}}}, {"type": "Feature", "id": "6464d9b8-f329-4faa-a410-30e92f83e090", "geometry": {"type": "Polygon", "coordinates": [[[293, 411], [292, 412], [289, 412], [287, 414], [286, 414], [285, 415], [285, 416], [284, 417], [284, 422], [285, 423], [285, 426], [286, 427], [286, 428], [287, 429], [290, 429], [291, 428], [292, 428], [294, 426], [295, 426], [297, 424], [297, 423], [298, 422], [298, 416], [297, 415], [297, 414], [296, 413], [296, 412], [295, 411], [293, 411]]]}, "properties": {"objectType": "annotation", "classification": {"name": "Connective", "color": [35, 92, 236]}}}, {"type": "Feature", "id": "09a677fe-784b-4a27-9862-9b84d8eb1516", "geometry": {"type": "Polygon", "coordinates": [[[425, 427], [424, 428], [422, 428], [419, 431], [419, 440], [420, 441], [421, 441], [422, 442], [423, 442], [424, 443], [426, 443], [427, 442], [428, 442], [431, 439], [431, 438], [432, 437], [432, 436], [433, 435], [433, 432], [432, 431], [432, 430], [429, 427], [425, 427]]]}, "properties": {"objectType": "annotation", "classification": {"name": "Inflammatory", "color": [34, 221, 77]}}}, {"type": "Feature", "id": "61616c82-d5f7-4eae-9701-2265ab9d7585", "geometry": {"type": "Polygon", "coordinates": [[[369, 436], [365, 440], [365, 444], [366, 445], [366, 446], [370, 450], [371, 450], [373, 452], [380, 452], [381, 451], [382, 451], [384, 449], [384, 444], [378, 438], [377, 438], [375, 436], [369, 436]]]}, "properties": {"objectType": "annotation", "classification": {"name": "Inflammatory", "color": [34, 221, 77]}}}, {"type": "Feature", "id": "986e5358-44a6-49b6-b6e0-097d711882e1", "geometry": {"type": "Polygon", "coordinates": [[[135, 445], [134, 446], [132, 446], [123, 455], [123, 460], [130, 460], [131, 459], [135, 459], [136, 458], [137, 458], [141, 454], [141, 453], [142, 452], [142, 451], [141, 450], [141, 449], [140, 448], [140, 447], [139, 446], [138, 446], [137, 445], [135, 445]]]}, "properties": {"objectType": "annotation", "classification": {"name": "Connective", "color": [35, 92, 236]}}}, {"type": "Feature", "id": "0cf505df-7369-4a7d-8939-5ba981f89000", "geometry": {"type": "Polygon", "coordinates": [[[15, 452], [14, 453], [13, 453], [10, 456], [10, 459], [11, 460], [12, 460], [13, 461], [16, 461], [17, 460], [19, 460], [22, 457], [22, 454], [21, 453], [20, 453], [19, 452], [15, 452]]]}, "properties": {"objectType": "annotation", "classification": {"name": "Inflammatory", "color": [34, 221, 77]}}}, {"type": "Feature", "id": "6a4e37c6-8388-4269-ba44-f50990a3de21", "geometry": {"type": "Polygon", "coordinates": [[[438, 452], [435, 455], [435, 456], [434, 457], [434, 458], [433, 459], [433, 460], [432, 461], [432, 462], [431, 463], [431, 465], [432, 466], [432, 467], [433, 467], [435, 469], [439, 469], [440, 468], [441, 468], [443, 466], [443, 465], [444, 464], [444, 463], [445, 462], [446, 462], [448, 460], [449, 460], [450, 459], [452, 459], [452, 458], [451, 457], [450, 457], [446, 453], [444, 453], [443, 452], [438, 452]]]}, "properties": {"objectType": "annotation", "classification": {"name": "Connective", "color": [35, 92, 236]}}}, {"type": "Feature", "id": "f2cea2db-f0b5-4f8c-a195-46d20a5366ac", "geometry": {"type": "Polygon", "coordinates": [[[40, 478], [36, 482], [36, 483], [35, 484], [35, 485], [34, 486], [36, 488], [38, 488], [41, 491], [41, 493], [42, 494], [42, 495], [43, 495], [44, 496], [46, 496], [47, 495], [53, 495], [54, 496], [56, 496], [57, 497], [63, 497], [63, 496], [64, 495], [64, 492], [63, 491], [63, 490], [62, 489], [62, 488], [60, 486], [59, 486], [58, 485], [56, 485], [55, 484], [53, 484], [52, 483], [50, 483], [49, 482], [48, 482], [47, 481], [46, 481], [44, 479], [42, 479], [41, 478], [40, 478]]]}, "properties": {"objectType": "annotation", "classification": {"name": "Connective", "color": [35, 92, 236]}}}, {"type": "Feature", "id": "3eca83af-5af0-4305-b1d4-2a7e88a08905", "geometry": {"type": "Polygon", "coordinates": [[[106, 485], [104, 487], [104, 490], [106, 492], [106, 493], [108, 495], [108, 498], [109, 499], [109, 501], [111, 503], [111, 504], [114, 507], [114, 508], [117, 511], [132, 511], [128, 507], [127, 507], [125, 505], [125, 504], [124, 504], [121, 501], [120, 501], [118, 499], [118, 498], [117, 497], [118, 496], [118, 493], [117, 492], [117, 489], [116, 489], [115, 488], [114, 488], [111, 485], [106, 485]]]}, "properties": {"objectType": "annotation", "classification": {"name": "Connective", "color": [35, 92, 236]}}}, {"type": "Feature", "id": "cdf88491-4db7-45c4-9f64-c54570fbea2c", "geometry": {"type": "Polygon", "coordinates": [[[96, 490], [95, 491], [94, 491], [93, 492], [93, 493], [92, 494], [92, 502], [96, 506], [100, 506], [101, 507], [102, 507], [103, 506], [104, 506], [104, 502], [103, 501], [103, 497], [102, 496], [102, 495], [101, 494], [101, 493], [99, 491], [98, 491], [97, 490], [96, 490]]]}, "properties": {"objectType": "annotation", "classification": {"name": "Connective", "color": [35, 92, 236]}}}, {"type": "Feature", "id": "b73808d8-e980-4f5d-8ba0-65d92e194c5b", "geometry": {"type": "Polygon", "coordinates": [[[360, 494], [357, 497], [357, 498], [355, 500], [355, 501], [354, 502], [354, 504], [353, 505], [353, 507], [352, 508], [352, 509], [351, 510], [352, 511], [362, 511], [363, 510], [363, 504], [364, 503], [364, 496], [363, 495], [363, 494], [360, 494]]]}, "properties": {"objectType": "annotation", "classification": {"name": "Connective", "color": [35, 92, 236]}}}, {"type": "Feature", "id": "9bfb70db-54c5-4635-8f75-502425ebef09", "geometry": {"type": "Polygon", "coordinates": [[[319, 497], [318, 498], [312, 498], [311, 499], [307, 499], [306, 500], [301, 500], [300, 501], [299, 501], [298, 502], [298, 504], [299, 505], [299, 506], [300, 507], [300, 508], [301, 509], [301, 510], [302, 511], [315, 511], [318, 508], [320, 508], [321, 507], [324, 507], [325, 506], [326, 506], [327, 505], [327, 503], [326, 503], [323, 500], [323, 498], [322, 497], [319, 497]]]}, "properties": {"objectType": "annotation", "classification": {"name": "Connective", "color": [35, 92, 236]}}}, {"type": "Feature", "id": "12427c24-28b9-4876-938b-40c0d0b6313a", "geometry": {"type": "Polygon", "coordinates": [[[341, 500], [340, 501], [339, 501], [335, 505], [335, 506], [334, 507], [334, 508], [333, 509], [334, 510], [333, 511], [349, 511], [349, 505], [348, 504], [348, 503], [346, 501], [345, 501], [344, 500], [341, 500]]]}, "properties": {"objectType": "annotation", "classification": {"name": "Connective", "color": [35, 92, 236]}}}, {"type": "Feature", "id": "38983fc4-481d-44b3-8014-d77f97542473", "geometry": {"type": "Polygon", "coordinates": [[[419, 500], [415, 504], [415, 505], [414, 506], [414, 508], [413, 509], [413, 510], [412, 511], [430, 511], [429, 510], [429, 508], [428, 507], [428, 506], [425, 503], [425, 502], [424, 502], [422, 500], [419, 500]]]}, "properties": {"objectType": "annotation", "classification": {"name": "Inflammatory", "color": [34, 221, 77]}}}, {"type": "Feature", "id": "0ef16ca1-1042-4651-b067-6cdeed3b247c", "geometry": {"type": "Polygon", "coordinates": [[[195, 508], [195, 511], [203, 511], [202, 510], [202, 509], [200, 511], [198, 509], [197, 509], [196, 508], [195, 508]]]}, "properties": {"objectType": "annotation", "classification": {"name": "Connective", "color": [35, 92, 236]}}}]