[{"type": "Feature", "id": "1e5529e5-d147-4a7e-92df-76c7e1c7d4e1", "geometry": {"type": "Polygon", "coordinates": [[[136, 0], [135, 1], [135, 2], [134, 3], [134, 4], [133, 5], [133, 9], [134, 10], [134, 13], [135, 14], [135, 15], [138, 18], [143, 18], [144, 17], [145, 17], [147, 15], [147, 14], [149, 12], [149, 11], [150, 10], [150, 6], [151, 5], [151, 1], [150, 0], [136, 0]]]}, "properties": {"objectType": "annotation", "classification": {"name": "Connective", "color": [35, 92, 236]}}}, {"type": "Feature", "id": "679cae3a-4c2e-4dde-857b-03d8f520f3b2", "geometry": {"type": "Polygon", "coordinates": [[[422, 0], [419, 3], [419, 4], [418, 5], [418, 11], [420, 13], [424, 13], [425, 14], [431, 14], [432, 15], [434, 15], [437, 18], [439, 18], [440, 19], [447, 19], [448, 18], [451, 18], [453, 16], [454, 16], [458, 12], [458, 11], [459, 10], [459, 8], [458, 7], [458, 6], [457, 5], [455, 5], [454, 4], [451, 4], [450, 3], [448, 3], [447, 2], [446, 2], [444, 0], [422, 0]]]}, "properties": {"objectType": "annotation", "classification": {"name": "Neoplastic", "color": [255, 0, 0]}}}, {"type": "Feature", "id": "2386ee4b-f81f-44c3-a575-f208b84b23f4", "geometry": {"type": "Polygon", "coordinates": [[[164, 4], [163, 5], [158, 5], [157, 6], [156, 6], [154, 8], [154, 9], [153, 10], [153, 13], [154, 14], [155, 14], [157, 16], [158, 16], [159, 17], [171, 17], [174, 14], [174, 13], [175, 12], [175, 8], [176, 7], [176, 6], [175, 5], [169, 5], [168, 4], [167, 4], [166, 5], [165, 4], [164, 4]]]}, "properties": {"objectType": "annotation", "classification": {"name": "Connective", "color": [35, 92, 236]}}}, {"type": "Feature", "id": "a57b88a8-e470-4f3e-81d4-3ac4ed184c5a", "geometry": {"type": "Polygon", "coordinates": [[[110, 10], [109, 11], [107, 11], [106, 12], [106, 13], [105, 14], [105, 18], [108, 21], [109, 21], [110, 22], [111, 22], [113, 20], [113, 19], [114, 18], [114, 16], [115, 15], [115, 13], [114, 12], [114, 11], [113, 11], [112, 10], [110, 10]]]}, "properties": {"objectType": "annotation", "classification": {"name": "Inflammatory", "color": [34, 221, 77]}}}, {"type": "Feature", "id": "bacd88c3-2cbd-4ff0-bd3c-b2351ecc2aec", "geometry": {"type": "Polygon", "coordinates": [[[327, 13], [326, 14], [324, 14], [323, 15], [322, 15], [321, 16], [320, 16], [314, 22], [313, 22], [311, 24], [311, 26], [312, 27], [312, 28], [315, 31], [316, 31], [317, 32], [326, 32], [327, 31], [330, 31], [331, 30], [332, 30], [336, 26], [336, 25], [337, 24], [337, 18], [334, 15], [333, 15], [332, 14], [331, 14], [330, 13], [327, 13]]]}, "properties": {"objectType": "annotation", "classification": {"name": "Connective", "color": [35, 92, 236]}}}, {"type": "Feature", "id": "4c00a103-f979-49e5-a10b-53ccefdfec10", "geometry": {"type": "Polygon", "coordinates": [[[258, 17], [256, 19], [256, 20], [255, 21], [255, 23], [258, 26], [265, 26], [267, 24], [267, 21], [266, 20], [266, 19], [265, 18], [264, 18], [263, 17], [258, 17]]]}, "properties": {"objectType": "annotation", "classification": {"name": "Inflammatory", "color": [34, 221, 77]}}}, {"type": "Feature", "id": "5620b356-0389-478b-bc8d-70eb8b7be7ab", "geometry": {"type": "Polygon", "coordinates": [[[124, 20], [122, 22], [121, 22], [120, 23], [119, 23], [116, 26], [116, 27], [113, 30], [113, 31], [112, 32], [112, 37], [113, 38], [113, 39], [117, 43], [121, 43], [122, 42], [123, 42], [124, 41], [125, 41], [128, 38], [129, 38], [131, 36], [131, 35], [132, 34], [132, 33], [133, 32], [133, 31], [134, 30], [134, 29], [135, 28], [135, 23], [132, 20], [124, 20]]]}, "properties": {"objectType": "annotation", "classification": {"name": "Inflammatory", "color": [34, 221, 77]}}}, {"type": "Feature", "id": "bbe0895e-bf35-4875-8ae3-8009ae715300", "geometry": {"type": "Polygon", "coordinates": [[[444, 26], [443, 27], [441, 27], [440, 28], [439, 28], [434, 33], [434, 34], [433, 35], [433, 37], [434, 38], [435, 38], [438, 41], [439, 41], [440, 42], [443, 42], [444, 41], [446, 41], [447, 40], [448, 40], [453, 35], [453, 34], [454, 33], [454, 32], [453, 31], [454, 30], [454, 29], [452, 27], [449, 27], [448, 26], [444, 26]]]}, "properties": {"objectType": "annotation", "classification": {"name": "Neoplastic", "color": [255, 0, 0]}}}, {"type": "Feature", "id": "ebe8f352-797c-47fa-92a1-f103d41d18fc", "geometry": {"type": "Polygon", "coordinates": [[[183, 29], [182, 30], [180, 30], [178, 32], [178, 37], [179, 38], [179, 39], [180, 40], [180, 41], [183, 44], [184, 44], [185, 45], [186, 45], [187, 46], [188, 46], [189, 47], [192, 47], [193, 46], [194, 46], [194, 45], [195, 44], [195, 41], [194, 40], [194, 39], [193, 38], [193, 36], [191, 34], [191, 33], [188, 30], [186, 30], [185, 29], [183, 29]]]}, "properties": {"objectType": "annotation", "classification": {"name": "Inflammatory", "color": [34, 221, 77]}}}, {"type": "Feature", "id": "9b4b0b96-9671-4539-9fd7-cef0ef8e8323", "geometry": {"type": "Polygon", "coordinates": [[[412, 41], [411, 42], [408, 42], [405, 45], [405, 58], [404, 59], [404, 60], [403, 61], [403, 62], [402, 63], [402, 64], [401, 65], [401, 67], [405, 67], [406, 68], [407, 68], [408, 69], [410, 69], [411, 70], [412, 70], [413, 71], [415, 71], [416, 72], [421, 72], [421, 71], [422, 70], [422, 69], [424, 67], [424, 66], [425, 65], [425, 64], [433, 56], [433, 55], [434, 54], [434, 53], [435, 52], [435, 48], [433, 46], [431, 46], [430, 45], [428, 45], [427, 44], [424, 44], [423, 43], [419, 43], [418, 42], [413, 42], [412, 41]]]}, "properties": {"objectType": "annotation", "classification": {"name": "Neoplastic", "color": [255, 0, 0]}}}, {"type": "Feature", "id": "8ebdba96-ff68-4d86-8263-9bf216115543", "geometry": {"type": "Polygon", "coordinates": [[[105, 44], [103, 46], [103, 48], [102, 49], [102, 50], [101, 51], [101, 56], [102, 57], [105, 57], [107, 55], [108, 55], [111, 52], [111, 49], [110, 48], [110, 46], [109, 45], [109, 44], [105, 44]]]}, "properties": {"objectType": "annotation", "classification": {"name": "Connective", "color": [35, 92, 236]}}}, {"type": "Feature", "id": "4028d0f4-2bdd-4022-9403-e96528b9a75b", "geometry": {"type": "Polygon", "coordinates": [[[363, 54], [362, 55], [360, 55], [359, 56], [358, 56], [357, 57], [356, 57], [347, 66], [347, 67], [346, 68], [346, 69], [345, 70], [345, 72], [344, 73], [344, 77], [346, 79], [350, 79], [351, 78], [352, 78], [353, 77], [354, 77], [358, 73], [358, 72], [359, 71], [359, 70], [362, 67], [366, 67], [367, 66], [369, 66], [370, 65], [371, 65], [372, 64], [372, 63], [373, 62], [373, 60], [372, 59], [372, 58], [370, 56], [369, 56], [368, 55], [365, 55], [364, 54], [363, 54]]]}, "properties": {"objectType": "annotation", "classification": {"name": "Connective", "color": [35, 92, 236]}}}, {"type": "Feature", "id": "f65eccdb-f09b-4868-873c-c3bd155e068a", "geometry": {"type": "Polygon", "coordinates": [[[448, 59], [447, 60], [445, 60], [444, 61], [443, 61], [441, 63], [440, 63], [439, 64], [438, 64], [437, 65], [436, 65], [431, 70], [431, 71], [430, 72], [430, 78], [431, 79], [431, 80], [432, 80], [433, 81], [434, 80], [435, 80], [435, 79], [440, 74], [441, 74], [443, 72], [444, 72], [446, 70], [447, 70], [448, 69], [449, 69], [453, 65], [453, 61], [452, 60], [449, 60], [448, 59]]]}, "properties": {"objectType": "annotation", "classification": {"name": "Neoplastic", "color": [255, 0, 0]}}}, {"type": "Feature", "id": "56851825-ef1b-465d-9384-46d0c7303357", "geometry": {"type": "Polygon", "coordinates": [[[255, 62], [254, 63], [253, 63], [252, 64], [251, 64], [250, 65], [250, 69], [251, 70], [252, 70], [253, 71], [256, 71], [257, 72], [262, 72], [263, 71], [264, 71], [265, 70], [265, 65], [264, 64], [264, 63], [262, 63], [261, 62], [255, 62]]]}, "properties": {"objectType": "annotation", "classification": {"name": "Inflammatory", "color": [34, 221, 77]}}}, {"type": "Feature", "id": "36c08a86-814d-47d9-9124-ffa6f43dbc11", "geometry": {"type": "Polygon", "coordinates": [[[274, 62], [273, 63], [273, 64], [272, 65], [272, 66], [271, 67], [271, 71], [272, 72], [272, 73], [276, 77], [276, 78], [278, 80], [279, 80], [280, 81], [281, 81], [282, 82], [283, 82], [284, 81], [286, 81], [287, 80], [288, 80], [289, 79], [289, 78], [290, 77], [290, 68], [289, 67], [289, 66], [286, 63], [285, 63], [284, 62], [274, 62]]]}, "properties": {"objectType": "annotation", "classification": {"name": "Inflammatory", "color": [34, 221, 77]}}}, {"type": "Feature", "id": "896b6121-1e4a-47cf-b165-53e7c6a1283c", "geometry": {"type": "Polygon", "coordinates": [[[400, 68], [400, 69], [399, 70], [399, 71], [397, 73], [397, 74], [396, 75], [396, 77], [395, 78], [395, 80], [396, 81], [396, 82], [397, 83], [398, 83], [399, 84], [403, 84], [404, 85], [408, 85], [409, 84], [411, 84], [415, 80], [415, 79], [420, 74], [420, 73], [416, 73], [415, 72], [413, 72], [412, 71], [411, 71], [410, 70], [408, 70], [407, 69], [406, 69], [405, 68], [400, 68]]]}, "properties": {"objectType": "annotation", "classification": {"name": "Neoplastic", "color": [255, 0, 0]}}}, {"type": "Feature", "id": "c229cf67-90c8-490e-9a2d-b5dac935f69e", "geometry": {"type": "Polygon", "coordinates": [[[171, 69], [170, 70], [167, 70], [166, 71], [164, 71], [163, 72], [162, 72], [160, 74], [160, 75], [159, 76], [159, 79], [161, 81], [161, 82], [162, 83], [163, 83], [165, 85], [169, 85], [170, 84], [174, 84], [175, 83], [177, 83], [179, 81], [180, 81], [181, 80], [181, 79], [182, 78], [182, 73], [181, 72], [181, 71], [179, 69], [171, 69]]]}, "properties": {"objectType": "annotation", "classification": {"name": "Inflammatory", "color": [34, 221, 77]}}}, {"type": "Feature", "id": "259b3754-a15b-4bc7-a631-c034c562f6e2", "geometry": {"type": "Polygon", "coordinates": [[[84, 73], [83, 74], [81, 74], [80, 75], [79, 75], [78, 76], [78, 77], [75, 80], [75, 81], [74, 82], [74, 83], [73, 84], [73, 86], [72, 87], [72, 93], [73, 94], [79, 94], [80, 93], [81, 93], [82, 92], [83, 92], [84, 91], [85, 91], [87, 89], [87, 88], [90, 85], [90, 77], [89, 76], [89, 75], [87, 73], [84, 73]]]}, "properties": {"objectType": "annotation", "classification": {"name": "Inflammatory", "color": [34, 221, 77]}}}, {"type": "Feature", "id": "80563be6-6b94-4725-9844-1e39898b42de", "geometry": {"type": "Polygon", "coordinates": [[[22, 76], [21, 77], [20, 77], [18, 79], [18, 80], [17, 81], [17, 84], [20, 87], [21, 87], [22, 88], [26, 88], [27, 87], [29, 87], [30, 86], [31, 86], [32, 85], [33, 85], [33, 84], [34, 83], [34, 82], [35, 81], [34, 80], [34, 78], [32, 76], [22, 76]]]}, "properties": {"objectType": "annotation", "classification": {"name": "Inflammatory", "color": [34, 221, 77]}}}, {"type": "Feature", "id": "cbe23fed-70ca-4646-b949-362d04dfcb16", "geometry": {"type": "Polygon", "coordinates": [[[263, 76], [262, 77], [261, 77], [260, 78], [259, 78], [258, 79], [258, 80], [257, 81], [257, 85], [258, 86], [258, 88], [259, 89], [259, 91], [260, 92], [260, 94], [261, 95], [261, 96], [263, 98], [264, 98], [265, 99], [267, 99], [268, 100], [275, 100], [276, 99], [277, 99], [277, 98], [278, 97], [278, 96], [279, 95], [279, 88], [278, 87], [278, 86], [276, 84], [276, 83], [274, 81], [274, 80], [272, 78], [271, 78], [270, 77], [269, 77], [268, 76], [263, 76]]]}, "properties": {"objectType": "annotation", "classification": {"name": "Inflammatory", "color": [34, 221, 77]}}}, {"type": "Feature", "id": "189996ea-68e6-4e55-a0ae-bbae63e06744", "geometry": {"type": "Polygon", "coordinates": [[[217, 83], [215, 85], [214, 85], [213, 86], [213, 87], [212, 88], [212, 99], [214, 101], [215, 101], [216, 102], [220, 102], [221, 101], [227, 101], [228, 100], [229, 100], [232, 97], [232, 95], [233, 94], [233, 92], [232, 91], [232, 90], [231, 89], [231, 88], [226, 83], [217, 83]]]}, "properties": {"objectType": "annotation", "classification": {"name": "Inflammatory", "color": [34, 221, 77]}}}, {"type": "Feature", "id": "dff364ab-ff0c-4c50-b47c-ac63844c0fa7", "geometry": {"type": "Polygon", "coordinates": [[[41, 86], [36, 91], [36, 92], [34, 94], [34, 95], [33, 96], [33, 101], [36, 104], [39, 104], [42, 101], [42, 97], [43, 96], [43, 94], [44, 93], [44, 86], [41, 86]]]}, "properties": {"objectType": "annotation", "classification": {"name": "Inflammatory", "color": [34, 221, 77]}}}, {"type": "Feature", "id": "08764b0e-8ec1-4f35-b0df-ac1b0105bb06", "geometry": {"type": "Polygon", "coordinates": [[[390, 89], [389, 90], [388, 90], [388, 91], [387, 92], [387, 93], [386, 94], [386, 96], [385, 97], [385, 98], [383, 100], [383, 101], [382, 102], [382, 103], [381, 104], [381, 105], [380, 106], [380, 113], [381, 114], [381, 115], [382, 116], [382, 117], [383, 118], [383, 119], [384, 120], [393, 120], [394, 119], [396, 119], [401, 114], [401, 113], [402, 112], [402, 111], [403, 110], [403, 106], [402, 105], [402, 103], [401, 102], [401, 101], [400, 100], [400, 99], [399, 98], [399, 97], [397, 95], [397, 94], [396, 93], [396, 92], [395, 91], [394, 91], [393, 90], [392, 90], [391, 89], [390, 89]]]}, "properties": {"objectType": "annotation", "classification": {"name": "Neoplastic", "color": [255, 0, 0]}}}, {"type": "Feature", "id": "9f83ca27-87d4-49f0-8270-666a4032a009", "geometry": {"type": "Polygon", "coordinates": [[[460, 95], [459, 96], [458, 96], [457, 97], [456, 97], [455, 98], [454, 98], [453, 99], [452, 99], [450, 101], [450, 102], [448, 104], [448, 113], [449, 114], [450, 114], [451, 115], [452, 115], [453, 114], [455, 114], [457, 112], [457, 111], [458, 110], [458, 109], [459, 108], [459, 107], [464, 102], [464, 97], [462, 95], [460, 95]]]}, "properties": {"objectType": "annotation", "classification": {"name": "Connective", "color": [35, 92, 236]}}}, {"type": "Feature", "id": "001a227d-67c2-4eef-9fef-9ca5e2ba27be", "geometry": {"type": "Polygon", "coordinates": [[[74, 98], [73, 99], [72, 99], [71, 100], [71, 101], [70, 102], [70, 103], [69, 104], [69, 108], [71, 110], [78, 110], [79, 109], [80, 109], [81, 108], [82, 108], [87, 103], [87, 100], [86, 99], [84, 99], [83, 98], [74, 98]]]}, "properties": {"objectType": "annotation", "classification": {"name": "Inflammatory", "color": [34, 221, 77]}}}, {"type": "Feature", "id": "59c562b8-9bc4-44df-abc2-9200f908f81b", "geometry": {"type": "Polygon", "coordinates": [[[112, 100], [111, 101], [110, 101], [109, 102], [108, 102], [107, 103], [107, 107], [108, 108], [108, 109], [112, 113], [112, 114], [118, 120], [119, 120], [120, 121], [121, 121], [122, 122], [129, 122], [130, 121], [130, 120], [131, 119], [131, 113], [130, 112], [130, 110], [129, 109], [129, 107], [128, 106], [128, 105], [126, 103], [125, 103], [124, 102], [123, 102], [122, 101], [121, 101], [120, 100], [112, 100]]]}, "properties": {"objectType": "annotation", "classification": {"name": "Inflammatory", "color": [34, 221, 77]}}}, {"type": "Feature", "id": "92d98038-06f9-4328-a141-440c2275d727", "geometry": {"type": "Polygon", "coordinates": [[[409, 112], [408, 113], [407, 113], [398, 122], [397, 122], [396, 123], [392, 123], [391, 124], [389, 124], [388, 125], [387, 125], [386, 126], [386, 127], [385, 128], [385, 129], [384, 130], [384, 131], [383, 132], [383, 134], [382, 135], [382, 142], [383, 143], [383, 144], [385, 146], [393, 146], [394, 145], [398, 145], [399, 144], [401, 144], [402, 143], [403, 143], [404, 142], [405, 142], [406, 141], [407, 141], [408, 140], [409, 140], [420, 129], [420, 128], [423, 125], [423, 124], [424, 123], [424, 122], [425, 121], [425, 118], [424, 117], [424, 116], [421, 113], [419, 113], [418, 112], [409, 112]]]}, "properties": {"objectType": "annotation", "classification": {"name": "Neoplastic", "color": [255, 0, 0]}}}, {"type": "Feature", "id": "cd86ec20-e7ae-44db-b942-cceb165d5acd", "geometry": {"type": "Polygon", "coordinates": [[[305, 116], [304, 117], [303, 117], [302, 118], [299, 118], [298, 119], [290, 119], [289, 120], [288, 120], [287, 121], [286, 121], [283, 124], [283, 125], [282, 126], [282, 127], [281, 128], [281, 129], [282, 130], [282, 132], [284, 134], [286, 134], [287, 135], [298, 135], [299, 134], [302, 134], [307, 129], [307, 128], [308, 127], [308, 124], [309, 123], [309, 121], [310, 120], [310, 118], [308, 116], [305, 116]]]}, "properties": {"objectType": "annotation", "classification": {"name": "Connective", "color": [35, 92, 236]}}}, {"type": "Feature", "id": "7b208af3-3821-43b4-933d-4ce2989d9800", "geometry": {"type": "Polygon", "coordinates": [[[30, 125], [29, 126], [28, 126], [27, 127], [27, 132], [26, 133], [26, 134], [27, 135], [27, 137], [30, 140], [34, 140], [35, 139], [36, 139], [37, 138], [38, 138], [39, 137], [39, 131], [38, 130], [38, 129], [35, 126], [33, 126], [32, 125], [30, 125]]]}, "properties": {"objectType": "annotation", "classification": {"name": "Inflammatory", "color": [34, 221, 77]}}}, {"type": "Feature", "id": "46bdc235-cab8-4531-80b5-a337b5337c23", "geometry": {"type": "Polygon", "coordinates": [[[428, 133], [427, 134], [426, 134], [425, 135], [424, 135], [423, 136], [422, 136], [416, 142], [416, 143], [415, 144], [415, 145], [413, 147], [413, 152], [412, 153], [412, 155], [413, 156], [413, 160], [414, 161], [414, 162], [415, 163], [415, 164], [416, 165], [416, 166], [419, 169], [419, 170], [422, 173], [423, 173], [424, 174], [425, 174], [426, 175], [433, 175], [436, 172], [436, 154], [437, 153], [437, 150], [438, 149], [438, 145], [439, 144], [439, 142], [438, 141], [438, 137], [437, 136], [437, 135], [436, 134], [435, 134], [434, 133], [428, 133]]]}, "properties": {"objectType": "annotation", "classification": {"name": "Neoplastic", "color": [255, 0, 0]}}}, {"type": "Feature", "id": "8491e29d-9ee7-43e2-a2ed-76b02b55cc2c", "geometry": {"type": "Polygon", "coordinates": [[[190, 144], [187, 147], [187, 148], [186, 149], [186, 151], [188, 153], [188, 154], [189, 154], [190, 155], [192, 155], [193, 156], [197, 156], [198, 155], [200, 155], [203, 152], [203, 151], [202, 150], [202, 149], [197, 144], [190, 144]]]}, "properties": {"objectType": "annotation", "classification": {"name": "Inflammatory", "color": [34, 221, 77]}}}, {"type": "Feature", "id": "6837f130-d04e-4f1d-9ee0-3181cbad44e4", "geometry": {"type": "Polygon", "coordinates": [[[514, 143], [513, 144], [510, 144], [504, 150], [504, 151], [502, 153], [502, 154], [501, 155], [501, 156], [499, 158], [499, 159], [498, 160], [498, 161], [497, 162], [497, 165], [498, 165], [499, 166], [499, 168], [501, 170], [502, 170], [503, 171], [509, 171], [510, 170], [512, 170], [513, 169], [514, 169], [515, 168], [516, 168], [517, 167], [519, 167], [521, 165], [520, 164], [520, 160], [521, 159], [521, 153], [522, 152], [522, 149], [521, 148], [521, 146], [518, 143], [514, 143]]]}, "properties": {"objectType": "annotation", "classification": {"name": "Neoplastic", "color": [255, 0, 0]}}}, {"type": "Feature", "id": "bf86d3d6-51ab-4da3-a297-4a46eb580f91", "geometry": {"type": "Polygon", "coordinates": [[[90, 146], [89, 147], [88, 147], [86, 149], [85, 149], [82, 152], [81, 152], [77, 156], [76, 156], [73, 159], [73, 160], [71, 162], [71, 163], [69, 165], [69, 168], [68, 169], [68, 174], [69, 175], [69, 179], [70, 180], [70, 185], [71, 186], [71, 187], [72, 188], [73, 188], [75, 190], [78, 190], [80, 188], [80, 187], [81, 186], [81, 184], [82, 183], [82, 182], [83, 181], [83, 180], [87, 176], [87, 175], [89, 173], [89, 172], [90, 171], [90, 170], [91, 169], [91, 168], [92, 167], [92, 166], [97, 161], [97, 160], [99, 158], [99, 157], [100, 156], [100, 149], [97, 146], [90, 146]]]}, "properties": {"objectType": "annotation", "classification": {"name": "Connective", "color": [35, 92, 236]}}}, {"type": "Feature", "id": "18fa338e-037a-493a-86fe-191e9e4a7804", "geometry": {"type": "Polygon", "coordinates": [[[466, 146], [465, 147], [463, 147], [462, 148], [461, 148], [460, 149], [459, 149], [458, 150], [456, 150], [455, 151], [454, 151], [451, 154], [450, 154], [446, 158], [446, 163], [445, 164], [445, 172], [446, 173], [446, 182], [447, 183], [447, 186], [448, 187], [448, 189], [449, 190], [449, 191], [451, 193], [452, 193], [453, 194], [455, 194], [456, 193], [457, 193], [459, 191], [459, 190], [460, 189], [460, 182], [461, 181], [461, 178], [462, 177], [462, 173], [465, 170], [465, 169], [466, 168], [466, 167], [467, 166], [467, 165], [468, 164], [468, 163], [469, 162], [469, 161], [470, 160], [470, 159], [471, 158], [471, 156], [472, 155], [472, 153], [473, 152], [473, 151], [472, 150], [472, 148], [470, 146], [466, 146]]]}, "properties": {"objectType": "annotation", "classification": {"name": "Neoplastic", "color": [255, 0, 0]}}}, {"type": "Feature", "id": "a3f47399-ba12-4c92-8bdc-bca05fa009dd", "geometry": {"type": "Polygon", "coordinates": [[[105, 160], [100, 165], [100, 166], [98, 168], [98, 169], [97, 170], [97, 171], [95, 173], [95, 174], [94, 175], [94, 176], [93, 177], [93, 178], [90, 181], [90, 182], [87, 185], [87, 192], [88, 193], [88, 194], [89, 195], [90, 195], [91, 196], [95, 196], [96, 195], [97, 195], [98, 194], [99, 194], [100, 193], [102, 193], [103, 192], [104, 192], [105, 191], [106, 191], [107, 190], [107, 189], [108, 188], [108, 185], [107, 184], [107, 182], [106, 181], [106, 177], [107, 176], [107, 175], [108, 174], [108, 170], [109, 169], [109, 161], [108, 160], [105, 160]]]}, "properties": {"objectType": "annotation", "classification": {"name": "Connective", "color": [35, 92, 236]}}}, {"type": "Feature", "id": "14657627-7962-499d-99c2-4c5ec6d604e6", "geometry": {"type": "Polygon", "coordinates": [[[497, 166], [497, 169], [496, 170], [496, 171], [497, 172], [497, 174], [498, 175], [498, 176], [499, 177], [499, 178], [502, 181], [513, 181], [514, 180], [517, 180], [522, 175], [522, 174], [523, 173], [523, 172], [524, 171], [524, 169], [523, 168], [523, 167], [522, 166], [521, 166], [519, 168], [517, 168], [516, 169], [515, 169], [514, 170], [513, 170], [512, 171], [510, 171], [509, 172], [503, 172], [502, 171], [501, 171], [498, 168], [498, 166], [497, 166]]]}, "properties": {"objectType": "annotation", "classification": {"name": "Neoplastic", "color": [255, 0, 0]}}}, {"type": "Feature", "id": "62847925-1616-475a-994c-86e6d2dc903c", "geometry": {"type": "Polygon", "coordinates": [[[309, 173], [308, 174], [310, 176], [310, 177], [311, 178], [311, 179], [312, 180], [312, 181], [316, 185], [320, 185], [322, 183], [322, 178], [319, 175], [318, 175], [317, 174], [316, 174], [315, 173], [309, 173]]]}, "properties": {"objectType": "annotation", "classification": {"name": "Connective", "color": [35, 92, 236]}}}, {"type": "Feature", "id": "efa15083-40ae-4a36-9741-e5088e0f64b9", "geometry": {"type": "Polygon", "coordinates": [[[0, 166], [0, 181], [1, 182], [2, 182], [3, 183], [4, 183], [9, 188], [10, 188], [12, 190], [13, 190], [17, 194], [18, 194], [19, 195], [21, 195], [22, 194], [22, 193], [23, 192], [22, 191], [22, 189], [21, 188], [21, 187], [18, 184], [17, 184], [16, 183], [15, 183], [14, 182], [13, 182], [12, 181], [10, 181], [3, 174], [3, 172], [2, 171], [2, 170], [1, 169], [1, 168], [0, 167], [0, 166]]]}, "properties": {"objectType": "annotation", "classification": {"name": "Connective", "color": [35, 92, 236]}}}, {"type": "Feature", "id": "468b004e-4b83-42e7-9820-7799df2b2670", "geometry": {"type": "Polygon", "coordinates": [[[136, 177], [135, 178], [134, 178], [133, 179], [132, 179], [131, 180], [130, 180], [129, 181], [128, 181], [124, 185], [124, 188], [125, 189], [125, 190], [126, 191], [127, 191], [128, 192], [129, 192], [130, 193], [131, 193], [132, 194], [141, 194], [142, 193], [143, 193], [144, 192], [146, 192], [147, 191], [148, 191], [152, 187], [152, 182], [149, 179], [148, 179], [147, 178], [146, 178], [145, 177], [136, 177]]]}, "properties": {"objectType": "annotation", "classification": {"name": "Connective", "color": [35, 92, 236]}}}, {"type": "Feature", "id": "da94a593-5b77-43bf-8284-1b9570b45c4d", "geometry": {"type": "Polygon", "coordinates": [[[185, 185], [184, 186], [181, 186], [180, 187], [179, 187], [179, 188], [178, 189], [178, 191], [179, 192], [179, 193], [180, 194], [180, 195], [181, 195], [182, 196], [184, 196], [185, 197], [188, 197], [189, 198], [192, 198], [193, 197], [194, 197], [197, 194], [197, 188], [196, 187], [195, 187], [194, 186], [192, 186], [191, 185], [185, 185]]]}, "properties": {"objectType": "annotation", "classification": {"name": "Inflammatory", "color": [34, 221, 77]}}}, {"type": "Feature", "id": "111640d7-8248-44fe-878b-d02b835c7ab0", "geometry": {"type": "Polygon", "coordinates": [[[323, 185], [321, 187], [320, 187], [319, 188], [319, 192], [321, 194], [321, 195], [325, 199], [327, 199], [328, 200], [330, 200], [331, 199], [332, 199], [332, 198], [333, 197], [333, 196], [332, 195], [332, 192], [331, 191], [331, 190], [330, 189], [330, 188], [327, 185], [323, 185]]]}, "properties": {"objectType": "annotation", "classification": {"name": "Connective", "color": [35, 92, 236]}}}, {"type": "Feature", "id": "671d24d8-b0a8-4dd3-8576-86153404d3aa", "geometry": {"type": "Polygon", "coordinates": [[[508, 186], [507, 187], [500, 187], [499, 188], [498, 188], [498, 189], [497, 190], [497, 195], [498, 196], [498, 197], [499, 198], [500, 198], [501, 199], [502, 199], [503, 200], [505, 200], [506, 201], [509, 201], [510, 202], [511, 202], [512, 201], [514, 201], [515, 200], [515, 199], [517, 197], [517, 196], [518, 195], [518, 188], [516, 186], [508, 186]]]}, "properties": {"objectType": "annotation", "classification": {"name": "Neoplastic", "color": [255, 0, 0]}}}, {"type": "Feature", "id": "817afa36-d507-4cd2-9b9c-cf14192f1000", "geometry": {"type": "Polygon", "coordinates": [[[251, 185], [249, 187], [248, 187], [245, 190], [245, 191], [244, 192], [244, 193], [243, 194], [243, 198], [244, 199], [244, 201], [245, 202], [246, 202], [247, 203], [248, 203], [253, 198], [253, 197], [254, 196], [254, 188], [253, 187], [253, 186], [252, 185], [251, 185]]]}, "properties": {"objectType": "annotation", "classification": {"name": "Inflammatory", "color": [34, 221, 77]}}}, {"type": "Feature", "id": "4b721a05-d78d-4913-8bcd-e91bf03fcd0a", "geometry": {"type": "Polygon", "coordinates": [[[285, 189], [284, 190], [280, 190], [279, 191], [278, 191], [275, 194], [275, 196], [274, 197], [274, 206], [273, 207], [273, 209], [272, 210], [272, 211], [273, 212], [274, 212], [277, 209], [278, 209], [279, 208], [280, 208], [281, 207], [282, 207], [282, 206], [286, 202], [286, 201], [287, 200], [287, 199], [288, 198], [288, 195], [289, 194], [289, 190], [288, 190], [287, 189], [285, 189]]]}, "properties": {"objectType": "annotation", "classification": {"name": "Connective", "color": [35, 92, 236]}}}, {"type": "Feature", "id": "d7c6758e-8cc6-4e27-a5d9-a60d98c5ed76", "geometry": {"type": "Polygon", "coordinates": [[[164, 198], [163, 199], [161, 199], [160, 200], [159, 200], [157, 202], [157, 207], [159, 209], [160, 209], [161, 210], [162, 210], [163, 211], [166, 211], [167, 212], [172, 212], [175, 209], [175, 206], [176, 205], [175, 204], [175, 203], [172, 200], [171, 200], [170, 199], [168, 199], [167, 198], [164, 198]]]}, "properties": {"objectType": "annotation", "classification": {"name": "Inflammatory", "color": [34, 221, 77]}}}, {"type": "Feature", "id": "37bd0b71-2769-43d0-b4ac-14a105f30405", "geometry": {"type": "Polygon", "coordinates": [[[295, 198], [288, 205], [288, 206], [286, 208], [286, 209], [284, 211], [284, 212], [283, 213], [283, 214], [282, 215], [282, 216], [281, 217], [281, 232], [280, 233], [280, 236], [281, 236], [282, 235], [284, 235], [285, 234], [286, 234], [287, 233], [289, 233], [290, 232], [291, 232], [292, 231], [293, 231], [295, 229], [296, 229], [299, 226], [300, 226], [303, 223], [303, 222], [304, 221], [304, 220], [305, 219], [305, 218], [306, 217], [306, 211], [305, 210], [305, 208], [304, 207], [304, 206], [303, 205], [303, 204], [302, 203], [302, 202], [301, 201], [301, 200], [299, 198], [295, 198]]]}, "properties": {"objectType": "annotation", "classification": {"name": "Connective", "color": [35, 92, 236]}}}, {"type": "Feature", "id": "39566835-5c38-4b00-8532-7cf92b250b14", "geometry": {"type": "Polygon", "coordinates": [[[85, 204], [84, 205], [80, 205], [78, 207], [78, 211], [80, 213], [80, 214], [81, 214], [82, 215], [86, 215], [87, 214], [90, 214], [91, 213], [93, 213], [96, 210], [96, 208], [93, 205], [91, 205], [90, 204], [85, 204]]]}, "properties": {"objectType": "annotation", "classification": {"name": "Inflammatory", "color": [34, 221, 77]}}}, {"type": "Feature", "id": "693c75af-03e3-419b-afcc-035332f45f9f", "geometry": {"type": "Polygon", "coordinates": [[[191, 203], [190, 204], [189, 204], [186, 207], [186, 211], [187, 212], [187, 213], [188, 214], [188, 215], [192, 219], [194, 219], [196, 217], [196, 216], [197, 215], [197, 212], [198, 211], [198, 208], [197, 207], [197, 206], [194, 203], [191, 203]]]}, "properties": {"objectType": "annotation", "classification": {"name": "Connective", "color": [35, 92, 236]}}}, {"type": "Feature", "id": "b2e0de9f-2958-4de2-abea-66b0f91de54d", "geometry": {"type": "Polygon", "coordinates": [[[8, 205], [7, 206], [3, 206], [2, 207], [1, 207], [0, 208], [0, 230], [1, 230], [2, 229], [3, 229], [7, 225], [8, 225], [12, 221], [12, 220], [13, 219], [13, 218], [15, 216], [15, 214], [16, 213], [16, 208], [15, 207], [14, 207], [13, 206], [11, 206], [10, 205], [8, 205]]]}, "properties": {"objectType": "annotation", "classification": {"name": "Connective", "color": [35, 92, 236]}}}, {"type": "Feature", "id": "103e0f56-bb7c-4bf5-9e75-79a000963af7", "geometry": {"type": "Polygon", "coordinates": [[[41, 216], [40, 217], [38, 217], [36, 219], [36, 224], [37, 225], [37, 227], [38, 228], [38, 229], [39, 230], [39, 231], [40, 232], [40, 233], [42, 235], [43, 235], [44, 236], [46, 236], [47, 237], [49, 237], [50, 236], [52, 236], [56, 232], [56, 228], [54, 226], [54, 225], [53, 225], [51, 223], [51, 222], [46, 217], [43, 217], [42, 216], [41, 216]]]}, "properties": {"objectType": "annotation", "classification": {"name": "Connective", "color": [35, 92, 236]}}}, {"type": "Feature", "id": "3f002912-05a7-4528-87fe-2308031ed840", "geometry": {"type": "Polygon", "coordinates": [[[107, 221], [106, 222], [105, 222], [104, 223], [103, 223], [102, 224], [101, 224], [100, 225], [99, 225], [98, 226], [97, 226], [96, 227], [95, 227], [90, 232], [90, 234], [89, 235], [89, 238], [88, 239], [88, 243], [87, 244], [87, 246], [88, 247], [88, 248], [89, 249], [89, 250], [90, 250], [91, 251], [93, 251], [94, 250], [96, 250], [98, 248], [99, 248], [101, 246], [103, 246], [104, 247], [106, 247], [107, 248], [111, 248], [112, 247], [113, 247], [114, 246], [114, 245], [115, 244], [115, 243], [116, 242], [116, 222], [115, 221], [107, 221]]]}, "properties": {"objectType": "annotation", "classification": {"name": "Connective", "color": [35, 92, 236]}}}, {"type": "Feature", "id": "7e14cd0c-a2f6-4e74-9376-f093b3d2f170", "geometry": {"type": "Polygon", "coordinates": [[[480, 222], [479, 223], [477, 223], [475, 225], [474, 225], [470, 229], [469, 229], [468, 230], [468, 231], [464, 235], [464, 236], [462, 238], [462, 239], [461, 240], [461, 242], [460, 243], [460, 246], [459, 247], [459, 252], [461, 254], [464, 254], [466, 252], [467, 252], [470, 249], [471, 249], [474, 246], [475, 246], [477, 244], [478, 244], [479, 243], [480, 243], [483, 240], [484, 240], [487, 237], [487, 236], [488, 235], [488, 234], [489, 233], [489, 230], [488, 229], [488, 227], [487, 226], [487, 225], [486, 224], [486, 223], [485, 222], [480, 222]]]}, "properties": {"objectType": "annotation", "classification": {"name": "Connective", "color": [35, 92, 236]}}}, {"type": "Feature", "id": "c8cac358-65c6-4169-8d45-88e08d539c28", "geometry": {"type": "Polygon", "coordinates": [[[159, 228], [158, 229], [157, 229], [156, 230], [155, 230], [152, 233], [152, 234], [151, 235], [151, 237], [150, 238], [150, 240], [151, 241], [151, 243], [152, 244], [152, 245], [157, 250], [158, 250], [159, 251], [161, 251], [163, 249], [163, 247], [164, 246], [164, 243], [165, 242], [165, 239], [166, 238], [166, 233], [165, 232], [165, 231], [163, 229], [162, 229], [161, 228], [159, 228]]]}, "properties": {"objectType": "annotation", "classification": {"name": "Inflammatory", "color": [34, 221, 77]}}}, {"type": "Feature", "id": "caabe56d-f07d-47e0-a20c-f3078a99ab3d", "geometry": {"type": "Polygon", "coordinates": [[[444, 230], [443, 231], [441, 231], [439, 233], [438, 233], [436, 235], [433, 235], [432, 234], [427, 234], [426, 235], [424, 235], [420, 239], [420, 247], [421, 248], [421, 249], [423, 251], [425, 251], [426, 252], [427, 252], [430, 255], [435, 255], [436, 256], [439, 256], [440, 255], [440, 254], [447, 247], [447, 246], [450, 243], [450, 242], [452, 240], [452, 239], [453, 238], [453, 233], [452, 232], [451, 232], [450, 231], [447, 231], [446, 230], [444, 230]]]}, "properties": {"objectType": "annotation", "classification": {"name": "Connective", "color": [35, 92, 236]}}}, {"type": "Feature", "id": "31140a02-6a32-480b-b604-bcd5a3becbf4", "geometry": {"type": "Polygon", "coordinates": [[[218, 232], [217, 233], [216, 233], [213, 236], [212, 236], [210, 238], [210, 239], [209, 240], [209, 244], [208, 245], [209, 246], [209, 249], [210, 250], [210, 251], [212, 253], [214, 253], [215, 254], [216, 254], [217, 253], [219, 253], [222, 250], [222, 249], [223, 248], [223, 237], [222, 236], [222, 234], [220, 232], [218, 232]]]}, "properties": {"objectType": "annotation", "classification": {"name": "Inflammatory", "color": [34, 221, 77]}}}, {"type": "Feature", "id": "9dc35e54-ff74-4abe-98e3-44b340716099", "geometry": {"type": "Polygon", "coordinates": [[[20, 233], [19, 234], [18, 234], [18, 235], [17, 236], [17, 237], [16, 238], [16, 245], [17, 246], [17, 248], [18, 249], [19, 249], [20, 250], [21, 250], [22, 251], [30, 251], [31, 250], [34, 250], [36, 248], [36, 242], [33, 239], [32, 239], [31, 238], [30, 238], [28, 236], [27, 236], [25, 234], [24, 234], [23, 233], [20, 233]]]}, "properties": {"objectType": "annotation", "classification": {"name": "Inflammatory", "color": [34, 221, 77]}}}, {"type": "Feature", "id": "7d3b5e34-b85b-4bc6-ab00-0e791079c664", "geometry": {"type": "Polygon", "coordinates": [[[404, 232], [403, 233], [401, 233], [395, 239], [395, 240], [394, 241], [394, 260], [395, 261], [395, 264], [396, 265], [396, 266], [398, 268], [399, 268], [400, 269], [401, 269], [404, 266], [404, 265], [405, 264], [405, 263], [406, 262], [406, 260], [407, 259], [407, 258], [409, 256], [409, 255], [410, 254], [410, 244], [411, 243], [411, 236], [412, 235], [412, 233], [411, 233], [410, 232], [404, 232]]]}, "properties": {"objectType": "annotation", "classification": {"name": "Neoplastic", "color": [255, 0, 0]}}}, {"type": "Feature", "id": "634d759c-4b7b-41a1-aee6-ed81ae52db60", "geometry": {"type": "Polygon", "coordinates": [[[233, 235], [231, 237], [231, 238], [230, 239], [230, 244], [231, 244], [233, 246], [234, 246], [235, 247], [236, 247], [237, 248], [242, 248], [243, 247], [244, 247], [245, 246], [245, 245], [246, 244], [246, 242], [247, 241], [246, 240], [246, 239], [245, 238], [244, 238], [242, 236], [240, 236], [239, 235], [233, 235]]]}, "properties": {"objectType": "annotation", "classification": {"name": "Connective", "color": [35, 92, 236]}}}, {"type": "Feature", "id": "82c2f243-6a36-48d1-8740-316a21c15f20", "geometry": {"type": "Polygon", "coordinates": [[[250, 243], [248, 245], [248, 246], [247, 247], [247, 248], [246, 249], [246, 251], [245, 252], [245, 253], [244, 254], [244, 260], [245, 261], [250, 261], [252, 259], [252, 258], [254, 256], [254, 254], [255, 253], [255, 250], [256, 249], [256, 245], [255, 244], [255, 243], [250, 243]]]}, "properties": {"objectType": "annotation", "classification": {"name": "Connective", "color": [35, 92, 236]}}}, {"type": "Feature", "id": "0869ce98-86bb-43e9-bed1-61089c4e4fa6", "geometry": {"type": "Polygon", "coordinates": [[[73, 247], [72, 248], [71, 248], [61, 258], [61, 259], [60, 260], [60, 267], [63, 270], [70, 270], [71, 271], [73, 271], [74, 270], [76, 270], [77, 269], [78, 269], [79, 268], [79, 266], [80, 265], [80, 263], [81, 262], [81, 259], [82, 258], [82, 253], [81, 252], [81, 251], [80, 250], [80, 249], [78, 247], [73, 247]]]}, "properties": {"objectType": "annotation", "classification": {"name": "Connective", "color": [35, 92, 236]}}}, {"type": "Feature", "id": "22e2d790-6fcc-4e2f-b8f9-2797c88b2ebf", "geometry": {"type": "Polygon", "coordinates": [[[456, 254], [453, 257], [453, 261], [454, 261], [455, 260], [456, 260], [457, 261], [458, 261], [459, 260], [459, 257], [458, 256], [458, 254], [456, 254]]]}, "properties": {"objectType": "annotation", "classification": {"name": "Connective", "color": [35, 92, 236]}}}, {"type": "Feature", "id": "be1334e6-e028-4617-92e3-549a01b19c5e", "geometry": {"type": "Polygon", "coordinates": [[[96, 256], [95, 257], [93, 257], [89, 261], [89, 271], [90, 272], [90, 273], [91, 274], [91, 275], [93, 277], [93, 278], [94, 279], [95, 279], [96, 280], [99, 280], [101, 278], [102, 278], [105, 275], [105, 273], [106, 272], [106, 271], [105, 270], [105, 268], [106, 267], [106, 259], [103, 256], [96, 256]]]}, "properties": {"objectType": "annotation", "classification": {"name": "Inflammatory", "color": [34, 221, 77]}}}, {"type": "Feature", "id": "65957d8b-6be9-45c6-9556-771742d60fd3", "geometry": {"type": "Polygon", "coordinates": [[[168, 257], [167, 258], [166, 258], [163, 261], [163, 262], [161, 264], [161, 266], [160, 267], [160, 269], [158, 271], [157, 271], [156, 272], [155, 272], [154, 273], [152, 273], [150, 275], [150, 276], [149, 277], [150, 278], [150, 280], [151, 280], [152, 281], [156, 281], [157, 282], [160, 282], [161, 281], [163, 281], [164, 280], [166, 280], [167, 279], [168, 279], [169, 278], [170, 278], [172, 276], [173, 276], [174, 275], [175, 275], [176, 274], [177, 274], [178, 273], [179, 273], [182, 270], [182, 267], [181, 266], [181, 265], [180, 264], [180, 263], [177, 260], [176, 260], [174, 258], [172, 258], [171, 257], [168, 257]]]}, "properties": {"objectType": "annotation", "classification": {"name": "Connective", "color": [35, 92, 236]}}}, {"type": "Feature", "id": "d70248a5-9074-4427-b26e-7b1bfc4693b7", "geometry": {"type": "Polygon", "coordinates": [[[432, 263], [431, 264], [429, 264], [428, 265], [427, 265], [426, 266], [425, 266], [424, 267], [423, 267], [417, 273], [416, 273], [413, 276], [413, 277], [412, 278], [412, 279], [411, 280], [411, 281], [410, 282], [410, 283], [409, 284], [409, 285], [408, 286], [408, 287], [407, 288], [407, 290], [406, 291], [406, 294], [405, 295], [405, 299], [407, 301], [408, 300], [411, 300], [412, 299], [413, 299], [414, 298], [419, 298], [420, 297], [421, 297], [422, 296], [423, 296], [425, 294], [426, 294], [428, 292], [429, 292], [431, 290], [432, 290], [433, 289], [433, 288], [434, 287], [434, 286], [435, 285], [435, 284], [436, 283], [436, 278], [437, 277], [437, 268], [436, 267], [436, 265], [435, 264], [434, 264], [433, 263], [432, 263]]]}, "properties": {"objectType": "annotation", "classification": {"name": "Connective", "color": [35, 92, 236]}}}, {"type": "Feature", "id": "ec598daf-7adf-448b-94ec-b407671609e1", "geometry": {"type": "Polygon", "coordinates": [[[108, 278], [105, 281], [105, 283], [104, 284], [104, 290], [105, 291], [105, 292], [106, 293], [106, 294], [108, 296], [109, 296], [110, 297], [111, 297], [113, 295], [113, 293], [114, 292], [114, 286], [115, 285], [114, 284], [114, 282], [113, 281], [113, 280], [111, 278], [108, 278]]]}, "properties": {"objectType": "annotation", "classification": {"name": "Connective", "color": [35, 92, 236]}}}, {"type": "Feature", "id": "17caa494-570c-4e40-a164-f3eaef3e4cf3", "geometry": {"type": "Polygon", "coordinates": [[[391, 276], [390, 277], [388, 277], [385, 280], [385, 281], [384, 282], [384, 283], [383, 284], [383, 287], [382, 288], [382, 293], [384, 295], [388, 295], [392, 291], [395, 291], [396, 290], [396, 289], [397, 288], [397, 282], [398, 281], [397, 280], [397, 278], [395, 276], [391, 276]]]}, "properties": {"objectType": "annotation", "classification": {"name": "Connective", "color": [35, 92, 236]}}}, {"type": "Feature", "id": "d0abf59d-24c4-47e6-a0a7-de053f824a95", "geometry": {"type": "Polygon", "coordinates": [[[126, 289], [125, 290], [123, 290], [120, 293], [120, 294], [118, 296], [118, 298], [117, 299], [117, 300], [116, 301], [116, 302], [115, 303], [115, 305], [114, 306], [114, 313], [116, 315], [117, 315], [118, 316], [122, 316], [123, 315], [124, 315], [126, 313], [126, 312], [127, 311], [127, 309], [128, 308], [128, 306], [129, 305], [129, 303], [130, 302], [130, 300], [131, 299], [131, 292], [130, 291], [129, 291], [128, 290], [127, 290], [126, 289]]]}, "properties": {"objectType": "annotation", "classification": {"name": "Connective", "color": [35, 92, 236]}}}, {"type": "Feature", "id": "6eafd584-02a4-4329-bccf-d1054e40669a", "geometry": {"type": "Polygon", "coordinates": [[[49, 297], [48, 298], [46, 298], [45, 299], [45, 300], [44, 301], [44, 303], [45, 304], [45, 307], [46, 308], [46, 309], [48, 311], [49, 311], [50, 312], [51, 312], [52, 311], [54, 311], [60, 305], [61, 305], [64, 302], [63, 301], [63, 300], [62, 299], [61, 299], [60, 298], [58, 298], [57, 297], [49, 297]]]}, "properties": {"objectType": "annotation", "classification": {"name": "Inflammatory", "color": [34, 221, 77]}}}, {"type": "Feature", "id": "f6a98e83-3ceb-4966-9b05-edbd28b6faca", "geometry": {"type": "Polygon", "coordinates": [[[81, 298], [80, 299], [79, 299], [78, 300], [78, 308], [79, 309], [79, 311], [80, 312], [80, 313], [81, 314], [81, 315], [84, 318], [85, 318], [86, 319], [94, 319], [95, 318], [96, 318], [98, 316], [98, 314], [99, 313], [99, 309], [98, 308], [98, 306], [94, 302], [93, 302], [91, 300], [90, 300], [89, 299], [87, 299], [86, 298], [81, 298]]]}, "properties": {"objectType": "annotation", "classification": {"name": "Inflammatory", "color": [34, 221, 77]}}}, {"type": "Feature", "id": "f0be9f53-2de9-414d-835a-5a6479e358a2", "geometry": {"type": "Polygon", "coordinates": [[[392, 292], [388, 296], [388, 297], [387, 298], [387, 299], [386, 300], [386, 301], [382, 305], [380, 305], [379, 306], [378, 306], [375, 309], [375, 311], [374, 312], [374, 318], [373, 319], [373, 322], [372, 323], [372, 326], [373, 327], [373, 328], [374, 329], [375, 329], [376, 330], [381, 330], [382, 329], [383, 329], [388, 324], [388, 323], [389, 322], [389, 319], [390, 318], [390, 317], [391, 316], [391, 315], [392, 314], [392, 312], [393, 311], [393, 308], [394, 307], [394, 303], [395, 302], [395, 292], [392, 292]]]}, "properties": {"objectType": "annotation", "classification": {"name": "Connective", "color": [35, 92, 236]}}}, {"type": "Feature", "id": "57bf06c7-5429-4b96-ab3d-7254cdf5dc34", "geometry": {"type": "Polygon", "coordinates": [[[142, 299], [141, 300], [140, 300], [139, 301], [138, 301], [135, 304], [135, 305], [134, 306], [134, 308], [133, 309], [133, 310], [132, 311], [132, 317], [134, 319], [135, 319], [136, 320], [144, 320], [145, 319], [146, 319], [148, 317], [149, 317], [150, 316], [150, 314], [151, 313], [151, 312], [152, 311], [152, 305], [151, 304], [151, 303], [149, 301], [148, 301], [147, 300], [146, 300], [145, 299], [142, 299]]]}, "properties": {"objectType": "annotation", "classification": {"name": "Inflammatory", "color": [34, 221, 77]}}}, {"type": "Feature", "id": "de0c214b-042d-43a0-bc2e-f2b78b95e9a6", "geometry": {"type": "Polygon", "coordinates": [[[296, 302], [295, 303], [294, 303], [291, 306], [290, 306], [286, 310], [286, 311], [285, 312], [285, 314], [284, 315], [284, 318], [285, 319], [285, 321], [287, 323], [290, 323], [291, 324], [292, 323], [293, 323], [296, 320], [296, 319], [297, 318], [297, 317], [298, 316], [298, 315], [299, 314], [299, 313], [300, 312], [300, 310], [301, 309], [301, 304], [300, 303], [298, 303], [297, 302], [296, 302]]]}, "properties": {"objectType": "annotation", "classification": {"name": "Connective", "color": [35, 92, 236]}}}, {"type": "Feature", "id": "e4368faa-a6cb-4bd1-9d89-bfaf0f81166f", "geometry": {"type": "Polygon", "coordinates": [[[63, 307], [62, 308], [61, 308], [58, 311], [58, 312], [56, 314], [56, 316], [55, 317], [56, 318], [56, 320], [59, 323], [61, 323], [62, 324], [64, 324], [65, 325], [69, 325], [70, 324], [70, 323], [73, 320], [73, 319], [74, 318], [74, 311], [71, 308], [70, 308], [69, 307], [63, 307]]]}, "properties": {"objectType": "annotation", "classification": {"name": "Inflammatory", "color": [34, 221, 77]}}}, {"type": "Feature", "id": "5d5dfc5d-1422-44d4-abeb-898d5d594558", "geometry": {"type": "Polygon", "coordinates": [[[176, 312], [173, 315], [173, 316], [172, 317], [172, 319], [171, 320], [171, 325], [172, 326], [172, 327], [176, 331], [176, 352], [177, 353], [177, 354], [178, 355], [180, 355], [183, 352], [183, 351], [184, 350], [184, 348], [185, 347], [185, 345], [186, 344], [186, 343], [187, 342], [187, 341], [188, 340], [188, 339], [190, 337], [190, 336], [191, 335], [191, 333], [192, 332], [192, 323], [191, 322], [191, 320], [190, 319], [190, 318], [189, 317], [189, 316], [188, 315], [187, 315], [186, 314], [185, 314], [184, 313], [182, 313], [181, 312], [176, 312]]]}, "properties": {"objectType": "annotation", "classification": {"name": "Connective", "color": [35, 92, 236]}}}, {"type": "Feature", "id": "244305b1-8c0b-48ef-a3fe-30c1f33bc32e", "geometry": {"type": "Polygon", "coordinates": [[[117, 319], [116, 320], [113, 320], [110, 323], [110, 328], [111, 329], [111, 330], [114, 333], [115, 333], [116, 334], [117, 334], [118, 335], [119, 335], [124, 340], [128, 340], [129, 339], [130, 339], [131, 338], [132, 338], [132, 337], [133, 336], [132, 335], [132, 334], [131, 333], [130, 333], [128, 331], [128, 330], [130, 328], [130, 327], [131, 326], [131, 325], [132, 324], [131, 323], [131, 322], [129, 320], [128, 320], [127, 319], [117, 319]]]}, "properties": {"objectType": "annotation", "classification": {"name": "Inflammatory", "color": [34, 221, 77]}}}, {"type": "Feature", "id": "8bbf7036-7daf-4dc8-8dc8-4796ea3e9284", "geometry": {"type": "Polygon", "coordinates": [[[79, 320], [78, 321], [77, 321], [76, 322], [76, 323], [75, 324], [75, 327], [74, 328], [74, 331], [75, 332], [75, 333], [76, 334], [76, 335], [79, 338], [81, 338], [82, 339], [87, 339], [89, 337], [89, 326], [88, 325], [88, 323], [87, 322], [86, 322], [85, 321], [82, 321], [81, 320], [79, 320]]]}, "properties": {"objectType": "annotation", "classification": {"name": "Inflammatory", "color": [34, 221, 77]}}}, {"type": "Feature", "id": "49f17d47-4306-42f2-b89b-dd83ea0c6735", "geometry": {"type": "Polygon", "coordinates": [[[233, 320], [232, 321], [230, 321], [229, 322], [229, 323], [228, 324], [228, 326], [227, 327], [227, 336], [229, 338], [235, 338], [236, 337], [238, 337], [242, 333], [242, 326], [237, 321], [235, 321], [234, 320], [233, 320]]]}, "properties": {"objectType": "annotation", "classification": {"name": "Inflammatory", "color": [34, 221, 77]}}}, {"type": "Feature", "id": "8c1ab52e-705f-4cfa-b034-b28d77b65065", "geometry": {"type": "Polygon", "coordinates": [[[318, 333], [317, 334], [315, 334], [314, 335], [312, 335], [311, 336], [310, 336], [306, 340], [306, 341], [305, 342], [305, 345], [309, 349], [313, 349], [314, 348], [315, 348], [321, 342], [321, 341], [322, 340], [322, 338], [323, 337], [323, 336], [322, 335], [321, 335], [320, 334], [320, 333], [318, 333]]]}, "properties": {"objectType": "annotation", "classification": {"name": "Connective", "color": [35, 92, 236]}}}, {"type": "Feature", "id": "210b142b-45d0-4522-98a9-6c4c29c2aaf2", "geometry": {"type": "Polygon", "coordinates": [[[62, 333], [61, 334], [60, 334], [57, 337], [57, 341], [58, 342], [58, 343], [59, 344], [59, 346], [60, 347], [60, 349], [59, 350], [59, 352], [58, 353], [58, 360], [59, 361], [59, 363], [63, 367], [64, 367], [65, 368], [68, 368], [69, 367], [70, 367], [72, 365], [72, 364], [73, 363], [73, 361], [74, 360], [74, 357], [75, 356], [75, 349], [74, 348], [74, 347], [73, 346], [73, 343], [72, 342], [72, 340], [71, 339], [71, 338], [69, 336], [69, 335], [67, 333], [62, 333]]]}, "properties": {"objectType": "annotation", "classification": {"name": "Connective", "color": [35, 92, 236]}}}, {"type": "Feature", "id": "7a813841-cb70-4ce8-85ce-5b4ddaba5121", "geometry": {"type": "Polygon", "coordinates": [[[336, 334], [335, 335], [331, 335], [330, 336], [330, 337], [329, 338], [329, 340], [328, 341], [328, 344], [329, 345], [329, 346], [330, 347], [330, 348], [331, 348], [333, 350], [335, 350], [336, 351], [338, 351], [339, 352], [346, 352], [348, 350], [348, 349], [349, 348], [349, 344], [348, 343], [348, 342], [346, 340], [346, 339], [344, 337], [343, 337], [342, 336], [341, 336], [340, 335], [337, 335], [336, 334]]]}, "properties": {"objectType": "annotation", "classification": {"name": "Connective", "color": [35, 92, 236]}}}, {"type": "Feature", "id": "d949c77e-efa1-4923-8317-1296b8151c57", "geometry": {"type": "Polygon", "coordinates": [[[473, 341], [472, 342], [471, 342], [470, 343], [469, 343], [468, 344], [467, 344], [464, 347], [464, 351], [465, 352], [465, 353], [469, 357], [470, 357], [471, 358], [473, 358], [474, 359], [477, 359], [478, 358], [480, 358], [481, 357], [482, 357], [484, 355], [484, 352], [485, 351], [485, 348], [484, 347], [484, 345], [482, 343], [481, 343], [480, 342], [479, 342], [478, 341], [473, 341]]]}, "properties": {"objectType": "annotation", "classification": {"name": "Neoplastic", "color": [255, 0, 0]}}}, {"type": "Feature", "id": "77312299-dffa-4fc3-b785-9f77dd82b4d4", "geometry": {"type": "Polygon", "coordinates": [[[112, 343], [112, 344], [111, 345], [111, 349], [110, 350], [110, 353], [111, 354], [111, 357], [112, 358], [112, 360], [117, 365], [120, 365], [121, 364], [121, 363], [122, 362], [122, 355], [121, 354], [121, 352], [120, 351], [120, 349], [114, 343], [112, 343]]]}, "properties": {"objectType": "annotation", "classification": {"name": "Inflammatory", "color": [34, 221, 77]}}}, {"type": "Feature", "id": "cd6a1ed9-5101-44b9-affd-90500069a76a", "geometry": {"type": "Polygon", "coordinates": [[[228, 342], [225, 345], [225, 346], [224, 347], [224, 350], [223, 351], [223, 352], [224, 353], [224, 354], [223, 355], [223, 357], [219, 361], [219, 364], [222, 367], [223, 367], [224, 368], [225, 368], [226, 369], [227, 369], [228, 370], [229, 370], [230, 371], [230, 372], [236, 378], [240, 378], [242, 376], [242, 370], [241, 369], [241, 368], [240, 367], [240, 365], [239, 364], [239, 362], [238, 361], [238, 358], [237, 357], [237, 352], [236, 351], [236, 350], [235, 349], [235, 348], [233, 346], [233, 345], [230, 342], [228, 342]]]}, "properties": {"objectType": "annotation", "classification": {"name": "Connective", "color": [35, 92, 236]}}}, {"type": "Feature", "id": "b81908a5-eb91-4fb8-bc08-c47d5299a41d", "geometry": {"type": "Polygon", "coordinates": [[[496, 344], [495, 345], [493, 345], [492, 346], [492, 355], [493, 356], [493, 357], [500, 364], [500, 365], [503, 368], [505, 368], [506, 369], [512, 369], [513, 368], [515, 368], [519, 364], [519, 358], [520, 357], [519, 356], [519, 353], [518, 352], [518, 351], [516, 349], [515, 349], [514, 348], [513, 348], [512, 347], [511, 347], [510, 346], [509, 346], [508, 345], [498, 345], [497, 344], [496, 344]]]}, "properties": {"objectType": "annotation", "classification": {"name": "Neoplastic", "color": [255, 0, 0]}}}, {"type": "Feature", "id": "73174d9e-d2c1-4909-9a21-5571189693c2", "geometry": {"type": "Polygon", "coordinates": [[[402, 347], [401, 348], [396, 348], [395, 349], [391, 349], [390, 350], [388, 350], [383, 355], [383, 356], [382, 357], [382, 359], [381, 360], [381, 361], [380, 362], [380, 363], [379, 364], [379, 369], [380, 370], [380, 371], [382, 373], [382, 374], [383, 375], [383, 376], [387, 380], [389, 378], [389, 377], [390, 376], [391, 376], [393, 374], [396, 374], [397, 373], [409, 373], [412, 370], [412, 369], [414, 367], [414, 365], [415, 364], [415, 362], [416, 361], [416, 353], [415, 352], [415, 350], [413, 348], [412, 348], [411, 347], [402, 347]]]}, "properties": {"objectType": "annotation", "classification": {"name": "Neoplastic", "color": [255, 0, 0]}}}, {"type": "Feature", "id": "86b494d3-88b0-4d0c-8698-26ee6f093c4b", "geometry": {"type": "Polygon", "coordinates": [[[441, 348], [440, 349], [438, 349], [437, 350], [436, 350], [434, 352], [433, 352], [430, 355], [430, 356], [429, 357], [429, 358], [428, 359], [428, 360], [427, 361], [427, 362], [426, 363], [426, 367], [427, 368], [427, 369], [429, 371], [442, 371], [447, 366], [447, 365], [450, 362], [450, 359], [451, 358], [451, 354], [450, 353], [450, 352], [448, 350], [448, 349], [447, 349], [446, 348], [441, 348]]]}, "properties": {"objectType": "annotation", "classification": {"name": "Neoplastic", "color": [255, 0, 0]}}}, {"type": "Feature", "id": "424a3ae8-3865-4638-8583-5349d327426b", "geometry": {"type": "Polygon", "coordinates": [[[321, 349], [319, 351], [318, 351], [307, 362], [307, 363], [306, 364], [306, 366], [305, 367], [305, 368], [306, 369], [306, 370], [307, 371], [307, 372], [308, 373], [309, 373], [310, 374], [314, 374], [317, 371], [317, 370], [318, 369], [318, 368], [319, 367], [319, 366], [320, 365], [320, 364], [321, 363], [321, 361], [322, 360], [322, 359], [324, 357], [324, 356], [326, 354], [326, 353], [325, 352], [325, 350], [324, 350], [323, 349], [321, 349]]]}, "properties": {"objectType": "annotation", "classification": {"name": "Connective", "color": [35, 92, 236]}}}, {"type": "Feature", "id": "b766f587-98e7-4a64-b07f-d0eec19b0ae3", "geometry": {"type": "Polygon", "coordinates": [[[292, 354], [291, 355], [290, 355], [288, 357], [288, 358], [287, 359], [287, 360], [286, 361], [286, 362], [279, 369], [279, 370], [271, 378], [271, 381], [272, 382], [277, 382], [278, 381], [280, 381], [288, 373], [288, 372], [290, 370], [290, 369], [291, 368], [291, 367], [292, 366], [292, 365], [294, 363], [294, 362], [295, 361], [295, 356], [293, 354], [292, 354]]]}, "properties": {"objectType": "annotation", "classification": {"name": "Connective", "color": [35, 92, 236]}}}, {"type": "Feature", "id": "34f80b08-1d0e-4222-9963-9559e83e634d", "geometry": {"type": "Polygon", "coordinates": [[[130, 365], [129, 366], [128, 366], [127, 367], [126, 367], [122, 371], [122, 372], [121, 373], [121, 374], [120, 375], [120, 376], [119, 377], [119, 379], [118, 380], [118, 381], [117, 382], [117, 384], [116, 385], [116, 386], [117, 387], [117, 388], [118, 389], [118, 390], [119, 391], [119, 392], [121, 394], [121, 395], [122, 396], [122, 397], [127, 402], [128, 402], [129, 401], [130, 401], [130, 400], [131, 399], [131, 398], [132, 397], [132, 396], [133, 395], [133, 393], [134, 392], [134, 391], [135, 390], [135, 388], [136, 387], [136, 385], [137, 384], [137, 372], [136, 371], [136, 368], [133, 365], [130, 365]]]}, "properties": {"objectType": "annotation", "classification": {"name": "Connective", "color": [35, 92, 236]}}}, {"type": "Feature", "id": "658c8c66-6138-41ce-bb4c-3b963715d550", "geometry": {"type": "Polygon", "coordinates": [[[191, 365], [186, 370], [186, 371], [185, 372], [185, 373], [184, 374], [184, 375], [183, 376], [183, 377], [179, 381], [179, 382], [177, 384], [177, 385], [176, 386], [176, 388], [175, 389], [175, 391], [176, 392], [176, 393], [177, 394], [178, 394], [179, 395], [181, 395], [186, 390], [186, 389], [189, 386], [189, 385], [191, 383], [191, 382], [194, 379], [194, 378], [195, 377], [195, 374], [196, 373], [196, 368], [195, 367], [195, 366], [194, 366], [193, 365], [191, 365]]]}, "properties": {"objectType": "annotation", "classification": {"name": "Connective", "color": [35, 92, 236]}}}, {"type": "Feature", "id": "c29f264b-e5ce-49df-9313-ce934fea19dd", "geometry": {"type": "Polygon", "coordinates": [[[0, 367], [0, 384], [3, 384], [4, 383], [5, 383], [8, 380], [8, 373], [7, 372], [7, 371], [3, 367], [0, 367]]]}, "properties": {"objectType": "annotation", "classification": {"name": "Inflammatory", "color": [34, 221, 77]}}}, {"type": "Feature", "id": "d91c863d-e72f-4a16-85da-b844e0b7c8ba", "geometry": {"type": "Polygon", "coordinates": [[[397, 374], [396, 375], [393, 375], [391, 377], [390, 377], [390, 378], [388, 380], [388, 381], [389, 381], [391, 383], [391, 384], [393, 386], [393, 387], [394, 388], [394, 389], [395, 390], [395, 391], [397, 393], [398, 393], [400, 395], [401, 395], [403, 397], [410, 397], [412, 395], [413, 395], [414, 394], [415, 394], [415, 393], [417, 391], [417, 384], [415, 382], [414, 382], [412, 380], [411, 380], [410, 379], [409, 379], [406, 376], [408, 374], [397, 374]]]}, "properties": {"objectType": "annotation", "classification": {"name": "Neoplastic", "color": [255, 0, 0]}}}, {"type": "Feature", "id": "d9506460-13c4-44f7-b9c4-77fe2bd7fa1a", "geometry": {"type": "Polygon", "coordinates": [[[152, 378], [151, 379], [150, 379], [149, 380], [148, 380], [146, 382], [145, 382], [143, 384], [143, 385], [142, 386], [142, 389], [141, 390], [141, 396], [143, 398], [147, 398], [148, 397], [149, 397], [150, 396], [151, 396], [154, 393], [154, 392], [155, 391], [155, 389], [156, 388], [156, 385], [157, 384], [157, 379], [156, 378], [152, 378]]]}, "properties": {"objectType": "annotation", "classification": {"name": "Inflammatory", "color": [34, 221, 77]}}}, {"type": "Feature", "id": "f0a7bab5-5712-412c-9687-5db9ee4d8848", "geometry": {"type": "Polygon", "coordinates": [[[373, 380], [372, 381], [371, 381], [370, 382], [370, 383], [368, 385], [369, 385], [370, 386], [370, 390], [369, 391], [367, 391], [366, 390], [364, 390], [360, 394], [363, 394], [364, 395], [367, 395], [368, 394], [374, 394], [375, 393], [376, 393], [381, 398], [381, 399], [383, 401], [384, 401], [385, 402], [387, 402], [389, 400], [389, 393], [388, 392], [388, 390], [387, 389], [387, 388], [386, 387], [386, 385], [385, 385], [381, 381], [379, 381], [378, 380], [373, 380]]]}, "properties": {"objectType": "annotation", "classification": {"name": "Neoplastic", "color": [255, 0, 0]}}}, {"type": "Feature", "id": "d1ce04f6-3acf-4815-b830-1466e27ea552", "geometry": {"type": "Polygon", "coordinates": [[[50, 379], [46, 383], [46, 384], [45, 385], [45, 387], [44, 388], [44, 396], [45, 397], [45, 402], [46, 403], [46, 407], [47, 408], [47, 413], [48, 414], [48, 415], [50, 417], [52, 417], [55, 414], [55, 413], [56, 412], [56, 411], [57, 410], [57, 409], [58, 408], [58, 407], [59, 406], [59, 403], [60, 402], [60, 386], [59, 385], [59, 383], [57, 381], [56, 381], [54, 379], [50, 379]]]}, "properties": {"objectType": "annotation", "classification": {"name": "Connective", "color": [35, 92, 236]}}}, {"type": "Feature", "id": "6f3e76ec-adc8-41ca-b1b0-720fa6e9e8a0", "geometry": {"type": "Polygon", "coordinates": [[[289, 380], [288, 381], [286, 381], [285, 382], [284, 382], [283, 383], [282, 383], [281, 384], [279, 384], [278, 385], [276, 385], [275, 386], [273, 386], [272, 387], [271, 387], [270, 388], [268, 388], [267, 389], [266, 389], [264, 391], [263, 391], [263, 392], [261, 394], [261, 395], [260, 396], [260, 397], [259, 398], [259, 399], [257, 401], [257, 402], [256, 403], [256, 405], [255, 406], [255, 407], [254, 408], [254, 411], [255, 412], [255, 413], [258, 416], [266, 416], [267, 415], [268, 415], [270, 413], [271, 413], [274, 410], [274, 409], [277, 406], [277, 405], [281, 401], [281, 400], [283, 398], [283, 397], [285, 395], [285, 394], [287, 392], [288, 392], [290, 390], [290, 389], [291, 388], [291, 382], [289, 380]]]}, "properties": {"objectType": "annotation", "classification": {"name": "Connective", "color": [35, 92, 236]}}}, {"type": "Feature", "id": "e51ae4f1-4b36-4924-a277-88187eb9e559", "geometry": {"type": "Polygon", "coordinates": [[[228, 390], [226, 392], [226, 394], [225, 395], [225, 401], [224, 402], [224, 408], [225, 409], [225, 410], [226, 411], [230, 411], [233, 408], [233, 406], [238, 401], [238, 399], [239, 398], [239, 393], [236, 390], [228, 390]]]}, "properties": {"objectType": "annotation", "classification": {"name": "Connective", "color": [35, 92, 236]}}}, {"type": "Feature", "id": "49712c0e-2895-4fcb-ac46-05603635706b", "geometry": {"type": "Polygon", "coordinates": [[[360, 395], [359, 396], [359, 403], [361, 405], [361, 406], [363, 408], [363, 409], [364, 410], [364, 411], [366, 413], [367, 413], [369, 415], [370, 415], [371, 416], [372, 416], [373, 417], [376, 417], [377, 418], [383, 418], [384, 419], [390, 419], [391, 418], [393, 418], [395, 416], [394, 415], [394, 414], [391, 411], [390, 411], [386, 407], [385, 407], [377, 399], [377, 398], [375, 396], [375, 395], [368, 395], [367, 396], [364, 396], [363, 395], [360, 395]]]}, "properties": {"objectType": "annotation", "classification": {"name": "Neoplastic", "color": [255, 0, 0]}}}, {"type": "Feature", "id": "266153c7-436e-4124-814f-48445284bd98", "geometry": {"type": "Polygon", "coordinates": [[[77, 409], [76, 410], [75, 410], [73, 412], [73, 413], [72, 414], [72, 415], [71, 416], [71, 417], [70, 418], [70, 421], [72, 423], [77, 423], [78, 422], [79, 422], [80, 421], [81, 421], [84, 418], [84, 417], [85, 416], [85, 413], [84, 412], [84, 411], [82, 409], [77, 409]]]}, "properties": {"objectType": "annotation", "classification": {"name": "Inflammatory", "color": [34, 221, 77]}}}, {"type": "Feature", "id": "92239a4f-4ed0-43b2-af5b-a607482bbaf5", "geometry": {"type": "Polygon", "coordinates": [[[134, 417], [132, 419], [132, 421], [131, 422], [131, 426], [132, 427], [132, 428], [134, 430], [136, 430], [137, 429], [137, 428], [138, 427], [138, 419], [136, 417], [134, 417]]]}, "properties": {"objectType": "annotation", "classification": {"name": "Inflammatory", "color": [34, 221, 77]}}}, {"type": "Feature", "id": "d9f9c96d-879c-4e43-bc75-490d4c226421", "geometry": {"type": "Polygon", "coordinates": [[[27, 417], [25, 419], [25, 420], [24, 421], [24, 425], [25, 426], [25, 428], [28, 431], [28, 432], [30, 434], [31, 434], [32, 435], [33, 435], [34, 436], [41, 436], [45, 432], [45, 431], [46, 430], [46, 427], [45, 426], [45, 425], [44, 425], [42, 423], [41, 423], [40, 422], [39, 422], [38, 421], [37, 421], [35, 419], [34, 419], [33, 418], [32, 418], [31, 417], [27, 417]]]}, "properties": {"objectType": "annotation", "classification": {"name": "Inflammatory", "color": [34, 221, 77]}}}, {"type": "Feature", "id": "5abbcfb1-58dc-4bcc-905c-fc1f301c5bd8", "geometry": {"type": "Polygon", "coordinates": [[[334, 415], [333, 416], [332, 416], [331, 417], [330, 417], [329, 418], [328, 418], [324, 422], [323, 422], [321, 424], [321, 426], [320, 427], [320, 433], [321, 434], [321, 445], [322, 446], [322, 450], [323, 451], [323, 452], [325, 452], [326, 451], [329, 451], [331, 449], [331, 448], [332, 447], [332, 436], [333, 435], [333, 432], [334, 431], [334, 428], [335, 427], [335, 425], [336, 424], [336, 423], [337, 422], [337, 417], [335, 415], [334, 415]]]}, "properties": {"objectType": "annotation", "classification": {"name": "Neoplastic", "color": [255, 0, 0]}}}, {"type": "Feature", "id": "0b98c2ac-e771-49ae-a285-4f35a1403891", "geometry": {"type": "Polygon", "coordinates": [[[493, 421], [491, 423], [490, 423], [487, 426], [487, 427], [486, 428], [486, 429], [485, 430], [485, 432], [484, 433], [484, 441], [483, 442], [483, 444], [484, 445], [484, 448], [485, 449], [485, 451], [486, 452], [486, 453], [488, 455], [488, 456], [490, 458], [490, 459], [491, 460], [491, 461], [493, 463], [493, 465], [495, 467], [495, 468], [498, 471], [500, 471], [501, 472], [503, 472], [507, 468], [507, 467], [509, 465], [509, 464], [510, 463], [510, 462], [511, 461], [511, 459], [512, 458], [512, 455], [513, 454], [513, 453], [514, 452], [514, 449], [515, 448], [515, 447], [516, 446], [516, 443], [517, 442], [517, 441], [516, 440], [516, 437], [514, 435], [514, 434], [513, 433], [513, 432], [509, 428], [509, 427], [504, 422], [502, 422], [501, 421], [493, 421]]]}, "properties": {"objectType": "annotation", "classification": {"name": "Neoplastic", "color": [255, 0, 0]}}}, {"type": "Feature", "id": "55e7ccf8-b0ae-48c9-bd7c-72ec5840bf40", "geometry": {"type": "Polygon", "coordinates": [[[388, 425], [387, 426], [383, 426], [382, 427], [377, 427], [375, 429], [374, 429], [370, 433], [370, 434], [366, 438], [366, 442], [367, 443], [368, 443], [369, 444], [370, 444], [371, 445], [372, 445], [373, 446], [374, 446], [375, 447], [376, 447], [377, 448], [379, 448], [380, 449], [386, 449], [387, 448], [388, 448], [389, 447], [390, 447], [392, 445], [394, 445], [395, 444], [396, 444], [400, 440], [400, 431], [399, 430], [399, 429], [396, 426], [394, 426], [393, 425], [388, 425]]]}, "properties": {"objectType": "annotation", "classification": {"name": "Neoplastic", "color": [255, 0, 0]}}}, {"type": "Feature", "id": "13762f9f-7f8c-4ef0-b6c1-0c60ee5c32d4", "geometry": {"type": "Polygon", "coordinates": [[[91, 432], [90, 433], [89, 433], [88, 434], [87, 434], [84, 437], [84, 438], [83, 439], [83, 442], [84, 443], [84, 444], [86, 446], [86, 447], [87, 447], [89, 449], [90, 449], [91, 450], [96, 450], [97, 449], [98, 449], [102, 445], [102, 444], [103, 443], [103, 442], [104, 441], [104, 434], [102, 432], [97, 432], [96, 433], [95, 433], [94, 432], [91, 432]]]}, "properties": {"objectType": "annotation", "classification": {"name": "Inflammatory", "color": [34, 221, 77]}}}, {"type": "Feature", "id": "9d6681b6-831a-47b3-b4e8-230972993e8a", "geometry": {"type": "Polygon", "coordinates": [[[438, 434], [437, 435], [435, 435], [433, 437], [432, 437], [430, 439], [429, 439], [428, 440], [419, 440], [418, 441], [417, 441], [415, 443], [415, 444], [414, 445], [414, 452], [415, 453], [415, 455], [417, 457], [417, 458], [418, 459], [419, 459], [421, 461], [422, 461], [424, 463], [425, 463], [426, 464], [427, 464], [429, 466], [430, 466], [432, 468], [432, 469], [433, 470], [434, 470], [435, 471], [436, 471], [437, 472], [442, 472], [443, 471], [446, 471], [448, 469], [448, 441], [447, 440], [447, 439], [445, 437], [444, 437], [443, 436], [442, 436], [441, 435], [439, 435], [438, 434]]]}, "properties": {"objectType": "annotation", "classification": {"name": "Neoplastic", "color": [255, 0, 0]}}}, {"type": "Feature", "id": "e3298e36-4952-411b-b767-a0b458ce4306", "geometry": {"type": "Polygon", "coordinates": [[[0, 446], [0, 457], [1, 458], [2, 457], [6, 457], [8, 455], [8, 454], [9, 453], [9, 450], [6, 447], [4, 447], [3, 446], [0, 446]]]}, "properties": {"objectType": "annotation", "classification": {"name": "Connective", "color": [35, 92, 236]}}}, {"type": "Feature", "id": "3af5857c-6262-4e87-b2fe-f1997fa55ac4", "geometry": {"type": "Polygon", "coordinates": [[[213, 450], [212, 451], [209, 451], [200, 460], [200, 461], [197, 464], [197, 465], [196, 466], [196, 467], [194, 469], [194, 470], [193, 471], [193, 477], [194, 478], [198, 478], [199, 477], [201, 477], [202, 476], [203, 476], [205, 474], [205, 473], [214, 464], [214, 463], [217, 460], [217, 459], [219, 457], [219, 451], [218, 450], [213, 450]]]}, "properties": {"objectType": "annotation", "classification": {"name": "Connective", "color": [35, 92, 236]}}}, {"type": "Feature", "id": "c319d2cf-57d4-4161-ba58-ffd982a8cf10", "geometry": {"type": "Polygon", "coordinates": [[[81, 452], [80, 453], [80, 454], [78, 456], [78, 457], [76, 459], [76, 460], [75, 461], [75, 463], [74, 464], [74, 467], [73, 468], [73, 471], [72, 472], [72, 478], [71, 479], [71, 481], [73, 483], [73, 484], [75, 486], [75, 487], [76, 488], [76, 489], [77, 490], [77, 491], [78, 491], [80, 489], [80, 488], [82, 486], [82, 485], [83, 484], [83, 483], [84, 482], [84, 481], [85, 480], [85, 479], [86, 478], [86, 476], [87, 475], [87, 457], [86, 456], [86, 455], [83, 452], [81, 452]]]}, "properties": {"objectType": "annotation", "classification": {"name": "Connective", "color": [35, 92, 236]}}}, {"type": "Feature", "id": "b8c83d94-04a6-4948-8227-bd1c679199ce", "geometry": {"type": "Polygon", "coordinates": [[[461, 458], [461, 459], [460, 460], [460, 462], [459, 463], [459, 465], [458, 466], [458, 467], [457, 468], [457, 469], [456, 470], [456, 476], [457, 477], [457, 478], [458, 479], [458, 480], [459, 480], [460, 481], [460, 483], [461, 484], [461, 485], [462, 486], [462, 487], [467, 492], [467, 494], [469, 496], [469, 497], [474, 497], [475, 496], [475, 495], [476, 494], [476, 490], [477, 489], [477, 480], [476, 479], [476, 477], [475, 476], [475, 475], [476, 474], [476, 466], [475, 465], [475, 464], [474, 463], [473, 463], [472, 464], [470, 464], [469, 463], [468, 463], [467, 462], [466, 462], [465, 461], [465, 460], [464, 459], [463, 459], [462, 458], [461, 458]]]}, "properties": {"objectType": "annotation", "classification": {"name": "Neoplastic", "color": [255, 0, 0]}}}, {"type": "Feature", "id": "77385600-a4df-4c5b-9809-4b15d774a04c", "geometry": {"type": "Polygon", "coordinates": [[[153, 444], [145, 452], [145, 453], [141, 457], [141, 458], [138, 461], [138, 462], [132, 468], [132, 469], [129, 472], [128, 472], [127, 473], [127, 474], [120, 481], [120, 482], [118, 484], [118, 485], [114, 489], [114, 490], [113, 491], [113, 494], [114, 495], [115, 494], [116, 494], [119, 491], [121, 491], [122, 490], [122, 489], [127, 484], [128, 484], [130, 482], [133, 482], [135, 480], [136, 480], [146, 470], [146, 469], [148, 467], [148, 466], [150, 464], [150, 463], [155, 458], [155, 457], [156, 456], [156, 454], [157, 453], [157, 452], [158, 451], [158, 450], [159, 449], [159, 448], [160, 447], [159, 446], [159, 445], [158, 444], [153, 444]]]}, "properties": {"objectType": "annotation", "classification": {"name": "Connective", "color": [35, 92, 236]}}}, {"type": "Feature", "id": "243f1a20-c042-46ea-bccc-42edb15bba9a", "geometry": {"type": "Polygon", "coordinates": [[[0, 470], [0, 491], [1, 492], [4, 492], [5, 491], [6, 491], [9, 488], [9, 483], [8, 482], [8, 481], [7, 480], [7, 479], [6, 478], [6, 476], [5, 475], [5, 473], [2, 470], [0, 470]]]}, "properties": {"objectType": "annotation", "classification": {"name": "Inflammatory", "color": [34, 221, 77]}}}, {"type": "Feature", "id": "1c296573-30ef-44ef-a7eb-c40fbdab233a", "geometry": {"type": "Polygon", "coordinates": [[[45, 472], [43, 474], [43, 475], [42, 476], [42, 477], [41, 478], [41, 480], [40, 481], [40, 487], [42, 489], [42, 490], [43, 491], [44, 491], [45, 492], [53, 492], [54, 491], [55, 491], [58, 488], [58, 487], [60, 485], [60, 484], [62, 482], [62, 481], [63, 480], [63, 479], [64, 478], [64, 477], [61, 474], [60, 474], [59, 473], [58, 473], [57, 472], [45, 472]]]}, "properties": {"objectType": "annotation", "classification": {"name": "Inflammatory", "color": [34, 221, 77]}}}, {"type": "Feature", "id": "1a4571d4-8f02-4059-b638-cadd5d642738", "geometry": {"type": "Polygon", "coordinates": [[[372, 481], [370, 483], [370, 485], [371, 486], [372, 486], [373, 487], [374, 487], [375, 488], [376, 488], [377, 489], [378, 489], [380, 491], [381, 491], [383, 493], [384, 493], [387, 496], [388, 496], [389, 497], [393, 497], [396, 494], [396, 488], [393, 485], [392, 485], [391, 484], [390, 484], [389, 483], [387, 483], [386, 482], [383, 482], [382, 481], [372, 481]]]}, "properties": {"objectType": "annotation", "classification": {"name": "Connective", "color": [35, 92, 236]}}}, {"type": "Feature", "id": "867ec07c-63be-45a9-bd26-bca2fb680221", "geometry": {"type": "Polygon", "coordinates": [[[69, 482], [68, 483], [65, 483], [57, 491], [57, 492], [56, 493], [56, 494], [55, 495], [56, 496], [56, 497], [57, 497], [58, 498], [60, 498], [61, 497], [69, 497], [70, 496], [73, 496], [77, 492], [76, 491], [76, 490], [75, 489], [75, 488], [74, 487], [74, 486], [72, 484], [72, 483], [71, 482], [69, 482]]]}, "properties": {"objectType": "annotation", "classification": {"name": "Inflammatory", "color": [34, 221, 77]}}}, {"type": "Feature", "id": "75797cec-4434-480a-ba92-d94d879414e0", "geometry": {"type": "Polygon", "coordinates": [[[483, 482], [482, 483], [482, 484], [481, 485], [481, 489], [482, 490], [482, 495], [483, 496], [483, 499], [485, 501], [486, 501], [487, 502], [488, 502], [491, 505], [491, 506], [492, 507], [493, 507], [494, 508], [499, 508], [500, 507], [500, 506], [501, 505], [501, 501], [500, 500], [500, 498], [499, 497], [499, 494], [498, 493], [498, 492], [497, 491], [497, 490], [496, 489], [496, 488], [494, 486], [494, 485], [493, 485], [492, 484], [491, 484], [490, 483], [488, 483], [487, 482], [483, 482]]]}, "properties": {"objectType": "annotation", "classification": {"name": "Neoplastic", "color": [255, 0, 0]}}}, {"type": "Feature", "id": "3022de56-b458-407c-b1d3-cf03ba63d75b", "geometry": {"type": "Polygon", "coordinates": [[[337, 495], [333, 499], [333, 500], [332, 501], [332, 502], [331, 503], [331, 508], [332, 509], [332, 512], [335, 515], [336, 515], [337, 516], [341, 516], [345, 512], [345, 511], [346, 510], [346, 507], [347, 506], [347, 504], [346, 503], [346, 500], [345, 499], [345, 498], [342, 495], [337, 495]]]}, "properties": {"objectType": "annotation", "classification": {"name": "Inflammatory", "color": [34, 221, 77]}}}, {"type": "Feature", "id": "143c249e-9fc9-4392-b018-ed8d322b748a", "geometry": {"type": "Polygon", "coordinates": [[[208, 501], [207, 502], [206, 502], [205, 503], [204, 503], [203, 504], [203, 506], [204, 507], [205, 507], [206, 508], [209, 508], [210, 509], [217, 509], [218, 510], [220, 510], [221, 511], [223, 511], [224, 512], [226, 512], [227, 511], [228, 511], [228, 510], [229, 509], [229, 508], [228, 507], [228, 506], [224, 502], [223, 502], [222, 501], [208, 501]]]}, "properties": {"objectType": "annotation", "classification": {"name": "Connective", "color": [35, 92, 236]}}}, {"type": "Feature", "id": "fda0f3c6-bf69-4ebc-82ca-725da33b71d4", "geometry": {"type": "Polygon", "coordinates": [[[2, 504], [1, 505], [0, 505], [0, 516], [3, 516], [4, 515], [5, 515], [8, 512], [8, 511], [9, 510], [9, 506], [8, 505], [7, 505], [6, 504], [2, 504]]]}, "properties": {"objectType": "annotation", "classification": {"name": "Inflammatory", "color": [34, 221, 77]}}}]