[{"type": "Feature", "id": "26413c82-578a-45cb-84aa-b0addec52c75", "geometry": {"type": "Polygon", "coordinates": [[[316, 0], [315, 1], [312, 1], [315, 4], [315, 8], [316, 9], [316, 11], [319, 14], [319, 15], [321, 17], [322, 17], [324, 19], [325, 19], [326, 20], [328, 20], [329, 21], [332, 21], [333, 20], [337, 20], [338, 19], [340, 19], [341, 18], [343, 18], [344, 17], [345, 17], [348, 14], [348, 10], [347, 9], [347, 8], [346, 7], [346, 6], [341, 1], [340, 1], [339, 0], [316, 0]]]}, "properties": {"objectType": "annotation", "classification": {"name": "Neoplastic", "color": [255, 0, 0]}}}, {"type": "Feature", "id": "aa418812-bab9-4305-8c69-5a903441393d", "geometry": {"type": "Polygon", "coordinates": [[[435, 0], [433, 2], [432, 2], [430, 4], [429, 4], [428, 5], [427, 5], [425, 7], [424, 7], [423, 8], [422, 8], [421, 9], [420, 9], [417, 12], [416, 11], [415, 12], [415, 13], [416, 13], [417, 14], [417, 16], [414, 19], [411, 19], [410, 20], [410, 21], [409, 22], [409, 26], [411, 28], [416, 28], [418, 26], [419, 26], [420, 25], [422, 25], [423, 24], [430, 24], [431, 23], [432, 23], [434, 21], [435, 21], [436, 20], [437, 20], [440, 17], [441, 17], [442, 16], [443, 16], [444, 15], [446, 15], [449, 12], [450, 12], [451, 11], [452, 11], [459, 4], [459, 3], [460, 2], [460, 0], [435, 0]]]}, "properties": {"objectType": "annotation", "classification": {"name": "Connective", "color": [35, 92, 236]}}}, {"type": "Feature", "id": "38aaf8e7-4584-4d83-9845-7f55b7d0a7a1", "geometry": {"type": "Polygon", "coordinates": [[[283, 1], [280, 4], [279, 4], [279, 5], [276, 8], [276, 9], [275, 10], [275, 12], [274, 13], [274, 15], [273, 16], [273, 19], [272, 20], [272, 24], [273, 25], [273, 27], [275, 29], [275, 30], [280, 35], [281, 35], [282, 36], [290, 36], [291, 37], [293, 37], [294, 36], [296, 36], [301, 31], [301, 30], [302, 29], [302, 26], [303, 25], [303, 20], [302, 19], [302, 17], [301, 16], [301, 15], [299, 13], [299, 12], [289, 2], [288, 2], [287, 1], [283, 1]]]}, "properties": {"objectType": "annotation", "classification": {"name": "Neoplastic", "color": [255, 0, 0]}}}, {"type": "Feature", "id": "faa7ca61-12b5-475c-b4c7-617af0a48a3b", "geometry": {"type": "Polygon", "coordinates": [[[10, 6], [9, 7], [7, 7], [6, 8], [3, 8], [2, 9], [0, 9], [0, 47], [1, 48], [2, 47], [5, 47], [6, 46], [7, 46], [9, 44], [10, 44], [13, 41], [13, 40], [16, 37], [16, 36], [18, 34], [18, 33], [19, 32], [19, 31], [20, 30], [20, 29], [21, 28], [21, 27], [22, 26], [22, 24], [23, 23], [23, 17], [22, 16], [22, 13], [21, 12], [21, 11], [18, 8], [17, 8], [16, 7], [15, 7], [14, 6], [10, 6]]]}, "properties": {"objectType": "annotation", "classification": {"name": "Neoplastic", "color": [255, 0, 0]}}}, {"type": "Feature", "id": "b4733e93-efbb-4f8e-871e-0687dfa1ad69", "geometry": {"type": "Polygon", "coordinates": [[[264, 9], [263, 10], [250, 10], [249, 11], [247, 11], [246, 12], [246, 13], [243, 16], [243, 18], [242, 19], [242, 20], [241, 21], [241, 23], [240, 24], [240, 32], [241, 33], [241, 35], [243, 37], [243, 38], [245, 40], [246, 40], [248, 42], [254, 42], [255, 41], [257, 41], [258, 40], [259, 40], [261, 38], [261, 37], [262, 36], [262, 35], [263, 34], [263, 33], [264, 32], [264, 31], [265, 30], [265, 29], [266, 28], [266, 26], [267, 25], [267, 24], [268, 23], [268, 22], [269, 21], [269, 12], [267, 10], [266, 10], [265, 9], [264, 9]]]}, "properties": {"objectType": "annotation", "classification": {"name": "Neoplastic", "color": [255, 0, 0]}}}, {"type": "Feature", "id": "90b98f83-48fc-4bad-ad71-c0c904868b19", "geometry": {"type": "Polygon", "coordinates": [[[56, 11], [55, 12], [54, 12], [53, 13], [52, 13], [47, 18], [47, 21], [46, 22], [46, 30], [47, 31], [47, 34], [48, 35], [48, 37], [49, 38], [49, 39], [50, 40], [50, 41], [53, 44], [54, 44], [55, 45], [56, 45], [57, 46], [60, 46], [61, 45], [63, 45], [65, 43], [66, 43], [71, 38], [71, 36], [72, 35], [72, 32], [73, 31], [73, 22], [72, 21], [72, 18], [71, 17], [71, 15], [68, 12], [67, 12], [66, 11], [56, 11]]]}, "properties": {"objectType": "annotation", "classification": {"name": "Neoplastic", "color": [255, 0, 0]}}}, {"type": "Feature", "id": "2bebb766-7a4c-4256-a956-f7b24a821d53", "geometry": {"type": "Polygon", "coordinates": [[[101, 13], [100, 14], [97, 14], [96, 15], [95, 15], [92, 18], [92, 19], [91, 20], [91, 27], [92, 28], [92, 29], [93, 30], [93, 31], [95, 33], [95, 34], [100, 39], [101, 39], [104, 42], [105, 42], [107, 44], [108, 44], [109, 45], [110, 45], [111, 46], [120, 46], [121, 45], [122, 45], [123, 44], [124, 44], [129, 39], [129, 38], [130, 37], [130, 35], [131, 34], [131, 30], [130, 29], [130, 25], [129, 24], [129, 23], [128, 22], [128, 21], [127, 20], [127, 19], [126, 19], [124, 17], [122, 17], [121, 16], [115, 16], [114, 15], [112, 15], [111, 14], [110, 14], [109, 13], [101, 13]]]}, "properties": {"objectType": "annotation", "classification": {"name": "Neoplastic", "color": [255, 0, 0]}}}, {"type": "Feature", "id": "200dcd7e-b154-4a4b-8e8e-814eb0729a79", "geometry": {"type": "Polygon", "coordinates": [[[26, 27], [20, 33], [20, 35], [19, 36], [19, 39], [18, 40], [18, 48], [19, 49], [19, 50], [20, 51], [20, 52], [21, 53], [21, 54], [27, 60], [27, 61], [31, 65], [34, 65], [35, 66], [41, 66], [42, 65], [44, 65], [45, 64], [46, 64], [47, 63], [47, 62], [48, 61], [48, 59], [49, 58], [49, 56], [48, 55], [48, 54], [47, 53], [47, 52], [46, 51], [45, 51], [43, 49], [43, 48], [42, 47], [42, 37], [41, 36], [41, 34], [39, 32], [39, 31], [38, 30], [37, 30], [35, 28], [34, 28], [33, 27], [26, 27]]]}, "properties": {"objectType": "annotation", "classification": {"name": "Neoplastic", "color": [255, 0, 0]}}}, {"type": "Feature", "id": "068bfcc8-93f7-4782-86aa-b3d609d9f809", "geometry": {"type": "Polygon", "coordinates": [[[186, 30], [185, 31], [183, 31], [182, 32], [181, 32], [179, 34], [178, 34], [176, 36], [176, 37], [174, 39], [174, 40], [173, 41], [173, 45], [172, 46], [172, 56], [173, 57], [173, 58], [174, 59], [174, 60], [175, 61], [176, 61], [177, 62], [179, 62], [180, 63], [187, 63], [188, 62], [191, 62], [192, 61], [193, 61], [194, 60], [195, 60], [198, 57], [198, 56], [199, 55], [199, 46], [198, 45], [198, 44], [199, 43], [198, 42], [198, 36], [197, 35], [197, 34], [196, 33], [196, 32], [195, 31], [194, 31], [193, 30], [186, 30]]]}, "properties": {"objectType": "annotation", "classification": {"name": "Neoplastic", "color": [255, 0, 0]}}}, {"type": "Feature", "id": "39a368f5-a132-4578-ae1d-f91a609a215f", "geometry": {"type": "Polygon", "coordinates": [[[224, 33], [223, 34], [220, 34], [219, 35], [217, 35], [216, 36], [213, 36], [212, 37], [210, 37], [209, 38], [208, 38], [205, 41], [205, 42], [204, 43], [204, 45], [203, 46], [203, 48], [202, 49], [202, 55], [203, 56], [203, 59], [206, 62], [208, 62], [209, 63], [211, 63], [212, 64], [216, 64], [217, 65], [222, 65], [223, 64], [227, 64], [229, 62], [230, 62], [234, 58], [234, 57], [235, 56], [235, 54], [236, 53], [236, 45], [235, 44], [235, 42], [234, 41], [234, 40], [233, 39], [233, 38], [231, 36], [230, 36], [228, 34], [227, 34], [226, 33], [224, 33]]]}, "properties": {"objectType": "annotation", "classification": {"name": "Neoplastic", "color": [255, 0, 0]}}}, {"type": "Feature", "id": "ac9d039e-676e-4884-8d44-a6864f2a6342", "geometry": {"type": "Polygon", "coordinates": [[[417, 34], [416, 35], [415, 35], [414, 36], [413, 36], [399, 50], [399, 54], [400, 55], [404, 55], [420, 39], [420, 36], [419, 35], [418, 35], [417, 34]]]}, "properties": {"objectType": "annotation", "classification": {"name": "Connective", "color": [35, 92, 236]}}}, {"type": "Feature", "id": "ab5f0f57-99b9-43bb-8554-78c66d0fa1f0", "geometry": {"type": "Polygon", "coordinates": [[[465, 39], [464, 40], [462, 40], [461, 41], [460, 41], [459, 42], [457, 42], [455, 44], [455, 46], [454, 47], [454, 49], [452, 51], [452, 53], [451, 54], [451, 59], [452, 60], [452, 65], [453, 66], [453, 69], [454, 70], [454, 71], [456, 73], [458, 73], [459, 74], [461, 74], [462, 73], [469, 73], [470, 72], [471, 72], [472, 71], [473, 71], [474, 70], [476, 70], [478, 68], [479, 68], [480, 67], [481, 67], [483, 65], [483, 64], [484, 63], [484, 60], [483, 59], [483, 58], [481, 56], [481, 55], [480, 54], [479, 54], [476, 51], [474, 51], [473, 50], [472, 50], [471, 49], [471, 47], [472, 46], [472, 44], [473, 43], [473, 39], [465, 39]]]}, "properties": {"objectType": "annotation", "classification": {"name": "Neoplastic", "color": [255, 0, 0]}}}, {"type": "Feature", "id": "56d02ce8-e3dc-4a1a-98fc-a05e44f0562e", "geometry": {"type": "Polygon", "coordinates": [[[85, 44], [84, 45], [82, 45], [79, 48], [79, 50], [78, 51], [78, 54], [77, 55], [77, 56], [76, 57], [76, 58], [75, 59], [75, 60], [73, 62], [73, 63], [72, 64], [72, 70], [73, 71], [73, 72], [78, 77], [78, 78], [81, 81], [82, 81], [83, 82], [86, 82], [87, 83], [93, 83], [94, 82], [96, 82], [97, 81], [98, 81], [100, 79], [100, 78], [102, 76], [102, 74], [103, 73], [103, 72], [104, 71], [104, 70], [105, 69], [105, 66], [106, 65], [106, 58], [105, 57], [105, 55], [103, 53], [103, 52], [102, 51], [101, 51], [100, 50], [99, 50], [98, 49], [96, 49], [95, 48], [91, 48], [90, 47], [89, 47], [87, 45], [86, 45], [85, 44]]]}, "properties": {"objectType": "annotation", "classification": {"name": "Neoplastic", "color": [255, 0, 0]}}}, {"type": "Feature", "id": "73bc64d9-5d08-4fba-8c53-a46c0b524f73", "geometry": {"type": "Polygon", "coordinates": [[[156, 44], [155, 45], [153, 45], [152, 46], [151, 46], [145, 52], [145, 53], [144, 54], [144, 55], [143, 56], [143, 57], [142, 58], [142, 59], [141, 60], [141, 64], [140, 65], [140, 69], [141, 70], [141, 73], [145, 77], [146, 77], [147, 78], [153, 78], [154, 77], [156, 77], [157, 76], [158, 76], [164, 70], [164, 69], [165, 68], [165, 67], [166, 66], [166, 62], [167, 61], [167, 54], [166, 53], [166, 50], [165, 49], [165, 48], [162, 45], [159, 45], [158, 44], [156, 44]]]}, "properties": {"objectType": "annotation", "classification": {"name": "Neoplastic", "color": [255, 0, 0]}}}, {"type": "Feature", "id": "0c5245f0-1b2a-48cc-a0d4-41af0baddd48", "geometry": {"type": "Polygon", "coordinates": [[[6, 49], [5, 50], [0, 50], [0, 73], [1, 74], [8, 74], [9, 73], [11, 73], [13, 71], [13, 70], [15, 68], [15, 67], [16, 66], [16, 65], [17, 64], [17, 56], [16, 55], [16, 54], [14, 52], [13, 52], [12, 51], [11, 51], [10, 50], [8, 50], [7, 49], [6, 49]]]}, "properties": {"objectType": "annotation", "classification": {"name": "Neoplastic", "color": [255, 0, 0]}}}, {"type": "Feature", "id": "c9dd70e3-c921-4b61-ac66-1aa63cb9f168", "geometry": {"type": "Polygon", "coordinates": [[[206, 65], [205, 66], [202, 66], [201, 67], [200, 67], [199, 68], [198, 68], [197, 69], [196, 69], [195, 70], [194, 70], [189, 75], [189, 77], [188, 78], [188, 80], [187, 81], [187, 86], [188, 87], [188, 89], [189, 90], [189, 91], [191, 93], [191, 94], [194, 97], [195, 97], [196, 98], [197, 98], [198, 99], [199, 99], [200, 100], [205, 100], [206, 99], [209, 99], [210, 98], [211, 98], [216, 93], [216, 92], [217, 91], [217, 90], [218, 89], [218, 87], [219, 86], [219, 82], [218, 81], [218, 76], [217, 75], [217, 71], [216, 70], [216, 69], [215, 68], [214, 68], [213, 67], [212, 67], [211, 66], [207, 66], [206, 65]]]}, "properties": {"objectType": "annotation", "classification": {"name": "Neoplastic", "color": [255, 0, 0]}}}, {"type": "Feature", "id": "cf394b4a-18bc-48df-9fd2-5b818d989158", "geometry": {"type": "Polygon", "coordinates": [[[228, 74], [228, 75], [226, 77], [226, 78], [223, 81], [223, 82], [222, 83], [222, 84], [221, 85], [221, 87], [220, 88], [220, 102], [221, 103], [221, 105], [222, 106], [222, 107], [226, 111], [227, 111], [228, 112], [230, 112], [231, 113], [235, 113], [236, 112], [237, 112], [238, 111], [239, 111], [241, 109], [241, 108], [243, 106], [243, 104], [244, 103], [244, 101], [245, 100], [245, 94], [246, 93], [245, 92], [245, 86], [244, 85], [244, 84], [243, 83], [243, 82], [242, 81], [242, 80], [237, 75], [236, 75], [235, 74], [228, 74]]]}, "properties": {"objectType": "annotation", "classification": {"name": "Neoplastic", "color": [255, 0, 0]}}}, {"type": "Feature", "id": "61bb0233-cfbc-4213-9452-e9d8c8d9fed1", "geometry": {"type": "Polygon", "coordinates": [[[153, 84], [152, 85], [150, 85], [149, 86], [148, 86], [147, 87], [147, 94], [148, 95], [148, 97], [149, 98], [149, 100], [150, 101], [150, 104], [151, 105], [151, 110], [152, 111], [152, 113], [153, 114], [153, 115], [160, 122], [161, 122], [162, 123], [164, 123], [165, 122], [168, 122], [178, 112], [178, 111], [179, 110], [179, 109], [180, 108], [180, 107], [181, 106], [181, 103], [182, 102], [181, 101], [181, 98], [180, 97], [180, 96], [179, 95], [179, 94], [178, 93], [178, 91], [176, 89], [176, 88], [175, 88], [173, 86], [170, 86], [169, 85], [163, 85], [162, 84], [153, 84]]]}, "properties": {"objectType": "annotation", "classification": {"name": "Neoplastic", "color": [255, 0, 0]}}}, {"type": "Feature", "id": "3b16c740-fe66-4236-9059-b4b21a160353", "geometry": {"type": "Polygon", "coordinates": [[[62, 88], [61, 89], [59, 89], [57, 91], [56, 91], [54, 93], [54, 97], [56, 99], [58, 99], [59, 100], [61, 100], [62, 101], [66, 101], [67, 100], [69, 100], [71, 98], [72, 98], [73, 97], [76, 97], [77, 96], [79, 96], [81, 94], [81, 93], [82, 92], [82, 91], [81, 90], [81, 89], [80, 88], [70, 88], [69, 89], [68, 88], [62, 88]]]}, "properties": {"objectType": "annotation", "classification": {"name": "Connective", "color": [35, 92, 236]}}}, {"type": "Feature", "id": "594140b6-7528-4a0c-89dc-ff170c30c2ee", "geometry": {"type": "Polygon", "coordinates": [[[45, 99], [44, 100], [42, 100], [41, 101], [40, 101], [38, 103], [37, 103], [34, 106], [33, 106], [27, 112], [27, 115], [28, 116], [29, 116], [30, 117], [36, 117], [37, 116], [42, 116], [43, 115], [46, 115], [47, 114], [49, 114], [50, 113], [53, 113], [54, 112], [58, 112], [59, 111], [61, 111], [63, 109], [63, 108], [64, 107], [64, 105], [61, 102], [60, 102], [58, 100], [56, 100], [55, 99], [45, 99]]]}, "properties": {"objectType": "annotation", "classification": {"name": "Connective", "color": [35, 92, 236]}}}, {"type": "Feature", "id": "30b4a603-b234-444a-9953-e57e1104bdc3", "geometry": {"type": "Polygon", "coordinates": [[[284, 98], [281, 101], [280, 101], [279, 102], [278, 102], [275, 105], [274, 105], [272, 107], [271, 107], [268, 110], [268, 111], [264, 115], [264, 116], [263, 117], [263, 118], [260, 121], [260, 122], [259, 123], [259, 124], [258, 125], [258, 129], [259, 130], [259, 131], [262, 134], [273, 134], [274, 133], [276, 133], [277, 132], [278, 132], [279, 131], [280, 131], [281, 130], [282, 130], [283, 129], [285, 129], [287, 127], [288, 127], [288, 126], [291, 123], [291, 122], [292, 121], [292, 120], [293, 119], [293, 117], [294, 116], [294, 111], [295, 110], [295, 102], [294, 101], [294, 100], [292, 98], [284, 98]]]}, "properties": {"objectType": "annotation", "classification": {"name": "Connective", "color": [35, 92, 236]}}}, {"type": "Feature", "id": "7db111dc-853a-4238-9ad8-26f3c429b351", "geometry": {"type": "Polygon", "coordinates": [[[308, 97], [307, 98], [306, 98], [304, 100], [303, 100], [301, 102], [301, 103], [299, 105], [299, 108], [298, 109], [298, 113], [299, 114], [299, 120], [300, 121], [300, 122], [301, 123], [301, 124], [302, 125], [302, 126], [304, 128], [305, 128], [306, 129], [308, 129], [309, 128], [310, 128], [313, 125], [313, 124], [314, 123], [314, 121], [315, 120], [315, 105], [314, 104], [314, 102], [313, 101], [313, 100], [311, 98], [310, 98], [309, 97], [308, 97]]]}, "properties": {"objectType": "annotation", "classification": {"name": "Connective", "color": [35, 92, 236]}}}, {"type": "Feature", "id": "d41c41a5-04b6-4b53-946e-092bd2d55870", "geometry": {"type": "Polygon", "coordinates": [[[189, 104], [187, 106], [187, 107], [185, 109], [185, 116], [188, 119], [188, 120], [189, 120], [192, 123], [193, 123], [194, 124], [195, 124], [196, 125], [206, 125], [210, 121], [210, 117], [209, 116], [209, 115], [207, 113], [206, 113], [205, 112], [204, 112], [203, 111], [202, 111], [201, 110], [200, 110], [196, 106], [195, 106], [194, 105], [193, 105], [192, 104], [189, 104]]]}, "properties": {"objectType": "annotation", "classification": {"name": "Neoplastic", "color": [255, 0, 0]}}}, {"type": "Feature", "id": "e9d2d6c5-2698-4676-9093-89cd8df66ff9", "geometry": {"type": "Polygon", "coordinates": [[[441, 106], [440, 107], [438, 107], [437, 108], [420, 108], [419, 109], [417, 109], [416, 110], [413, 110], [411, 112], [411, 116], [412, 117], [412, 118], [413, 119], [413, 120], [418, 125], [419, 125], [420, 126], [422, 126], [423, 127], [431, 127], [432, 126], [434, 126], [435, 125], [437, 125], [440, 122], [441, 122], [442, 121], [443, 121], [445, 119], [446, 119], [450, 115], [450, 114], [451, 113], [451, 111], [450, 110], [450, 108], [448, 106], [441, 106]]]}, "properties": {"objectType": "annotation", "classification": {"name": "Connective", "color": [35, 92, 236]}}}, {"type": "Feature", "id": "fcf9773f-efca-49f8-9df0-2ec93faf179d", "geometry": {"type": "Polygon", "coordinates": [[[68, 126], [67, 127], [64, 127], [63, 128], [61, 128], [60, 129], [59, 129], [56, 132], [56, 133], [54, 135], [54, 136], [51, 139], [50, 139], [49, 140], [47, 140], [46, 141], [45, 141], [44, 142], [43, 142], [42, 143], [41, 143], [40, 144], [40, 147], [39, 148], [39, 149], [38, 150], [38, 158], [39, 159], [39, 161], [40, 162], [40, 163], [42, 165], [43, 165], [45, 167], [46, 167], [47, 168], [49, 168], [50, 169], [57, 169], [58, 168], [61, 168], [63, 166], [64, 166], [66, 164], [66, 163], [68, 161], [68, 160], [69, 159], [69, 158], [70, 157], [70, 156], [71, 155], [71, 154], [72, 153], [72, 152], [74, 150], [74, 149], [76, 147], [76, 146], [77, 145], [77, 144], [78, 143], [78, 142], [79, 141], [79, 140], [80, 139], [80, 138], [81, 137], [81, 136], [82, 135], [82, 133], [83, 132], [83, 130], [80, 127], [76, 127], [75, 126], [68, 126]]]}, "properties": {"objectType": "annotation", "classification": {"name": "Neoplastic", "color": [255, 0, 0]}}}, {"type": "Feature", "id": "d9702334-f4c3-4229-8153-d1822041efc2", "geometry": {"type": "Polygon", "coordinates": [[[95, 134], [94, 135], [93, 135], [92, 136], [91, 136], [85, 142], [85, 143], [84, 144], [84, 145], [83, 146], [83, 148], [82, 149], [82, 158], [83, 159], [83, 160], [84, 161], [84, 162], [87, 165], [88, 165], [89, 166], [92, 166], [93, 167], [102, 167], [103, 166], [105, 166], [106, 165], [107, 165], [111, 161], [111, 148], [110, 147], [110, 143], [109, 142], [109, 140], [107, 138], [107, 137], [106, 137], [105, 136], [104, 136], [103, 135], [101, 135], [100, 134], [95, 134]]]}, "properties": {"objectType": "annotation", "classification": {"name": "Neoplastic", "color": [255, 0, 0]}}}, {"type": "Feature", "id": "c8696ec4-5de4-46a1-833d-11fe9c43b40d", "geometry": {"type": "Polygon", "coordinates": [[[210, 143], [209, 144], [205, 144], [204, 145], [203, 145], [201, 147], [200, 147], [199, 148], [198, 148], [198, 149], [197, 150], [197, 151], [195, 153], [195, 154], [188, 161], [188, 162], [187, 163], [187, 166], [188, 167], [188, 168], [189, 169], [193, 169], [194, 170], [195, 170], [196, 169], [201, 169], [202, 168], [205, 168], [206, 167], [207, 167], [208, 166], [209, 166], [210, 165], [211, 165], [214, 162], [215, 162], [219, 158], [219, 157], [221, 155], [221, 153], [222, 152], [222, 151], [221, 150], [221, 148], [220, 147], [219, 147], [217, 145], [215, 145], [214, 144], [211, 144], [210, 143]]]}, "properties": {"objectType": "annotation", "classification": {"name": "Connective", "color": [35, 92, 236]}}}, {"type": "Feature", "id": "082f9843-25c7-4bf8-9491-a9426e1cb0d9", "geometry": {"type": "Polygon", "coordinates": [[[295, 143], [294, 144], [283, 144], [282, 145], [281, 145], [275, 151], [275, 152], [274, 153], [274, 163], [275, 164], [275, 165], [281, 171], [282, 171], [283, 172], [285, 172], [286, 173], [295, 173], [296, 172], [299, 172], [301, 170], [303, 170], [305, 168], [306, 168], [309, 165], [310, 165], [312, 163], [313, 163], [315, 161], [316, 161], [318, 159], [318, 151], [314, 147], [313, 147], [312, 146], [311, 146], [310, 145], [308, 145], [307, 144], [302, 144], [301, 143], [295, 143]]]}, "properties": {"objectType": "annotation", "classification": {"name": "Neoplastic", "color": [255, 0, 0]}}}, {"type": "Feature", "id": "1f120422-f847-428f-9617-63ff0aa0b7e6", "geometry": {"type": "Polygon", "coordinates": [[[22, 146], [21, 147], [20, 147], [19, 148], [17, 148], [15, 150], [14, 150], [11, 153], [11, 154], [8, 157], [8, 158], [7, 159], [7, 167], [8, 168], [8, 169], [14, 175], [15, 175], [16, 176], [17, 176], [18, 177], [20, 177], [21, 178], [25, 178], [26, 177], [28, 177], [29, 176], [30, 176], [33, 173], [33, 172], [36, 169], [36, 167], [37, 166], [37, 164], [36, 163], [36, 158], [35, 157], [35, 154], [34, 153], [34, 151], [33, 150], [33, 148], [32, 147], [26, 147], [25, 146], [22, 146]]]}, "properties": {"objectType": "annotation", "classification": {"name": "Neoplastic", "color": [255, 0, 0]}}}, {"type": "Feature", "id": "8f60c611-1cd8-46e1-912b-1e247157ad11", "geometry": {"type": "Polygon", "coordinates": [[[474, 154], [473, 155], [465, 155], [464, 156], [463, 156], [460, 159], [460, 161], [459, 162], [459, 173], [461, 175], [461, 176], [462, 177], [462, 178], [464, 180], [465, 180], [466, 181], [476, 181], [477, 180], [479, 180], [485, 174], [485, 173], [486, 172], [486, 171], [487, 170], [487, 169], [488, 168], [488, 165], [489, 164], [489, 163], [488, 162], [488, 159], [486, 157], [485, 157], [484, 156], [483, 156], [482, 155], [480, 155], [479, 154], [474, 154]]]}, "properties": {"objectType": "annotation", "classification": {"name": "Neoplastic", "color": [255, 0, 0]}}}, {"type": "Feature", "id": "aefca6c8-8828-4b13-b0f7-8bf584750b56", "geometry": {"type": "Polygon", "coordinates": [[[110, 181], [109, 182], [108, 182], [107, 183], [106, 183], [105, 184], [104, 184], [99, 189], [99, 191], [98, 192], [98, 194], [97, 195], [97, 196], [96, 197], [96, 198], [95, 199], [95, 200], [94, 201], [94, 204], [93, 205], [93, 206], [94, 207], [94, 209], [96, 211], [102, 211], [103, 210], [105, 210], [106, 209], [107, 209], [108, 208], [111, 208], [112, 207], [114, 207], [115, 206], [119, 206], [121, 204], [122, 204], [124, 202], [124, 201], [126, 199], [126, 197], [127, 196], [127, 188], [126, 187], [126, 186], [125, 185], [124, 185], [123, 184], [121, 184], [120, 183], [119, 183], [118, 182], [116, 182], [115, 181], [110, 181]]]}, "properties": {"objectType": "annotation", "classification": {"name": "Connective", "color": [35, 92, 236]}}}, {"type": "Feature", "id": "b31622c8-7999-497e-9c8b-44fd6d31cffa", "geometry": {"type": "Polygon", "coordinates": [[[436, 181], [435, 182], [432, 182], [431, 183], [429, 183], [428, 184], [427, 184], [426, 185], [425, 185], [420, 190], [420, 191], [419, 192], [419, 196], [418, 197], [418, 202], [419, 203], [419, 206], [420, 207], [420, 208], [421, 209], [421, 210], [422, 211], [422, 212], [424, 214], [424, 215], [426, 217], [427, 217], [429, 219], [431, 219], [432, 220], [437, 220], [438, 219], [439, 219], [448, 210], [448, 209], [450, 207], [450, 192], [449, 191], [449, 188], [448, 187], [448, 186], [444, 182], [442, 182], [441, 181], [436, 181]]]}, "properties": {"objectType": "annotation", "classification": {"name": "Neoplastic", "color": [255, 0, 0]}}}, {"type": "Feature", "id": "99df9011-85c4-41ce-8b63-b2f58f080443", "geometry": {"type": "Polygon", "coordinates": [[[388, 182], [387, 183], [386, 183], [385, 184], [384, 184], [381, 187], [381, 188], [379, 190], [379, 191], [378, 192], [378, 201], [379, 202], [379, 205], [380, 206], [380, 208], [381, 209], [381, 210], [390, 219], [391, 219], [393, 221], [395, 221], [396, 222], [399, 222], [400, 223], [404, 223], [405, 222], [406, 222], [408, 220], [408, 219], [409, 218], [409, 211], [408, 210], [408, 208], [407, 207], [407, 206], [406, 205], [406, 204], [404, 202], [404, 201], [401, 198], [401, 197], [400, 196], [400, 195], [399, 194], [399, 193], [398, 192], [398, 191], [397, 190], [397, 189], [396, 188], [396, 186], [395, 185], [395, 184], [394, 183], [393, 183], [392, 182], [388, 182]]]}, "properties": {"objectType": "annotation", "classification": {"name": "Neoplastic", "color": [255, 0, 0]}}}, {"type": "Feature", "id": "ebabeb6f-41aa-4941-ab4e-44321b820734", "geometry": {"type": "Polygon", "coordinates": [[[303, 196], [302, 197], [299, 197], [298, 198], [296, 198], [295, 199], [293, 199], [292, 200], [291, 200], [290, 201], [289, 201], [288, 202], [287, 202], [286, 203], [285, 203], [282, 206], [282, 211], [284, 213], [285, 213], [286, 214], [296, 214], [297, 215], [303, 215], [304, 214], [305, 214], [306, 213], [307, 213], [308, 212], [308, 211], [310, 209], [310, 208], [311, 207], [311, 206], [312, 205], [312, 202], [313, 201], [313, 198], [311, 196], [303, 196]]]}, "properties": {"objectType": "annotation", "classification": {"name": "Neoplastic", "color": [255, 0, 0]}}}, {"type": "Feature", "id": "3b6253cf-f9c5-4704-8216-5aa84a6f3ea2", "geometry": {"type": "Polygon", "coordinates": [[[262, 206], [261, 207], [259, 207], [258, 208], [257, 208], [253, 212], [253, 232], [255, 234], [258, 234], [259, 235], [260, 234], [263, 234], [264, 233], [265, 233], [266, 232], [267, 232], [268, 231], [268, 230], [271, 227], [271, 226], [272, 225], [272, 224], [273, 223], [273, 221], [274, 220], [274, 215], [273, 214], [273, 212], [269, 208], [268, 208], [267, 207], [264, 207], [263, 206], [262, 206]]]}, "properties": {"objectType": "annotation", "classification": {"name": "Neoplastic", "color": [255, 0, 0]}}}, {"type": "Feature", "id": "08cc4c74-914b-4cf1-9150-ce559b294983", "geometry": {"type": "Polygon", "coordinates": [[[372, 212], [371, 213], [370, 213], [368, 215], [368, 217], [367, 218], [367, 224], [368, 225], [368, 234], [369, 235], [369, 238], [370, 239], [370, 242], [371, 243], [371, 244], [372, 245], [372, 246], [376, 250], [377, 250], [380, 253], [381, 253], [382, 254], [385, 254], [387, 252], [387, 251], [388, 250], [388, 249], [389, 248], [389, 247], [390, 246], [390, 241], [391, 240], [391, 239], [390, 238], [390, 235], [389, 234], [389, 231], [388, 230], [388, 229], [387, 228], [387, 227], [386, 226], [386, 225], [385, 224], [385, 222], [382, 219], [382, 218], [381, 217], [380, 217], [379, 216], [378, 216], [374, 212], [372, 212]]]}, "properties": {"objectType": "annotation", "classification": {"name": "Connective", "color": [35, 92, 236]}}}, {"type": "Feature", "id": "dea0509c-6af6-4f79-989f-031295b02655", "geometry": {"type": "Polygon", "coordinates": [[[332, 214], [331, 215], [330, 215], [328, 217], [328, 218], [327, 219], [327, 220], [326, 221], [326, 222], [325, 223], [325, 224], [323, 226], [323, 227], [322, 228], [322, 236], [323, 237], [323, 240], [324, 241], [324, 243], [327, 246], [328, 246], [329, 247], [333, 247], [334, 246], [336, 246], [341, 241], [341, 240], [342, 239], [342, 238], [343, 237], [343, 235], [344, 234], [344, 224], [343, 223], [343, 221], [342, 220], [342, 219], [341, 218], [341, 217], [339, 215], [338, 215], [337, 214], [332, 214]]]}, "properties": {"objectType": "annotation", "classification": {"name": "Neoplastic", "color": [255, 0, 0]}}}, {"type": "Feature", "id": "18c037d3-79b9-4141-a1e7-fb5d5577d022", "geometry": {"type": "Polygon", "coordinates": [[[104, 220], [103, 221], [100, 221], [95, 226], [95, 229], [96, 230], [97, 230], [98, 231], [106, 231], [110, 227], [110, 223], [109, 222], [108, 222], [107, 221], [105, 221], [104, 220]]]}, "properties": {"objectType": "annotation", "classification": {"name": "Inflammatory", "color": [34, 221, 77]}}}, {"type": "Feature", "id": "ca261cfb-9872-43c6-ade6-fe43624fd6ff", "geometry": {"type": "Polygon", "coordinates": [[[467, 218], [466, 219], [462, 219], [458, 223], [458, 225], [457, 226], [457, 227], [458, 228], [458, 230], [459, 231], [459, 232], [460, 233], [460, 235], [462, 237], [462, 238], [464, 240], [465, 240], [468, 243], [469, 243], [471, 245], [471, 246], [472, 247], [472, 248], [473, 249], [473, 250], [474, 251], [474, 252], [475, 253], [475, 255], [479, 259], [480, 259], [481, 260], [487, 260], [488, 259], [489, 259], [489, 258], [491, 256], [491, 253], [492, 252], [492, 245], [491, 244], [491, 243], [490, 242], [490, 240], [489, 239], [489, 238], [488, 237], [488, 235], [487, 234], [487, 231], [486, 230], [486, 229], [485, 228], [485, 227], [482, 224], [481, 224], [478, 221], [477, 221], [476, 220], [475, 220], [474, 219], [469, 219], [468, 218], [467, 218]]]}, "properties": {"objectType": "annotation", "classification": {"name": "Neoplastic", "color": [255, 0, 0]}}}, {"type": "Feature", "id": "7a74f155-64ef-4409-9bda-3f2364e4fbe6", "geometry": {"type": "Polygon", "coordinates": [[[288, 220], [287, 221], [284, 221], [283, 222], [282, 222], [278, 226], [278, 227], [277, 228], [277, 229], [276, 230], [276, 236], [277, 237], [277, 238], [283, 244], [284, 244], [285, 245], [291, 245], [292, 244], [293, 244], [294, 243], [295, 243], [296, 242], [296, 241], [300, 237], [300, 235], [301, 234], [301, 232], [300, 231], [300, 229], [299, 228], [299, 227], [297, 225], [297, 224], [296, 223], [295, 223], [293, 221], [289, 221], [288, 220]]]}, "properties": {"objectType": "annotation", "classification": {"name": "Neoplastic", "color": [255, 0, 0]}}}, {"type": "Feature", "id": "a941870f-e9e7-448b-8a93-27c8914eb62b", "geometry": {"type": "Polygon", "coordinates": [[[55, 224], [54, 225], [53, 225], [51, 227], [51, 228], [50, 229], [50, 230], [49, 231], [49, 237], [50, 238], [50, 239], [51, 240], [51, 241], [54, 244], [55, 244], [57, 246], [58, 246], [59, 247], [60, 247], [62, 249], [63, 249], [64, 250], [65, 250], [66, 251], [67, 251], [68, 252], [69, 252], [70, 253], [72, 253], [73, 252], [76, 252], [82, 246], [82, 245], [83, 244], [83, 236], [82, 235], [82, 234], [80, 232], [80, 231], [79, 231], [76, 228], [75, 228], [74, 227], [72, 227], [71, 226], [69, 226], [68, 225], [63, 225], [62, 224], [55, 224]]]}, "properties": {"objectType": "annotation", "classification": {"name": "Neoplastic", "color": [255, 0, 0]}}}, {"type": "Feature", "id": "de2b19b4-77cb-4d61-82d8-f5cbb4c7cf49", "geometry": {"type": "Polygon", "coordinates": [[[265, 239], [264, 240], [262, 240], [261, 241], [260, 241], [259, 242], [256, 242], [255, 243], [254, 243], [249, 248], [249, 249], [248, 250], [248, 251], [247, 252], [247, 254], [246, 255], [246, 256], [245, 257], [245, 259], [244, 260], [244, 268], [245, 269], [245, 270], [249, 274], [251, 274], [252, 275], [254, 275], [255, 274], [260, 274], [261, 273], [266, 273], [267, 272], [268, 272], [269, 271], [270, 271], [271, 270], [272, 270], [273, 269], [275, 269], [279, 265], [279, 264], [280, 263], [280, 262], [281, 261], [281, 258], [282, 257], [282, 253], [281, 252], [281, 249], [280, 248], [280, 246], [278, 244], [278, 243], [277, 242], [276, 242], [274, 240], [273, 240], [272, 239], [265, 239]]]}, "properties": {"objectType": "annotation", "classification": {"name": "Neoplastic", "color": [255, 0, 0]}}}, {"type": "Feature", "id": "f76f3b56-d125-4d8d-9095-40073763575f", "geometry": {"type": "Polygon", "coordinates": [[[440, 244], [439, 245], [438, 245], [437, 246], [437, 247], [435, 249], [435, 251], [434, 252], [434, 254], [435, 255], [435, 259], [439, 263], [440, 263], [442, 265], [451, 265], [452, 264], [453, 264], [454, 263], [454, 262], [455, 261], [455, 259], [456, 258], [456, 256], [455, 255], [455, 252], [454, 251], [454, 250], [451, 247], [450, 247], [448, 245], [447, 245], [446, 244], [440, 244]]]}, "properties": {"objectType": "annotation", "classification": {"name": "Neoplastic", "color": [255, 0, 0]}}}, {"type": "Feature", "id": "cea314e6-019c-4297-89c6-f9b1da5dc92c", "geometry": {"type": "Polygon", "coordinates": [[[139, 250], [138, 251], [137, 251], [136, 252], [136, 253], [133, 256], [133, 257], [132, 258], [132, 264], [133, 265], [133, 269], [134, 270], [134, 272], [135, 273], [135, 274], [137, 276], [137, 277], [142, 282], [143, 282], [144, 283], [147, 283], [148, 284], [149, 283], [152, 283], [153, 282], [154, 282], [159, 277], [159, 276], [160, 275], [160, 274], [161, 273], [161, 269], [162, 268], [162, 262], [161, 261], [161, 259], [160, 258], [160, 257], [157, 254], [154, 254], [153, 253], [152, 253], [151, 252], [150, 252], [148, 250], [139, 250]]]}, "properties": {"objectType": "annotation", "classification": {"name": "Neoplastic", "color": [255, 0, 0]}}}, {"type": "Feature", "id": "eefa61d2-5ec7-43cc-aa3a-2b8177e55dc0", "geometry": {"type": "Polygon", "coordinates": [[[324, 253], [321, 256], [321, 261], [320, 262], [320, 263], [319, 264], [319, 265], [318, 266], [318, 267], [316, 269], [316, 271], [315, 272], [315, 274], [316, 275], [316, 277], [317, 278], [317, 279], [319, 281], [319, 282], [321, 284], [321, 285], [325, 289], [325, 290], [326, 291], [326, 292], [328, 294], [332, 294], [333, 295], [340, 295], [341, 294], [342, 294], [349, 287], [349, 285], [348, 284], [348, 282], [347, 281], [347, 280], [345, 278], [345, 277], [340, 272], [339, 272], [331, 264], [331, 263], [330, 262], [330, 260], [329, 259], [329, 257], [328, 256], [328, 254], [326, 254], [325, 253], [324, 253]]]}, "properties": {"objectType": "annotation", "classification": {"name": "Connective", "color": [35, 92, 236]}}}, {"type": "Feature", "id": "c7259694-5187-48aa-85cd-3b89325cb927", "geometry": {"type": "Polygon", "coordinates": [[[17, 265], [16, 266], [15, 266], [13, 268], [12, 268], [12, 269], [10, 271], [10, 272], [9, 273], [9, 274], [8, 275], [8, 284], [9, 285], [9, 286], [10, 287], [10, 288], [11, 289], [12, 289], [16, 293], [17, 293], [18, 294], [19, 294], [21, 296], [26, 296], [27, 295], [30, 295], [31, 294], [33, 294], [36, 291], [37, 291], [37, 290], [39, 288], [39, 287], [40, 286], [40, 282], [39, 281], [39, 280], [38, 279], [38, 278], [31, 271], [30, 271], [25, 266], [23, 266], [22, 265], [17, 265]]]}, "properties": {"objectType": "annotation", "classification": {"name": "Neoplastic", "color": [255, 0, 0]}}}, {"type": "Feature", "id": "6f3057a1-b9cf-4c03-a578-b569327903d5", "geometry": {"type": "Polygon", "coordinates": [[[461, 268], [460, 269], [459, 269], [458, 270], [458, 277], [459, 278], [459, 279], [461, 281], [462, 281], [463, 282], [465, 282], [466, 283], [467, 283], [468, 282], [470, 282], [471, 281], [472, 281], [474, 279], [475, 279], [475, 278], [476, 277], [476, 274], [474, 272], [473, 272], [471, 270], [469, 270], [468, 269], [466, 269], [465, 268], [461, 268]]]}, "properties": {"objectType": "annotation", "classification": {"name": "Inflammatory", "color": [34, 221, 77]}}}, {"type": "Feature", "id": "602e00e3-0a68-4233-9eeb-6a1ae57e3a1d", "geometry": {"type": "Polygon", "coordinates": [[[450, 268], [449, 269], [448, 269], [447, 270], [447, 271], [446, 272], [446, 273], [445, 274], [445, 275], [438, 282], [438, 285], [439, 286], [440, 286], [441, 287], [442, 287], [443, 286], [445, 286], [449, 282], [450, 282], [451, 281], [451, 280], [452, 279], [452, 278], [453, 277], [453, 276], [454, 275], [454, 274], [455, 273], [455, 271], [453, 269], [452, 269], [451, 268], [450, 268]]]}, "properties": {"objectType": "annotation", "classification": {"name": "Connective", "color": [35, 92, 236]}}}, {"type": "Feature", "id": "dfd90021-8800-42a4-90b3-2602ed519fa4", "geometry": {"type": "Polygon", "coordinates": [[[212, 273], [211, 274], [209, 274], [208, 275], [207, 275], [206, 276], [205, 276], [203, 278], [202, 278], [200, 280], [199, 280], [192, 287], [192, 289], [191, 290], [191, 292], [190, 293], [190, 294], [189, 295], [189, 299], [188, 300], [188, 310], [190, 312], [191, 312], [192, 313], [194, 313], [195, 312], [197, 312], [198, 311], [199, 311], [200, 310], [201, 310], [203, 308], [204, 308], [208, 304], [208, 303], [213, 298], [213, 297], [214, 296], [214, 295], [215, 294], [215, 293], [216, 292], [216, 291], [217, 290], [217, 288], [218, 287], [218, 282], [219, 281], [219, 276], [217, 274], [216, 274], [215, 273], [212, 273]]]}, "properties": {"objectType": "annotation", "classification": {"name": "Connective", "color": [35, 92, 236]}}}, {"type": "Feature", "id": "3859adce-53a8-4415-80f8-5ef632907edd", "geometry": {"type": "Polygon", "coordinates": [[[105, 280], [104, 281], [101, 281], [100, 282], [99, 282], [98, 283], [97, 283], [95, 285], [95, 286], [94, 287], [94, 291], [95, 292], [95, 294], [99, 298], [100, 298], [101, 299], [102, 299], [103, 300], [106, 300], [107, 299], [112, 299], [113, 298], [114, 298], [115, 297], [116, 297], [118, 295], [118, 293], [119, 292], [119, 290], [120, 289], [120, 285], [119, 284], [119, 283], [118, 283], [117, 282], [116, 282], [114, 280], [105, 280]]]}, "properties": {"objectType": "annotation", "classification": {"name": "Neoplastic", "color": [255, 0, 0]}}}, {"type": "Feature", "id": "f533cc2c-a283-4d03-9cfb-faa14970626f", "geometry": {"type": "Polygon", "coordinates": [[[169, 288], [168, 289], [165, 289], [164, 290], [162, 290], [160, 292], [159, 292], [158, 293], [157, 293], [155, 295], [154, 295], [153, 296], [152, 296], [149, 299], [148, 299], [147, 300], [147, 301], [146, 302], [146, 304], [145, 305], [145, 306], [144, 307], [144, 309], [143, 310], [143, 319], [144, 320], [144, 321], [145, 322], [145, 323], [148, 326], [149, 326], [151, 328], [160, 328], [161, 327], [162, 327], [166, 323], [166, 322], [167, 321], [167, 320], [169, 318], [169, 317], [170, 316], [170, 315], [172, 313], [172, 312], [173, 311], [173, 310], [175, 308], [175, 307], [176, 306], [176, 305], [177, 304], [177, 302], [178, 301], [178, 298], [179, 297], [179, 295], [178, 294], [178, 291], [176, 289], [175, 289], [174, 288], [169, 288]]]}, "properties": {"objectType": "annotation", "classification": {"name": "Neoplastic", "color": [255, 0, 0]}}}, {"type": "Feature", "id": "b1ff1b81-20f6-4d68-9d67-79c9166f66df", "geometry": {"type": "Polygon", "coordinates": [[[5, 288], [4, 289], [3, 289], [0, 292], [0, 310], [1, 310], [2, 311], [3, 311], [4, 312], [12, 312], [16, 308], [16, 307], [18, 305], [18, 304], [19, 303], [19, 302], [20, 301], [20, 296], [19, 295], [18, 295], [17, 294], [16, 294], [12, 290], [10, 290], [9, 289], [8, 289], [7, 288], [5, 288]]]}, "properties": {"objectType": "annotation", "classification": {"name": "Neoplastic", "color": [255, 0, 0]}}}, {"type": "Feature", "id": "f7094235-b91a-4cfe-8dbd-65071b31c22d", "geometry": {"type": "Polygon", "coordinates": [[[250, 296], [248, 298], [247, 298], [247, 299], [246, 300], [246, 301], [245, 302], [245, 304], [246, 305], [246, 307], [247, 308], [247, 309], [250, 312], [251, 312], [252, 311], [254, 311], [255, 310], [255, 309], [256, 308], [256, 307], [257, 306], [257, 304], [258, 303], [258, 300], [257, 299], [257, 298], [256, 297], [255, 297], [254, 296], [250, 296]]]}, "properties": {"objectType": "annotation", "classification": {"name": "Connective", "color": [35, 92, 236]}}}, {"type": "Feature", "id": "c6114a03-0173-4e82-8553-845407bfe270", "geometry": {"type": "Polygon", "coordinates": [[[465, 308], [464, 309], [463, 309], [462, 310], [461, 310], [455, 316], [455, 317], [453, 319], [453, 320], [452, 321], [452, 323], [451, 324], [451, 333], [452, 334], [452, 335], [453, 336], [453, 337], [456, 340], [464, 340], [465, 339], [467, 339], [468, 338], [469, 338], [475, 332], [475, 331], [477, 329], [477, 327], [478, 326], [478, 324], [479, 323], [479, 321], [478, 320], [478, 317], [477, 316], [477, 315], [476, 314], [476, 313], [475, 312], [475, 311], [474, 310], [473, 310], [471, 308], [465, 308]]]}, "properties": {"objectType": "annotation", "classification": {"name": "Neoplastic", "color": [255, 0, 0]}}}, {"type": "Feature", "id": "7c09912a-7f04-4201-a8d5-24ff33041b77", "geometry": {"type": "Polygon", "coordinates": [[[499, 310], [498, 311], [495, 311], [494, 312], [493, 312], [490, 315], [490, 316], [488, 318], [488, 319], [487, 320], [487, 321], [485, 323], [485, 324], [484, 325], [484, 328], [483, 329], [483, 336], [484, 337], [484, 338], [485, 339], [485, 340], [489, 344], [490, 344], [491, 345], [492, 345], [493, 346], [495, 346], [496, 347], [507, 347], [508, 346], [509, 346], [510, 345], [511, 345], [516, 340], [516, 339], [517, 338], [517, 337], [518, 336], [518, 334], [519, 333], [519, 332], [520, 331], [520, 322], [519, 321], [519, 320], [516, 317], [515, 317], [512, 314], [511, 314], [510, 313], [509, 313], [508, 312], [507, 312], [506, 311], [504, 311], [503, 310], [499, 310]]]}, "properties": {"objectType": "annotation", "classification": {"name": "Neoplastic", "color": [255, 0, 0]}}}, {"type": "Feature", "id": "a8398955-c943-4734-b6eb-7ee5531e7ad5", "geometry": {"type": "Polygon", "coordinates": [[[263, 318], [262, 319], [261, 319], [258, 322], [258, 323], [257, 324], [257, 333], [259, 335], [260, 335], [261, 336], [265, 336], [266, 337], [275, 337], [276, 336], [278, 336], [279, 335], [279, 334], [280, 333], [280, 328], [278, 326], [278, 325], [276, 323], [275, 323], [272, 320], [271, 320], [270, 319], [267, 319], [266, 318], [263, 318]]]}, "properties": {"objectType": "annotation", "classification": {"name": "Connective", "color": [35, 92, 236]}}}, {"type": "Feature", "id": "41cd9f93-ea56-4f4f-a037-ba6ab6080956", "geometry": {"type": "Polygon", "coordinates": [[[407, 319], [406, 320], [404, 320], [402, 322], [402, 323], [401, 324], [401, 325], [400, 326], [400, 327], [399, 328], [399, 329], [400, 330], [400, 333], [401, 334], [401, 335], [402, 336], [402, 337], [404, 339], [404, 340], [407, 343], [408, 343], [409, 344], [411, 344], [412, 345], [414, 345], [415, 344], [416, 344], [419, 341], [425, 341], [426, 342], [427, 342], [428, 343], [431, 343], [433, 341], [433, 339], [434, 338], [434, 334], [433, 333], [433, 331], [432, 330], [432, 329], [431, 328], [431, 327], [430, 326], [430, 325], [428, 323], [428, 322], [427, 322], [425, 320], [419, 320], [418, 319], [407, 319]]]}, "properties": {"objectType": "annotation", "classification": {"name": "Neoplastic", "color": [255, 0, 0]}}}, {"type": "Feature", "id": "945fe8e2-5390-4a9e-938d-6823989689b7", "geometry": {"type": "Polygon", "coordinates": [[[419, 342], [416, 345], [415, 345], [414, 346], [413, 346], [414, 347], [414, 357], [415, 358], [415, 361], [416, 362], [416, 364], [417, 365], [417, 366], [418, 367], [418, 368], [422, 372], [424, 372], [425, 373], [427, 373], [428, 372], [429, 372], [430, 371], [430, 370], [431, 369], [430, 368], [430, 356], [431, 355], [431, 352], [432, 351], [432, 348], [433, 347], [433, 346], [431, 344], [428, 344], [427, 343], [426, 343], [425, 342], [419, 342]]]}, "properties": {"objectType": "annotation", "classification": {"name": "Neoplastic", "color": [255, 0, 0]}}}, {"type": "Feature", "id": "f3a819d4-8626-4bf8-9f35-29148aa21768", "geometry": {"type": "Polygon", "coordinates": [[[242, 346], [241, 347], [239, 347], [237, 349], [236, 349], [228, 357], [228, 358], [227, 359], [227, 360], [226, 361], [226, 365], [227, 366], [227, 368], [230, 371], [231, 371], [232, 372], [233, 372], [234, 373], [239, 373], [240, 374], [249, 374], [250, 373], [254, 373], [255, 372], [256, 372], [258, 370], [258, 369], [261, 366], [261, 360], [260, 359], [260, 358], [256, 354], [255, 354], [254, 353], [254, 352], [249, 347], [248, 347], [247, 346], [242, 346]]]}, "properties": {"objectType": "annotation", "classification": {"name": "Neoplastic", "color": [255, 0, 0]}}}, {"type": "Feature", "id": "0b8e1929-d4b4-4775-bdd8-3d1d199a0094", "geometry": {"type": "Polygon", "coordinates": [[[435, 346], [433, 348], [433, 351], [432, 352], [432, 355], [431, 356], [431, 368], [435, 372], [436, 372], [437, 373], [443, 373], [444, 372], [445, 372], [449, 368], [449, 364], [450, 363], [450, 362], [449, 361], [449, 354], [447, 352], [447, 351], [446, 350], [446, 349], [443, 346], [435, 346]]]}, "properties": {"objectType": "annotation", "classification": {"name": "Neoplastic", "color": [255, 0, 0]}}}, {"type": "Feature", "id": "0091fb42-865d-46d3-a6f9-a33ee1e5a788", "geometry": {"type": "Polygon", "coordinates": [[[12, 354], [11, 355], [7, 355], [6, 356], [4, 356], [2, 358], [1, 358], [1, 359], [0, 360], [0, 380], [6, 380], [7, 379], [8, 379], [10, 377], [11, 377], [13, 375], [14, 375], [19, 370], [19, 368], [20, 367], [20, 359], [19, 358], [19, 357], [17, 355], [16, 355], [15, 354], [12, 354]]]}, "properties": {"objectType": "annotation", "classification": {"name": "Connective", "color": [35, 92, 236]}}}, {"type": "Feature", "id": "9bee1dd9-94b4-41a6-a50d-e547b3b208eb", "geometry": {"type": "Polygon", "coordinates": [[[28, 357], [27, 358], [27, 360], [26, 361], [26, 363], [25, 364], [25, 369], [24, 370], [24, 374], [25, 375], [25, 379], [27, 381], [32, 381], [36, 377], [36, 376], [39, 373], [39, 371], [40, 370], [40, 365], [39, 364], [39, 361], [38, 360], [38, 359], [37, 358], [36, 358], [35, 357], [28, 357]]]}, "properties": {"objectType": "annotation", "classification": {"name": "Inflammatory", "color": [34, 221, 77]}}}, {"type": "Feature", "id": "75fa3950-5f50-4b93-9f8d-9d8585d152cb", "geometry": {"type": "Polygon", "coordinates": [[[174, 356], [173, 357], [170, 357], [168, 359], [168, 360], [167, 361], [167, 365], [166, 366], [166, 371], [165, 372], [165, 376], [164, 377], [164, 383], [163, 384], [163, 387], [162, 388], [162, 391], [161, 392], [161, 394], [160, 395], [160, 401], [159, 402], [159, 404], [160, 405], [160, 407], [161, 408], [169, 408], [170, 407], [171, 407], [172, 406], [173, 406], [175, 404], [176, 404], [186, 394], [186, 393], [188, 391], [188, 390], [189, 389], [189, 388], [191, 386], [191, 385], [193, 383], [193, 382], [194, 381], [194, 380], [195, 379], [195, 378], [196, 377], [196, 372], [197, 371], [197, 370], [196, 369], [196, 366], [194, 364], [194, 363], [192, 361], [191, 361], [190, 360], [189, 360], [188, 359], [187, 359], [186, 358], [185, 358], [184, 357], [183, 357], [182, 356], [174, 356]]]}, "properties": {"objectType": "annotation", "classification": {"name": "Connective", "color": [35, 92, 236]}}}, {"type": "Feature", "id": "86dc1125-d349-46a1-b963-c201a5746aa7", "geometry": {"type": "Polygon", "coordinates": [[[350, 357], [349, 358], [343, 358], [342, 359], [337, 359], [336, 360], [334, 360], [333, 361], [332, 361], [329, 364], [329, 365], [328, 366], [328, 374], [329, 375], [329, 378], [330, 379], [330, 380], [333, 383], [334, 383], [335, 384], [337, 384], [338, 385], [340, 385], [341, 386], [343, 386], [344, 387], [346, 387], [347, 388], [355, 388], [356, 387], [360, 387], [363, 384], [363, 383], [365, 381], [365, 380], [366, 379], [366, 377], [367, 376], [367, 375], [366, 374], [366, 372], [365, 371], [365, 369], [364, 368], [364, 367], [362, 365], [362, 364], [358, 360], [357, 360], [355, 358], [351, 358], [350, 357]]]}, "properties": {"objectType": "annotation", "classification": {"name": "Neoplastic", "color": [255, 0, 0]}}}, {"type": "Feature", "id": "fef2d962-189a-4a34-9558-5d269449912a", "geometry": {"type": "Polygon", "coordinates": [[[213, 383], [212, 384], [211, 384], [210, 385], [209, 385], [208, 386], [208, 387], [206, 389], [206, 396], [205, 397], [205, 399], [204, 400], [204, 408], [205, 409], [205, 410], [208, 413], [208, 414], [213, 419], [214, 419], [217, 422], [218, 422], [219, 423], [220, 423], [221, 424], [222, 424], [223, 425], [224, 425], [225, 426], [231, 426], [232, 425], [233, 425], [236, 422], [236, 421], [237, 420], [237, 419], [238, 418], [238, 411], [235, 408], [235, 407], [234, 406], [234, 405], [233, 404], [233, 403], [232, 402], [232, 401], [231, 400], [231, 399], [230, 398], [230, 397], [228, 395], [228, 394], [227, 393], [227, 392], [225, 390], [225, 389], [221, 385], [220, 385], [218, 383], [213, 383]]]}, "properties": {"objectType": "annotation", "classification": {"name": "Neoplastic", "color": [255, 0, 0]}}}, {"type": "Feature", "id": "f3bb2713-9623-4f22-a5d2-7c6a86d8cb3f", "geometry": {"type": "Polygon", "coordinates": [[[337, 406], [336, 407], [334, 407], [333, 408], [332, 408], [325, 415], [325, 416], [323, 418], [323, 426], [324, 427], [324, 428], [325, 429], [325, 430], [326, 431], [326, 432], [330, 436], [331, 436], [332, 437], [336, 437], [337, 436], [339, 436], [341, 434], [342, 434], [344, 432], [344, 431], [346, 429], [346, 428], [349, 425], [350, 425], [351, 424], [355, 424], [357, 422], [358, 422], [358, 421], [359, 420], [359, 418], [360, 417], [360, 415], [359, 414], [359, 412], [358, 411], [358, 410], [355, 407], [349, 407], [348, 406], [337, 406]]]}, "properties": {"objectType": "annotation", "classification": {"name": "Neoplastic", "color": [255, 0, 0]}}}, {"type": "Feature", "id": "d40a0fc5-417f-444a-b19b-529086f5ccaa", "geometry": {"type": "Polygon", "coordinates": [[[191, 407], [190, 408], [188, 408], [187, 409], [187, 410], [186, 411], [186, 415], [185, 416], [185, 418], [186, 419], [186, 424], [187, 425], [187, 427], [188, 428], [188, 429], [189, 430], [189, 431], [190, 432], [190, 433], [191, 434], [191, 435], [195, 439], [196, 439], [197, 440], [199, 440], [200, 441], [207, 441], [211, 437], [211, 436], [213, 434], [213, 433], [214, 432], [214, 427], [213, 426], [213, 425], [211, 423], [211, 422], [198, 409], [197, 409], [196, 408], [195, 408], [194, 407], [191, 407]]]}, "properties": {"objectType": "annotation", "classification": {"name": "Connective", "color": [35, 92, 236]}}}, {"type": "Feature", "id": "a0f4bfcc-cc19-4ff0-a2dd-1d8651150ff5", "geometry": {"type": "Polygon", "coordinates": [[[478, 408], [477, 409], [476, 409], [475, 410], [474, 410], [473, 411], [473, 417], [474, 418], [474, 419], [475, 420], [475, 421], [476, 422], [476, 435], [477, 436], [477, 437], [479, 439], [480, 439], [481, 440], [482, 440], [483, 441], [484, 441], [485, 442], [489, 442], [490, 443], [491, 442], [492, 442], [493, 441], [494, 441], [495, 440], [495, 439], [496, 438], [496, 437], [497, 436], [497, 433], [496, 432], [496, 431], [495, 430], [495, 428], [493, 426], [493, 425], [492, 424], [492, 423], [491, 422], [491, 421], [489, 419], [489, 418], [487, 416], [487, 415], [486, 414], [486, 413], [485, 412], [485, 411], [482, 408], [478, 408]]]}, "properties": {"objectType": "annotation", "classification": {"name": "Connective", "color": [35, 92, 236]}}}, {"type": "Feature", "id": "216ef936-bf44-4c1a-a253-b73fec26017d", "geometry": {"type": "Polygon", "coordinates": [[[452, 431], [451, 432], [450, 432], [449, 433], [448, 433], [447, 434], [447, 435], [446, 436], [446, 437], [445, 438], [445, 441], [444, 442], [444, 447], [443, 448], [443, 449], [441, 451], [441, 457], [442, 458], [442, 459], [444, 461], [445, 461], [446, 462], [447, 462], [448, 463], [449, 463], [450, 464], [457, 464], [458, 465], [461, 465], [462, 464], [465, 464], [466, 463], [467, 463], [468, 462], [469, 462], [475, 456], [475, 454], [476, 453], [476, 449], [477, 448], [477, 446], [476, 445], [476, 441], [475, 440], [475, 439], [469, 433], [467, 433], [466, 432], [464, 432], [463, 431], [452, 431]]]}, "properties": {"objectType": "annotation", "classification": {"name": "Neoplastic", "color": [255, 0, 0]}}}, {"type": "Feature", "id": "bdf6c22b-f94d-4868-b59d-a6cdb93f8e7e", "geometry": {"type": "Polygon", "coordinates": [[[37, 462], [36, 463], [34, 463], [29, 468], [29, 469], [28, 470], [28, 471], [27, 472], [27, 473], [26, 474], [26, 475], [24, 477], [24, 478], [22, 480], [22, 481], [21, 482], [21, 484], [20, 485], [20, 487], [19, 488], [19, 490], [18, 491], [18, 498], [20, 500], [28, 500], [29, 499], [31, 499], [32, 498], [33, 498], [34, 497], [35, 497], [41, 491], [41, 490], [42, 489], [42, 488], [43, 487], [43, 485], [44, 484], [44, 468], [43, 467], [43, 465], [40, 462], [37, 462]]]}, "properties": {"objectType": "annotation", "classification": {"name": "Neoplastic", "color": [255, 0, 0]}}}, {"type": "Feature", "id": "dd78ccf1-71d4-42a2-92c7-7e834f59c623", "geometry": {"type": "Polygon", "coordinates": [[[484, 465], [483, 466], [480, 466], [479, 467], [478, 467], [477, 468], [476, 468], [475, 469], [472, 469], [471, 470], [466, 470], [465, 471], [464, 471], [460, 475], [460, 480], [461, 481], [461, 482], [462, 483], [462, 484], [464, 486], [464, 487], [466, 489], [467, 489], [468, 490], [470, 490], [471, 491], [480, 491], [481, 490], [482, 490], [483, 489], [484, 489], [490, 483], [491, 483], [491, 482], [493, 480], [493, 478], [494, 477], [494, 472], [493, 471], [493, 470], [492, 469], [492, 468], [490, 466], [489, 466], [488, 465], [484, 465]]]}, "properties": {"objectType": "annotation", "classification": {"name": "Neoplastic", "color": [255, 0, 0]}}}, {"type": "Feature", "id": "edc18d9f-0265-4770-8cc5-e028411bcdee", "geometry": {"type": "Polygon", "coordinates": [[[152, 466], [151, 467], [150, 467], [149, 468], [148, 468], [147, 469], [147, 470], [146, 471], [146, 472], [147, 473], [147, 474], [149, 476], [150, 476], [153, 479], [154, 479], [157, 482], [157, 486], [158, 487], [158, 493], [160, 495], [163, 495], [164, 494], [166, 494], [167, 493], [168, 493], [170, 491], [170, 490], [171, 489], [171, 488], [172, 487], [172, 476], [171, 475], [171, 474], [169, 472], [169, 471], [167, 469], [166, 469], [165, 468], [164, 468], [163, 467], [161, 467], [160, 466], [152, 466]]]}, "properties": {"objectType": "annotation", "classification": {"name": "Neoplastic", "color": [255, 0, 0]}}}, {"type": "Feature", "id": "b61c2fc3-5804-4397-85a8-25d711f784fd", "geometry": {"type": "Polygon", "coordinates": [[[11, 476], [10, 477], [1, 477], [0, 478], [0, 498], [5, 498], [6, 497], [9, 497], [10, 496], [11, 496], [13, 494], [14, 494], [14, 493], [16, 491], [16, 490], [17, 489], [17, 486], [18, 485], [18, 478], [16, 476], [11, 476]]]}, "properties": {"objectType": "annotation", "classification": {"name": "Neoplastic", "color": [255, 0, 0]}}}, {"type": "Feature", "id": "b3a10d82-ba6c-4a61-a8f8-32ddb32fbfe9", "geometry": {"type": "Polygon", "coordinates": [[[369, 485], [368, 486], [365, 486], [364, 487], [362, 487], [355, 494], [355, 497], [354, 498], [354, 504], [356, 506], [359, 506], [361, 504], [362, 504], [363, 503], [365, 503], [366, 502], [374, 502], [375, 503], [377, 503], [378, 504], [382, 500], [382, 499], [383, 498], [383, 496], [384, 495], [384, 493], [383, 492], [383, 491], [382, 490], [381, 490], [379, 488], [376, 488], [375, 487], [374, 487], [373, 486], [370, 486], [369, 485]]]}, "properties": {"objectType": "annotation", "classification": {"name": "Neoplastic", "color": [255, 0, 0]}}}, {"type": "Feature", "id": "b0ad8d70-f936-400b-ae0c-7f4d44588c44", "geometry": {"type": "Polygon", "coordinates": [[[501, 486], [500, 487], [497, 487], [496, 488], [495, 488], [493, 490], [492, 490], [490, 492], [490, 493], [488, 495], [488, 497], [487, 498], [487, 500], [486, 501], [486, 505], [487, 506], [487, 508], [488, 509], [488, 510], [491, 513], [492, 513], [493, 514], [494, 514], [495, 515], [506, 515], [507, 514], [508, 514], [509, 513], [510, 513], [515, 508], [515, 507], [517, 505], [517, 504], [518, 503], [518, 495], [517, 494], [517, 493], [516, 492], [516, 491], [513, 488], [512, 488], [511, 487], [509, 487], [508, 486], [501, 486]]]}, "properties": {"objectType": "annotation", "classification": {"name": "Neoplastic", "color": [255, 0, 0]}}}, {"type": "Feature", "id": "a4a03416-0128-40a1-b03d-6f78690e0479", "geometry": {"type": "Polygon", "coordinates": [[[95, 493], [94, 494], [93, 494], [92, 495], [91, 495], [91, 496], [89, 498], [89, 500], [88, 501], [88, 513], [89, 514], [89, 515], [90, 516], [90, 517], [94, 521], [95, 521], [97, 523], [99, 523], [100, 524], [111, 524], [112, 523], [113, 523], [114, 522], [114, 521], [116, 519], [116, 518], [117, 517], [117, 511], [116, 510], [116, 508], [115, 507], [115, 505], [114, 504], [114, 503], [109, 498], [108, 498], [105, 495], [104, 495], [103, 494], [102, 494], [101, 493], [95, 493]]]}, "properties": {"objectType": "annotation", "classification": {"name": "Neoplastic", "color": [255, 0, 0]}}}, {"type": "Feature", "id": "ca321cfb-fdcf-4b52-9980-ee6e73b76dd2", "geometry": {"type": "Polygon", "coordinates": [[[128, 497], [127, 498], [125, 498], [121, 502], [121, 503], [120, 504], [120, 510], [121, 511], [121, 512], [122, 513], [122, 514], [126, 518], [127, 518], [129, 520], [131, 520], [132, 521], [140, 521], [141, 520], [143, 520], [144, 519], [145, 519], [148, 516], [148, 515], [149, 514], [149, 513], [150, 512], [150, 506], [149, 505], [149, 503], [146, 500], [145, 500], [144, 499], [143, 499], [142, 498], [138, 498], [137, 497], [128, 497]]]}, "properties": {"objectType": "annotation", "classification": {"name": "Neoplastic", "color": [255, 0, 0]}}}]