[{"type": "Feature", "id": "1cd2bf6c-86e7-446d-8e12-ecfb4a12e0d8", "geometry": {"type": "Polygon", "coordinates": [[[246, -7], [245, -6], [243, -6], [242, -5], [242, -1], [243, 0], [243, 8], [246, 11], [247, 11], [248, 12], [249, 12], [250, 13], [252, 13], [253, 14], [255, 14], [256, 15], [258, 15], [259, 16], [268, 16], [269, 15], [270, 15], [271, 14], [272, 14], [273, 13], [274, 13], [276, 11], [277, 11], [282, 6], [282, 1], [280, -1], [279, -1], [278, -2], [276, -2], [275, -3], [274, -3], [273, -4], [270, -4], [269, -5], [268, -5], [267, -6], [261, -6], [260, -5], [258, -5], [257, -6], [253, -6], [252, -7], [246, -7]]]}, "properties": {"objectType": "annotation", "classification": {"name": "Neoplastic", "color": [255, 0, 0]}}}, {"type": "Feature", "id": "fc4f089b-eefb-4ffa-9bf1-02fcae1ae7bf", "geometry": {"type": "Polygon", "coordinates": [[[64, -4], [63, -3], [61, -3], [60, -2], [58, -2], [56, 0], [56, 1], [54, 3], [54, 4], [53, 5], [53, 7], [52, 8], [52, 10], [54, 12], [55, 12], [61, 18], [62, 18], [63, 19], [64, 19], [65, 20], [66, 20], [67, 21], [69, 21], [70, 22], [71, 22], [72, 23], [73, 23], [74, 24], [79, 24], [80, 23], [81, 23], [81, 22], [82, 21], [82, 19], [83, 18], [83, 12], [82, 11], [82, 9], [81, 8], [81, 5], [80, 4], [80, 3], [79, 2], [79, 1], [75, -3], [74, -3], [73, -4], [64, -4]]]}, "properties": {"objectType": "annotation", "classification": {"name": "Neoplastic", "color": [255, 0, 0]}}}, {"type": "Feature", "id": "5ec60393-e79f-4b68-8250-77bfa5516e9c", "geometry": {"type": "Polygon", "coordinates": [[[108, 16], [107, 17], [104, 17], [103, 18], [101, 18], [100, 19], [99, 19], [98, 20], [97, 20], [95, 22], [95, 25], [94, 26], [94, 33], [95, 34], [95, 35], [96, 36], [96, 37], [97, 38], [97, 40], [98, 41], [98, 45], [99, 46], [99, 47], [101, 49], [102, 49], [103, 50], [105, 50], [106, 49], [107, 49], [108, 48], [110, 48], [111, 47], [113, 47], [114, 46], [116, 46], [118, 44], [118, 43], [121, 40], [121, 39], [123, 37], [123, 34], [124, 33], [124, 32], [125, 31], [125, 29], [126, 28], [125, 27], [125, 25], [124, 24], [124, 23], [123, 22], [123, 21], [119, 17], [118, 17], [117, 16], [108, 16]]]}, "properties": {"objectType": "annotation", "classification": {"name": "Neoplastic", "color": [255, 0, 0]}}}, {"type": "Feature", "id": "7b8f158d-0b14-4e11-a81b-c3d7758f5e60", "geometry": {"type": "Polygon", "coordinates": [[[34, 21], [34, 22], [33, 23], [32, 23], [31, 24], [31, 26], [32, 27], [31, 28], [32, 29], [32, 30], [35, 33], [36, 32], [34, 30], [34, 29], [35, 28], [35, 26], [36, 25], [37, 26], [39, 26], [40, 27], [40, 24], [37, 21], [34, 21]]]}, "properties": {"objectType": "annotation", "classification": {"name": "Neoplastic", "color": [255, 0, 0]}}}, {"type": "Feature", "id": "37672709-4c3d-4d0a-b026-ce7493fc33a6", "geometry": {"type": "Polygon", "coordinates": [[[53, 18], [52, 19], [51, 19], [50, 20], [49, 20], [46, 23], [46, 32], [47, 33], [47, 34], [48, 35], [48, 36], [49, 37], [50, 37], [53, 40], [54, 40], [55, 41], [56, 41], [57, 42], [60, 42], [61, 43], [63, 43], [64, 42], [67, 42], [68, 41], [69, 41], [71, 39], [71, 38], [72, 37], [72, 30], [70, 28], [70, 27], [62, 19], [57, 19], [56, 18], [53, 18]]]}, "properties": {"objectType": "annotation", "classification": {"name": "Neoplastic", "color": [255, 0, 0]}}}, {"type": "Feature", "id": "221dba50-9add-40ef-a2f9-07b8714d2f98", "geometry": {"type": "Polygon", "coordinates": [[[399, 20], [398, 21], [397, 21], [396, 22], [395, 22], [395, 34], [394, 35], [394, 39], [393, 40], [393, 43], [392, 44], [392, 47], [391, 48], [391, 53], [396, 58], [397, 58], [398, 59], [401, 59], [402, 60], [406, 60], [407, 59], [409, 59], [410, 58], [410, 57], [412, 55], [412, 53], [413, 52], [413, 48], [414, 47], [414, 46], [415, 45], [415, 44], [416, 43], [416, 27], [415, 26], [415, 25], [411, 21], [410, 21], [409, 20], [399, 20]]]}, "properties": {"objectType": "annotation", "classification": {"name": "Neoplastic", "color": [255, 0, 0]}}}, {"type": "Feature", "id": "90d8d1a4-d95c-44a0-88fb-96649d1ec2a8", "geometry": {"type": "Polygon", "coordinates": [[[148, 21], [147, 22], [143, 22], [142, 23], [141, 23], [139, 25], [139, 31], [140, 32], [140, 33], [142, 35], [142, 36], [145, 39], [150, 39], [152, 37], [153, 37], [158, 32], [158, 31], [159, 30], [159, 27], [158, 26], [158, 25], [156, 23], [155, 23], [154, 22], [150, 22], [149, 21], [148, 21]]]}, "properties": {"objectType": "annotation", "classification": {"name": "Neoplastic", "color": [255, 0, 0]}}}, {"type": "Feature", "id": "02edccee-f0ea-45b6-a3d9-0ff59bbd4834", "geometry": {"type": "Polygon", "coordinates": [[[385, 22], [384, 23], [383, 23], [382, 24], [381, 24], [379, 26], [378, 26], [375, 29], [375, 30], [373, 32], [373, 33], [372, 34], [372, 35], [371, 36], [371, 40], [370, 41], [370, 42], [371, 43], [371, 45], [372, 46], [372, 47], [376, 51], [377, 51], [378, 52], [381, 52], [382, 53], [383, 52], [384, 53], [386, 53], [387, 52], [388, 52], [389, 51], [390, 51], [390, 48], [391, 47], [391, 44], [392, 43], [392, 40], [393, 39], [393, 35], [394, 34], [394, 22], [385, 22]]]}, "properties": {"objectType": "annotation", "classification": {"name": "Neoplastic", "color": [255, 0, 0]}}}, {"type": "Feature", "id": "d3095ca3-bf68-43cb-a683-5f2c747422ea", "geometry": {"type": "Polygon", "coordinates": [[[278, 26], [277, 27], [276, 27], [273, 30], [273, 31], [271, 33], [271, 34], [270, 35], [270, 37], [269, 38], [269, 39], [268, 40], [268, 44], [267, 45], [267, 48], [268, 49], [268, 52], [271, 55], [273, 55], [274, 56], [278, 56], [279, 55], [281, 55], [282, 54], [283, 54], [284, 53], [284, 52], [289, 47], [289, 46], [291, 44], [291, 43], [292, 42], [292, 33], [291, 32], [291, 31], [288, 28], [287, 28], [286, 27], [285, 27], [284, 26], [278, 26]]]}, "properties": {"objectType": "annotation", "classification": {"name": "Neoplastic", "color": [255, 0, 0]}}}, {"type": "Feature", "id": "dd11a498-55d1-4f98-9e24-0ab36b2725c8", "geometry": {"type": "Polygon", "coordinates": [[[180, 26], [179, 27], [178, 27], [175, 30], [175, 31], [174, 32], [173, 32], [170, 35], [170, 36], [168, 38], [168, 39], [167, 40], [167, 41], [166, 42], [166, 46], [165, 47], [165, 55], [166, 56], [166, 59], [167, 60], [167, 61], [168, 62], [168, 63], [170, 65], [170, 66], [172, 68], [173, 68], [174, 69], [176, 69], [177, 70], [188, 70], [189, 69], [190, 69], [195, 64], [195, 63], [196, 62], [196, 60], [197, 59], [197, 58], [198, 57], [198, 56], [199, 55], [199, 53], [200, 52], [200, 40], [198, 38], [198, 37], [195, 34], [195, 33], [194, 32], [193, 32], [190, 29], [189, 29], [188, 28], [187, 28], [186, 27], [185, 27], [184, 26], [180, 26]]]}, "properties": {"objectType": "annotation", "classification": {"name": "Neoplastic", "color": [255, 0, 0]}}}, {"type": "Feature", "id": "d9ab0854-2101-4076-945c-b22d171e3683", "geometry": {"type": "Polygon", "coordinates": [[[234, 29], [233, 30], [231, 30], [230, 31], [229, 31], [228, 32], [227, 32], [226, 33], [218, 33], [217, 32], [215, 32], [214, 33], [213, 33], [212, 34], [212, 35], [211, 36], [211, 40], [210, 41], [210, 55], [211, 56], [211, 61], [212, 62], [212, 65], [213, 66], [213, 68], [214, 69], [214, 71], [216, 73], [217, 73], [218, 72], [226, 72], [227, 71], [228, 71], [229, 70], [230, 70], [231, 69], [232, 69], [237, 64], [238, 64], [240, 62], [240, 61], [241, 60], [241, 59], [242, 58], [242, 57], [243, 56], [243, 55], [244, 54], [244, 53], [245, 52], [245, 51], [246, 50], [246, 48], [247, 47], [247, 45], [248, 44], [248, 43], [250, 41], [250, 40], [249, 39], [249, 38], [248, 37], [248, 35], [246, 33], [246, 32], [245, 32], [243, 30], [242, 30], [241, 29], [234, 29]]]}, "properties": {"objectType": "annotation", "classification": {"name": "Neoplastic", "color": [255, 0, 0]}}}, {"type": "Feature", "id": "c09195c4-5799-41b5-815c-30fbb60a2419", "geometry": {"type": "Polygon", "coordinates": [[[493, 33], [492, 34], [487, 34], [486, 35], [482, 35], [481, 36], [479, 36], [478, 37], [475, 37], [474, 38], [473, 38], [470, 41], [470, 42], [469, 43], [469, 44], [468, 45], [468, 52], [469, 53], [469, 55], [472, 58], [473, 58], [474, 59], [476, 59], [477, 60], [479, 60], [480, 61], [481, 61], [482, 62], [484, 62], [485, 61], [488, 61], [489, 60], [491, 60], [492, 59], [493, 59], [494, 58], [495, 58], [497, 56], [498, 56], [503, 51], [503, 50], [506, 47], [506, 46], [507, 45], [507, 40], [506, 39], [506, 38], [503, 35], [501, 35], [500, 34], [496, 34], [495, 33], [493, 33]]]}, "properties": {"objectType": "annotation", "classification": {"name": "Neoplastic", "color": [255, 0, 0]}}}, {"type": "Feature", "id": "399d7315-c159-40c7-9db8-8ced9d0239de", "geometry": {"type": "Polygon", "coordinates": [[[72, 41], [71, 42], [70, 42], [65, 47], [65, 48], [64, 49], [64, 58], [65, 59], [65, 60], [66, 61], [67, 61], [69, 63], [77, 63], [78, 62], [80, 62], [81, 61], [82, 61], [84, 59], [84, 58], [86, 56], [86, 55], [88, 53], [88, 47], [87, 46], [87, 45], [86, 44], [85, 44], [84, 43], [83, 43], [82, 42], [80, 42], [79, 41], [72, 41]]]}, "properties": {"objectType": "annotation", "classification": {"name": "Neoplastic", "color": [255, 0, 0]}}}, {"type": "Feature", "id": "65207e90-9d57-424d-832d-d07823128fe5", "geometry": {"type": "Polygon", "coordinates": [[[125, 38], [124, 39], [122, 39], [122, 40], [119, 43], [119, 44], [117, 46], [117, 49], [116, 50], [116, 58], [117, 59], [117, 60], [119, 62], [119, 63], [124, 68], [125, 68], [126, 69], [134, 69], [139, 64], [139, 62], [140, 61], [140, 57], [139, 56], [139, 51], [138, 50], [138, 49], [137, 48], [137, 47], [133, 43], [132, 43], [127, 38], [125, 38]]]}, "properties": {"objectType": "annotation", "classification": {"name": "Neoplastic", "color": [255, 0, 0]}}}, {"type": "Feature", "id": "256ae6bf-1b35-4dd4-8904-3efd84ba8776", "geometry": {"type": "Polygon", "coordinates": [[[430, 42], [429, 43], [426, 43], [425, 44], [423, 44], [421, 46], [421, 52], [422, 53], [422, 56], [423, 57], [423, 60], [424, 61], [424, 62], [426, 64], [426, 65], [432, 71], [432, 72], [433, 73], [433, 74], [434, 75], [434, 76], [435, 77], [435, 79], [436, 80], [436, 81], [437, 82], [437, 83], [439, 85], [440, 85], [441, 86], [443, 86], [444, 87], [445, 87], [446, 86], [448, 86], [451, 83], [451, 71], [450, 70], [450, 66], [449, 65], [449, 62], [448, 61], [448, 57], [447, 56], [447, 54], [446, 53], [446, 52], [442, 48], [441, 48], [440, 47], [439, 47], [437, 45], [436, 45], [434, 43], [431, 43], [430, 42]]]}, "properties": {"objectType": "annotation", "classification": {"name": "Neoplastic", "color": [255, 0, 0]}}}, {"type": "Feature", "id": "2cec6d52-bb8d-465b-89d7-2e0cdacc09dc", "geometry": {"type": "Polygon", "coordinates": [[[457, 43], [452, 48], [452, 49], [451, 50], [451, 56], [452, 57], [452, 60], [453, 61], [453, 63], [454, 64], [454, 65], [455, 66], [455, 68], [457, 70], [459, 70], [460, 69], [461, 69], [462, 68], [462, 67], [463, 66], [463, 65], [465, 63], [465, 62], [466, 61], [466, 57], [465, 56], [465, 54], [464, 53], [464, 52], [463, 51], [463, 50], [462, 49], [462, 47], [461, 46], [461, 45], [459, 43], [457, 43]]]}, "properties": {"objectType": "annotation", "classification": {"name": "Neoplastic", "color": [255, 0, 0]}}}, {"type": "Feature", "id": "103b9fda-f884-4b30-b6b9-9ae8ef81089f", "geometry": {"type": "Polygon", "coordinates": [[[333, 44], [332, 45], [327, 45], [326, 46], [322, 46], [321, 47], [320, 47], [318, 49], [318, 50], [316, 52], [316, 53], [315, 54], [315, 60], [316, 61], [316, 63], [317, 64], [317, 66], [320, 69], [320, 70], [321, 71], [321, 72], [325, 76], [326, 76], [329, 79], [331, 79], [332, 80], [339, 80], [340, 79], [342, 79], [346, 75], [346, 74], [347, 73], [347, 70], [348, 69], [348, 62], [347, 61], [347, 59], [345, 57], [345, 56], [343, 54], [343, 53], [341, 51], [341, 49], [340, 48], [340, 46], [338, 44], [333, 44]]]}, "properties": {"objectType": "annotation", "classification": {"name": "Neoplastic", "color": [255, 0, 0]}}}, {"type": "Feature", "id": "183b27f0-8afe-4e43-acd0-b9dd6f3d242c", "geometry": {"type": "Polygon", "coordinates": [[[17, 50], [16, 51], [15, 51], [15, 52], [14, 53], [14, 57], [15, 58], [15, 59], [17, 61], [17, 62], [18, 62], [21, 65], [22, 65], [23, 66], [29, 66], [30, 65], [34, 65], [35, 64], [36, 64], [37, 63], [37, 61], [36, 60], [36, 59], [31, 54], [30, 54], [28, 52], [27, 52], [26, 51], [25, 51], [24, 50], [17, 50]]]}, "properties": {"objectType": "annotation", "classification": {"name": "Neoplastic", "color": [255, 0, 0]}}}, {"type": "Feature", "id": "eeb01b29-b8bf-455d-8bac-f54db80b9b92", "geometry": {"type": "Polygon", "coordinates": [[[90, 67], [89, 68], [87, 68], [82, 73], [82, 78], [84, 80], [85, 80], [87, 82], [93, 82], [94, 81], [95, 81], [96, 80], [96, 79], [97, 78], [97, 76], [98, 75], [97, 74], [97, 72], [96, 71], [96, 70], [94, 68], [93, 68], [92, 67], [90, 67]]]}, "properties": {"objectType": "annotation", "classification": {"name": "Neoplastic", "color": [255, 0, 0]}}}, {"type": "Feature", "id": "20955679-96a3-4dda-be60-1055d23133b9", "geometry": {"type": "Polygon", "coordinates": [[[487, 67], [486, 68], [484, 68], [483, 69], [482, 69], [481, 70], [480, 70], [479, 71], [478, 71], [474, 75], [474, 76], [471, 79], [471, 80], [470, 81], [470, 82], [469, 83], [469, 91], [472, 94], [473, 94], [474, 95], [476, 95], [477, 96], [481, 96], [482, 95], [482, 94], [484, 92], [484, 91], [486, 89], [486, 87], [487, 86], [487, 85], [488, 84], [488, 83], [492, 79], [492, 78], [493, 77], [493, 76], [496, 73], [496, 72], [495, 71], [495, 70], [494, 69], [495, 68], [494, 67], [487, 67]]]}, "properties": {"objectType": "annotation", "classification": {"name": "Connective", "color": [35, 92, 236]}}}, {"type": "Feature", "id": "da40592d-f1c6-4e26-950e-a0f9c817d5ab", "geometry": {"type": "Polygon", "coordinates": [[[27, 74], [26, 75], [24, 75], [23, 76], [22, 76], [21, 77], [20, 77], [15, 82], [15, 83], [14, 84], [14, 86], [13, 87], [13, 88], [14, 89], [14, 90], [15, 91], [15, 92], [20, 97], [21, 97], [22, 98], [24, 98], [25, 99], [27, 99], [28, 98], [29, 98], [30, 97], [31, 97], [34, 94], [35, 94], [37, 92], [38, 92], [41, 89], [41, 88], [43, 86], [43, 85], [44, 84], [44, 78], [40, 74], [27, 74]]]}, "properties": {"objectType": "annotation", "classification": {"name": "Neoplastic", "color": [255, 0, 0]}}}, {"type": "Feature", "id": "08933dd2-8142-44b2-b839-68a0270d0558", "geometry": {"type": "Polygon", "coordinates": [[[301, 76], [300, 77], [299, 77], [296, 80], [296, 81], [295, 82], [295, 83], [294, 84], [294, 89], [295, 90], [295, 93], [299, 97], [300, 97], [303, 100], [306, 100], [307, 99], [321, 99], [322, 98], [326, 98], [326, 97], [327, 96], [327, 95], [328, 94], [328, 92], [329, 91], [329, 85], [328, 84], [328, 82], [326, 80], [325, 80], [322, 77], [320, 77], [319, 76], [301, 76]]]}, "properties": {"objectType": "annotation", "classification": {"name": "Neoplastic", "color": [255, 0, 0]}}}, {"type": "Feature", "id": "b1a69ed8-96e1-4a83-9f0b-f0d5a3f601af", "geometry": {"type": "Polygon", "coordinates": [[[508, 82], [507, 83], [506, 83], [505, 84], [504, 84], [501, 87], [501, 93], [502, 94], [502, 96], [503, 97], [503, 99], [504, 100], [504, 101], [505, 102], [506, 102], [507, 103], [512, 103], [513, 102], [514, 102], [516, 100], [517, 100], [517, 99], [518, 98], [518, 95], [517, 94], [517, 89], [516, 88], [516, 87], [511, 82], [508, 82]]]}, "properties": {"objectType": "annotation", "classification": {"name": "Inflammatory", "color": [34, 221, 77]}}}, {"type": "Feature", "id": "ff5876f0-ccd4-4171-9d76-04b532c48190", "geometry": {"type": "Polygon", "coordinates": [[[83, 86], [82, 87], [81, 87], [80, 88], [79, 88], [74, 93], [74, 97], [73, 98], [73, 106], [74, 107], [74, 108], [76, 110], [81, 110], [82, 109], [83, 109], [85, 107], [86, 107], [92, 101], [93, 101], [94, 100], [94, 99], [95, 98], [95, 97], [96, 96], [96, 93], [95, 92], [95, 91], [91, 87], [88, 87], [87, 86], [83, 86]]]}, "properties": {"objectType": "annotation", "classification": {"name": "Neoplastic", "color": [255, 0, 0]}}}, {"type": "Feature", "id": "0ee8003a-6270-4ea6-a871-c6e7bb34405e", "geometry": {"type": "Polygon", "coordinates": [[[491, 88], [488, 91], [488, 92], [487, 93], [487, 102], [489, 104], [491, 104], [492, 105], [493, 105], [494, 104], [496, 104], [499, 101], [499, 93], [498, 92], [498, 91], [497, 90], [496, 90], [495, 89], [494, 89], [493, 88], [491, 88]]]}, "properties": {"objectType": "annotation", "classification": {"name": "Inflammatory", "color": [34, 221, 77]}}}, {"type": "Feature", "id": "2a81975f-0759-40a7-a734-aa7218d0e671", "geometry": {"type": "Polygon", "coordinates": [[[342, 89], [341, 90], [339, 90], [338, 91], [337, 91], [335, 93], [335, 94], [334, 95], [334, 96], [332, 98], [332, 99], [329, 102], [329, 106], [330, 107], [330, 111], [331, 112], [331, 117], [330, 118], [332, 120], [332, 121], [333, 122], [333, 131], [334, 132], [334, 135], [335, 136], [335, 137], [336, 138], [336, 139], [337, 140], [337, 141], [338, 141], [339, 142], [344, 142], [345, 141], [346, 141], [350, 137], [350, 136], [352, 134], [352, 133], [353, 132], [353, 131], [354, 130], [354, 129], [355, 128], [355, 126], [358, 123], [358, 122], [361, 119], [361, 118], [362, 117], [362, 115], [363, 114], [363, 107], [355, 99], [355, 98], [354, 97], [354, 96], [350, 92], [348, 92], [347, 91], [346, 91], [345, 90], [344, 90], [343, 89], [342, 89]]]}, "properties": {"objectType": "annotation", "classification": {"name": "Neoplastic", "color": [255, 0, 0]}}}, {"type": "Feature", "id": "267f5435-5e43-420c-83f1-295f5dd8741b", "geometry": {"type": "Polygon", "coordinates": [[[110, 92], [109, 93], [108, 93], [107, 94], [106, 94], [105, 95], [104, 95], [101, 98], [101, 99], [99, 101], [99, 102], [98, 103], [98, 107], [99, 108], [99, 110], [105, 116], [106, 116], [107, 117], [110, 117], [111, 118], [112, 118], [113, 117], [114, 117], [115, 116], [116, 116], [118, 114], [119, 114], [121, 112], [121, 111], [123, 109], [123, 107], [124, 106], [124, 99], [123, 98], [123, 96], [122, 95], [122, 94], [120, 92], [110, 92]]]}, "properties": {"objectType": "annotation", "classification": {"name": "Neoplastic", "color": [255, 0, 0]}}}, {"type": "Feature", "id": "7d053eb9-87cc-4c3c-8988-d2376494e517", "geometry": {"type": "Polygon", "coordinates": [[[457, 93], [456, 94], [455, 94], [454, 95], [453, 95], [450, 98], [448, 98], [447, 99], [446, 99], [445, 100], [445, 102], [444, 103], [444, 109], [445, 110], [445, 111], [448, 111], [449, 112], [454, 112], [455, 111], [459, 111], [460, 110], [461, 110], [464, 107], [465, 107], [468, 104], [468, 103], [469, 102], [469, 97], [467, 95], [466, 95], [465, 94], [461, 94], [460, 93], [457, 93]]]}, "properties": {"objectType": "annotation", "classification": {"name": "Neoplastic", "color": [255, 0, 0]}}}, {"type": "Feature", "id": "af5d3799-cecc-453e-909b-d1155c1e1101", "geometry": {"type": "Polygon", "coordinates": [[[48, 96], [47, 97], [44, 97], [43, 98], [41, 98], [40, 99], [39, 99], [36, 102], [36, 104], [35, 105], [35, 106], [36, 107], [36, 108], [40, 112], [43, 112], [44, 113], [47, 113], [48, 114], [51, 114], [52, 115], [54, 115], [55, 116], [61, 116], [62, 115], [63, 115], [64, 114], [64, 113], [65, 112], [65, 109], [66, 108], [66, 107], [65, 106], [65, 105], [63, 103], [63, 101], [62, 100], [62, 99], [59, 96], [48, 96]]]}, "properties": {"objectType": "annotation", "classification": {"name": "Neoplastic", "color": [255, 0, 0]}}}, {"type": "Feature", "id": "08e13883-c812-4180-a39b-eada75dcb02c", "geometry": {"type": "Polygon", "coordinates": [[[322, 99], [321, 100], [307, 100], [306, 101], [303, 101], [303, 102], [304, 103], [304, 105], [305, 106], [305, 107], [306, 108], [306, 109], [308, 111], [308, 112], [310, 114], [311, 114], [313, 116], [315, 116], [316, 117], [318, 117], [319, 118], [329, 118], [330, 117], [330, 112], [329, 111], [329, 107], [328, 106], [328, 103], [326, 101], [326, 99], [322, 99]]]}, "properties": {"objectType": "annotation", "classification": {"name": "Neoplastic", "color": [255, 0, 0]}}}, {"type": "Feature", "id": "e0533141-389b-46ae-bdf4-30c02ec15510", "geometry": {"type": "Polygon", "coordinates": [[[257, 127], [256, 128], [255, 128], [254, 129], [253, 129], [252, 130], [252, 133], [253, 134], [253, 135], [256, 138], [258, 138], [259, 139], [264, 139], [265, 138], [266, 138], [268, 136], [268, 135], [269, 134], [269, 133], [268, 132], [268, 131], [266, 129], [266, 128], [265, 128], [264, 127], [257, 127]]]}, "properties": {"objectType": "annotation", "classification": {"name": "Neoplastic", "color": [255, 0, 0]}}}, {"type": "Feature", "id": "38c9fa47-b3ba-44be-9ae6-93bab758e09f", "geometry": {"type": "Polygon", "coordinates": [[[198, 128], [195, 131], [195, 132], [194, 133], [195, 134], [195, 137], [196, 138], [196, 139], [198, 141], [198, 142], [203, 147], [204, 147], [205, 148], [206, 148], [207, 149], [210, 149], [211, 150], [214, 150], [215, 151], [217, 151], [218, 152], [219, 151], [222, 151], [224, 149], [225, 149], [228, 146], [228, 143], [226, 141], [224, 141], [223, 140], [221, 140], [220, 139], [218, 139], [217, 138], [216, 138], [209, 131], [208, 131], [207, 130], [206, 130], [205, 129], [203, 129], [202, 128], [198, 128]]]}, "properties": {"objectType": "annotation", "classification": {"name": "Neoplastic", "color": [255, 0, 0]}}}, {"type": "Feature", "id": "f1f6976e-6f6f-44be-9639-e9c03947d863", "geometry": {"type": "Polygon", "coordinates": [[[135, 136], [134, 137], [133, 137], [130, 140], [130, 141], [128, 143], [128, 144], [126, 146], [126, 147], [125, 148], [126, 149], [128, 149], [130, 151], [131, 151], [133, 153], [134, 153], [135, 154], [139, 154], [139, 153], [140, 152], [140, 148], [141, 147], [141, 145], [140, 144], [140, 142], [139, 141], [139, 140], [138, 139], [138, 137], [136, 137], [135, 136]]]}, "properties": {"objectType": "annotation", "classification": {"name": "Neoplastic", "color": [255, 0, 0]}}}, {"type": "Feature", "id": "70cbd5fe-bd31-4d85-90ef-ce451727791a", "geometry": {"type": "Polygon", "coordinates": [[[176, 140], [175, 141], [174, 141], [173, 142], [171, 142], [168, 145], [168, 147], [167, 148], [167, 151], [166, 152], [166, 158], [167, 159], [167, 160], [168, 161], [171, 161], [173, 163], [174, 163], [177, 166], [185, 166], [186, 165], [187, 165], [188, 164], [189, 164], [190, 163], [191, 163], [195, 159], [195, 158], [196, 157], [196, 156], [195, 155], [195, 153], [194, 152], [194, 151], [193, 150], [193, 149], [192, 148], [191, 148], [186, 143], [185, 143], [184, 142], [183, 142], [182, 141], [181, 141], [180, 140], [176, 140]]]}, "properties": {"objectType": "annotation", "classification": {"name": "Neoplastic", "color": [255, 0, 0]}}}, {"type": "Feature", "id": "0ea986a3-1135-44a4-8ca0-714e73be4832", "geometry": {"type": "Polygon", "coordinates": [[[245, 146], [244, 147], [243, 147], [242, 148], [242, 149], [240, 151], [240, 152], [239, 153], [239, 155], [240, 156], [240, 157], [241, 158], [241, 160], [242, 161], [242, 165], [243, 166], [243, 168], [244, 169], [244, 170], [245, 171], [245, 172], [246, 173], [247, 173], [248, 174], [249, 174], [250, 173], [251, 173], [253, 171], [254, 171], [256, 169], [257, 169], [258, 168], [259, 168], [259, 167], [261, 165], [261, 163], [262, 162], [262, 160], [263, 159], [263, 157], [262, 156], [262, 154], [261, 153], [261, 152], [259, 150], [258, 150], [255, 147], [253, 147], [252, 146], [245, 146]]]}, "properties": {"objectType": "annotation", "classification": {"name": "Neoplastic", "color": [255, 0, 0]}}}, {"type": "Feature", "id": "bcee59a1-8dc9-4e40-aea3-77d42fc2b3d4", "geometry": {"type": "Polygon", "coordinates": [[[48, 148], [47, 149], [45, 149], [43, 151], [42, 151], [41, 152], [41, 153], [39, 155], [39, 156], [38, 157], [38, 168], [39, 169], [39, 171], [41, 173], [41, 174], [44, 177], [45, 177], [46, 178], [47, 178], [48, 179], [52, 179], [53, 178], [54, 178], [57, 175], [57, 174], [59, 172], [59, 171], [60, 170], [60, 169], [61, 168], [61, 166], [62, 165], [62, 154], [61, 153], [61, 152], [58, 149], [56, 149], [55, 148], [48, 148]]]}, "properties": {"objectType": "annotation", "classification": {"name": "Neoplastic", "color": [255, 0, 0]}}}, {"type": "Feature", "id": "03155226-5fa0-4fa4-b93d-ffa617f1f410", "geometry": {"type": "Polygon", "coordinates": [[[124, 149], [124, 150], [123, 151], [123, 154], [122, 155], [122, 158], [121, 159], [121, 160], [119, 162], [119, 163], [118, 164], [118, 172], [119, 173], [119, 175], [122, 178], [124, 178], [125, 179], [126, 179], [127, 178], [128, 178], [130, 176], [131, 176], [134, 173], [135, 173], [136, 172], [136, 171], [137, 170], [137, 169], [138, 168], [138, 167], [137, 166], [137, 160], [136, 159], [136, 157], [138, 155], [135, 155], [134, 154], [133, 154], [131, 152], [130, 152], [128, 150], [126, 150], [125, 149], [124, 149]]]}, "properties": {"objectType": "annotation", "classification": {"name": "Neoplastic", "color": [255, 0, 0]}}}, {"type": "Feature", "id": "127d6cc5-172b-485c-8c26-01a886e2c1cf", "geometry": {"type": "Polygon", "coordinates": [[[494, 152], [493, 153], [491, 153], [490, 154], [488, 154], [486, 156], [486, 163], [490, 167], [496, 167], [497, 166], [500, 166], [502, 164], [503, 164], [504, 163], [504, 162], [505, 161], [505, 155], [503, 153], [502, 153], [501, 152], [494, 152]]]}, "properties": {"objectType": "annotation", "classification": {"name": "Neoplastic", "color": [255, 0, 0]}}}, {"type": "Feature", "id": "89b3b40d-c39a-4a64-b144-407175402106", "geometry": {"type": "Polygon", "coordinates": [[[91, 156], [90, 157], [89, 157], [87, 159], [87, 160], [86, 161], [86, 163], [83, 166], [82, 166], [76, 172], [76, 173], [75, 174], [75, 175], [74, 176], [74, 183], [75, 184], [75, 185], [76, 186], [77, 186], [78, 187], [81, 187], [82, 188], [83, 187], [86, 187], [87, 186], [88, 186], [90, 184], [91, 184], [95, 180], [96, 180], [96, 179], [97, 178], [97, 177], [99, 175], [99, 174], [102, 171], [102, 170], [103, 169], [103, 168], [104, 167], [104, 163], [103, 162], [103, 161], [102, 160], [102, 159], [99, 156], [91, 156]]]}, "properties": {"objectType": "annotation", "classification": {"name": "Neoplastic", "color": [255, 0, 0]}}}, {"type": "Feature", "id": "3f054dbe-3e3c-452a-9639-b255c45b95f4", "geometry": {"type": "Polygon", "coordinates": [[[276, 157], [275, 158], [274, 158], [273, 159], [272, 159], [270, 161], [270, 162], [269, 163], [269, 164], [268, 165], [268, 167], [267, 168], [267, 169], [266, 170], [266, 171], [265, 172], [265, 173], [264, 174], [264, 175], [263, 176], [263, 179], [262, 180], [262, 183], [261, 184], [261, 185], [262, 186], [262, 193], [263, 194], [263, 195], [264, 196], [269, 196], [271, 194], [272, 194], [274, 192], [274, 191], [275, 190], [275, 189], [276, 188], [276, 187], [277, 186], [277, 184], [278, 183], [278, 180], [279, 179], [279, 174], [280, 173], [280, 164], [281, 163], [281, 160], [280, 159], [280, 158], [279, 157], [276, 157]]]}, "properties": {"objectType": "annotation", "classification": {"name": "Neoplastic", "color": [255, 0, 0]}}}, {"type": "Feature", "id": "d0b7d43c-a49d-48b8-9c2b-5abea069e153", "geometry": {"type": "Polygon", "coordinates": [[[393, 163], [392, 164], [386, 164], [385, 165], [383, 165], [382, 166], [380, 166], [379, 167], [378, 167], [377, 168], [377, 170], [378, 171], [378, 172], [377, 173], [378, 174], [378, 176], [379, 176], [380, 177], [381, 177], [382, 178], [384, 178], [385, 179], [395, 179], [396, 178], [398, 178], [399, 177], [401, 177], [402, 176], [405, 176], [406, 175], [407, 175], [410, 172], [410, 171], [409, 170], [409, 169], [408, 168], [408, 167], [407, 166], [406, 166], [405, 165], [404, 165], [403, 164], [399, 164], [398, 163], [393, 163]]]}, "properties": {"objectType": "annotation", "classification": {"name": "Neoplastic", "color": [255, 0, 0]}}}, {"type": "Feature", "id": "7dd47f80-5336-4055-bb77-eb64be261d3c", "geometry": {"type": "Polygon", "coordinates": [[[504, 170], [503, 171], [502, 171], [502, 177], [509, 184], [510, 184], [511, 185], [512, 185], [513, 186], [516, 186], [517, 185], [519, 185], [521, 183], [521, 178], [519, 176], [518, 176], [517, 175], [516, 175], [515, 174], [514, 174], [511, 171], [510, 171], [509, 170], [504, 170]]]}, "properties": {"objectType": "annotation", "classification": {"name": "Neoplastic", "color": [255, 0, 0]}}}, {"type": "Feature", "id": "721bc86f-aa6b-464a-a4ab-7921b8018305", "geometry": {"type": "Polygon", "coordinates": [[[169, 180], [165, 184], [164, 184], [164, 185], [162, 187], [162, 196], [163, 197], [163, 198], [164, 199], [164, 200], [165, 200], [168, 203], [170, 203], [171, 204], [174, 204], [175, 203], [176, 203], [178, 201], [178, 200], [180, 198], [180, 197], [181, 196], [181, 195], [182, 194], [182, 192], [183, 191], [183, 189], [184, 188], [184, 184], [181, 181], [179, 181], [178, 180], [169, 180]]]}, "properties": {"objectType": "annotation", "classification": {"name": "Neoplastic", "color": [255, 0, 0]}}}, {"type": "Feature", "id": "af81d7fd-689f-40e3-9202-5e430d03a47c", "geometry": {"type": "Polygon", "coordinates": [[[467, 186], [466, 187], [465, 187], [464, 188], [462, 188], [461, 189], [460, 189], [459, 190], [458, 190], [457, 191], [456, 191], [455, 192], [455, 193], [454, 194], [454, 203], [455, 204], [455, 206], [458, 209], [460, 209], [461, 210], [463, 210], [464, 211], [466, 211], [467, 210], [469, 210], [473, 206], [473, 204], [474, 203], [474, 201], [473, 200], [473, 188], [471, 186], [467, 186]]]}, "properties": {"objectType": "annotation", "classification": {"name": "Neoplastic", "color": [255, 0, 0]}}}, {"type": "Feature", "id": "bb6bee91-ad4a-4006-90d0-f6e68b30f96f", "geometry": {"type": "Polygon", "coordinates": [[[20, 190], [15, 195], [15, 200], [18, 203], [20, 203], [21, 204], [23, 204], [24, 203], [26, 203], [27, 202], [28, 202], [30, 200], [30, 195], [29, 194], [29, 193], [27, 191], [26, 191], [25, 190], [20, 190]]]}, "properties": {"objectType": "annotation", "classification": {"name": "Neoplastic", "color": [255, 0, 0]}}}, {"type": "Feature", "id": "ebd08a65-ffb5-4b9b-8aa1-62a8fa95dcd7", "geometry": {"type": "Polygon", "coordinates": [[[363, 188], [362, 189], [360, 189], [359, 190], [358, 190], [357, 191], [357, 192], [355, 194], [355, 195], [354, 196], [354, 198], [353, 199], [353, 200], [352, 201], [352, 203], [351, 204], [351, 209], [352, 210], [352, 211], [353, 212], [353, 213], [357, 217], [359, 217], [360, 216], [362, 216], [363, 215], [364, 215], [365, 214], [365, 213], [367, 211], [367, 210], [368, 209], [368, 208], [370, 206], [370, 205], [371, 204], [371, 203], [372, 202], [372, 201], [374, 199], [374, 198], [375, 197], [375, 196], [376, 195], [376, 191], [374, 189], [370, 189], [369, 188], [363, 188]]]}, "properties": {"objectType": "annotation", "classification": {"name": "Neoplastic", "color": [255, 0, 0]}}}, {"type": "Feature", "id": "d800d5ba-d15e-46d1-83be-bfc125520842", "geometry": {"type": "Polygon", "coordinates": [[[252, 189], [251, 190], [247, 190], [246, 191], [244, 191], [243, 192], [241, 192], [240, 193], [238, 193], [236, 195], [235, 195], [234, 196], [233, 196], [232, 197], [230, 197], [227, 200], [227, 201], [226, 202], [226, 206], [227, 207], [227, 208], [228, 208], [229, 209], [231, 209], [232, 210], [233, 210], [234, 211], [235, 211], [236, 212], [238, 212], [239, 213], [248, 213], [249, 212], [250, 212], [255, 207], [255, 206], [256, 205], [256, 203], [257, 202], [257, 192], [255, 190], [254, 190], [253, 189], [252, 189]]]}, "properties": {"objectType": "annotation", "classification": {"name": "Neoplastic", "color": [255, 0, 0]}}}, {"type": "Feature", "id": "4cb690d9-a0f4-40b3-a047-18d9bd266fb4", "geometry": {"type": "Polygon", "coordinates": [[[85, 192], [84, 193], [81, 193], [78, 196], [78, 198], [77, 199], [77, 200], [72, 205], [72, 206], [77, 211], [79, 211], [80, 210], [82, 210], [83, 209], [84, 209], [87, 206], [88, 206], [92, 202], [92, 201], [93, 200], [93, 197], [89, 193], [87, 193], [86, 192], [85, 192]]]}, "properties": {"objectType": "annotation", "classification": {"name": "Neoplastic", "color": [255, 0, 0]}}}, {"type": "Feature", "id": "0a70983c-74ed-4cae-800d-60a87ffca2ed", "geometry": {"type": "Polygon", "coordinates": [[[62, 199], [60, 201], [59, 201], [58, 202], [58, 203], [56, 205], [56, 207], [55, 208], [55, 217], [54, 218], [54, 220], [55, 221], [55, 222], [57, 224], [57, 225], [58, 226], [59, 226], [60, 227], [61, 227], [62, 226], [64, 226], [65, 225], [66, 225], [66, 224], [67, 223], [67, 222], [68, 221], [68, 220], [67, 219], [67, 216], [66, 215], [66, 213], [65, 212], [65, 211], [66, 210], [66, 201], [65, 200], [64, 200], [63, 199], [62, 199]]]}, "properties": {"objectType": "annotation", "classification": {"name": "Connective", "color": [35, 92, 236]}}}, {"type": "Feature", "id": "a579c2ac-caf7-44bb-a247-7d64e4fdfe89", "geometry": {"type": "Polygon", "coordinates": [[[297, 200], [296, 201], [295, 201], [294, 202], [293, 202], [290, 205], [290, 206], [289, 207], [288, 207], [287, 208], [287, 209], [285, 211], [285, 212], [284, 213], [285, 214], [285, 215], [288, 218], [289, 218], [291, 220], [292, 220], [294, 222], [296, 222], [297, 223], [299, 223], [300, 224], [303, 224], [304, 225], [310, 225], [311, 224], [312, 224], [313, 223], [313, 221], [314, 220], [314, 213], [313, 212], [313, 208], [312, 207], [312, 205], [311, 204], [311, 203], [309, 201], [304, 201], [303, 200], [297, 200]]]}, "properties": {"objectType": "annotation", "classification": {"name": "Neoplastic", "color": [255, 0, 0]}}}, {"type": "Feature", "id": "594e00a8-8c90-45ad-8055-fe0dbc8df0cb", "geometry": {"type": "Polygon", "coordinates": [[[102, 202], [101, 203], [100, 203], [99, 204], [98, 204], [97, 205], [96, 205], [95, 206], [95, 207], [93, 209], [93, 210], [92, 211], [92, 218], [93, 219], [93, 220], [95, 222], [96, 222], [97, 223], [99, 223], [101, 221], [102, 221], [105, 218], [109, 218], [109, 214], [110, 213], [110, 211], [109, 210], [109, 207], [105, 203], [104, 203], [103, 202], [102, 202]]]}, "properties": {"objectType": "annotation", "classification": {"name": "Connective", "color": [35, 92, 236]}}}, {"type": "Feature", "id": "0c1e23fc-22bb-4f03-82a7-dea7f0e95598", "geometry": {"type": "Polygon", "coordinates": [[[378, 211], [377, 212], [375, 212], [374, 213], [374, 214], [372, 216], [372, 217], [371, 218], [371, 219], [370, 220], [370, 226], [371, 227], [371, 228], [372, 229], [372, 231], [373, 232], [373, 233], [374, 234], [375, 234], [377, 236], [387, 236], [388, 237], [389, 237], [390, 236], [391, 236], [393, 234], [393, 233], [395, 231], [395, 228], [396, 227], [396, 225], [395, 224], [395, 223], [394, 222], [394, 221], [391, 218], [391, 217], [385, 211], [378, 211]]]}, "properties": {"objectType": "annotation", "classification": {"name": "Neoplastic", "color": [255, 0, 0]}}}, {"type": "Feature", "id": "a88629e7-440b-4534-896e-6f1d94759c0b", "geometry": {"type": "Polygon", "coordinates": [[[338, 210], [335, 213], [335, 214], [334, 215], [334, 216], [332, 218], [332, 220], [331, 221], [331, 229], [332, 230], [332, 233], [333, 234], [333, 235], [339, 241], [342, 241], [343, 242], [349, 242], [350, 243], [356, 243], [357, 242], [358, 242], [360, 240], [360, 237], [359, 236], [359, 235], [358, 234], [357, 234], [355, 232], [355, 231], [353, 229], [353, 228], [352, 227], [352, 225], [347, 220], [347, 219], [345, 217], [345, 216], [344, 215], [344, 211], [343, 210], [338, 210]]]}, "properties": {"objectType": "annotation", "classification": {"name": "Neoplastic", "color": [255, 0, 0]}}}, {"type": "Feature", "id": "25263cd4-fdea-457d-8969-2afdc1b3b744", "geometry": {"type": "Polygon", "coordinates": [[[488, 212], [488, 217], [489, 218], [489, 223], [490, 224], [490, 227], [491, 228], [491, 229], [492, 230], [492, 231], [494, 231], [495, 230], [497, 230], [498, 229], [498, 228], [499, 227], [500, 227], [502, 225], [502, 224], [503, 223], [503, 222], [504, 221], [504, 216], [503, 215], [503, 214], [502, 214], [501, 213], [498, 213], [497, 212], [488, 212]]]}, "properties": {"objectType": "annotation", "classification": {"name": "Neoplastic", "color": [255, 0, 0]}}}, {"type": "Feature", "id": "1687c108-08f8-454a-9bd0-eee2d36b8586", "geometry": {"type": "Polygon", "coordinates": [[[482, 212], [481, 213], [480, 213], [475, 218], [474, 218], [473, 219], [472, 219], [471, 220], [470, 220], [467, 223], [467, 224], [466, 225], [466, 230], [465, 231], [465, 238], [466, 239], [466, 240], [467, 241], [468, 241], [469, 242], [472, 242], [473, 241], [475, 241], [476, 240], [477, 240], [479, 238], [480, 238], [481, 237], [482, 237], [483, 236], [484, 236], [485, 235], [486, 235], [489, 232], [490, 232], [491, 231], [491, 230], [490, 229], [490, 228], [489, 227], [489, 224], [488, 223], [488, 218], [487, 217], [487, 212], [482, 212]]]}, "properties": {"objectType": "annotation", "classification": {"name": "Neoplastic", "color": [255, 0, 0]}}}, {"type": "Feature", "id": "49a33af2-58e5-4452-bb6b-184803acff2f", "geometry": {"type": "Polygon", "coordinates": [[[246, 218], [245, 219], [242, 219], [238, 223], [238, 237], [239, 238], [239, 240], [240, 241], [240, 242], [249, 251], [250, 251], [251, 252], [256, 252], [257, 251], [258, 251], [260, 249], [260, 248], [261, 247], [261, 246], [262, 245], [262, 241], [263, 240], [263, 237], [262, 236], [262, 227], [261, 226], [261, 223], [259, 221], [258, 221], [256, 219], [255, 219], [254, 218], [246, 218]]]}, "properties": {"objectType": "annotation", "classification": {"name": "Neoplastic", "color": [255, 0, 0]}}}, {"type": "Feature", "id": "9240003e-ce0e-49d2-8fe0-5631f56e260d", "geometry": {"type": "Polygon", "coordinates": [[[82, 218], [81, 219], [80, 219], [79, 220], [79, 221], [77, 223], [77, 225], [76, 226], [76, 228], [75, 229], [75, 231], [76, 232], [76, 234], [77, 235], [77, 238], [78, 239], [78, 240], [79, 241], [79, 242], [80, 242], [81, 243], [83, 243], [85, 241], [85, 240], [86, 239], [86, 237], [87, 236], [87, 233], [88, 232], [88, 226], [87, 225], [87, 223], [86, 222], [86, 221], [83, 218], [82, 218]]]}, "properties": {"objectType": "annotation", "classification": {"name": "Connective", "color": [35, 92, 236]}}}, {"type": "Feature", "id": "69282227-b445-47df-a4c6-4e229362d796", "geometry": {"type": "Polygon", "coordinates": [[[135, 220], [134, 221], [133, 221], [130, 224], [130, 225], [129, 226], [129, 227], [128, 228], [128, 231], [127, 232], [127, 235], [129, 237], [129, 238], [130, 238], [131, 239], [137, 239], [138, 238], [140, 238], [141, 237], [142, 237], [143, 236], [144, 236], [147, 233], [147, 229], [146, 228], [146, 225], [145, 224], [145, 223], [143, 221], [142, 221], [141, 220], [135, 220]]]}, "properties": {"objectType": "annotation", "classification": {"name": "Neoplastic", "color": [255, 0, 0]}}}, {"type": "Feature", "id": "a3b408d1-2702-4db5-a482-a2fc40289309", "geometry": {"type": "Polygon", "coordinates": [[[105, 219], [102, 222], [101, 222], [99, 224], [98, 224], [99, 225], [99, 228], [98, 229], [98, 231], [97, 232], [97, 237], [98, 238], [98, 240], [99, 241], [99, 242], [104, 247], [105, 247], [106, 248], [111, 248], [113, 246], [114, 246], [114, 236], [113, 235], [113, 231], [112, 230], [112, 229], [111, 228], [111, 226], [110, 225], [110, 222], [109, 221], [109, 219], [105, 219]]]}, "properties": {"objectType": "annotation", "classification": {"name": "Connective", "color": [35, 92, 236]}}}, {"type": "Feature", "id": "caa0e083-5d49-4553-b891-d5e19d4e11e2", "geometry": {"type": "Polygon", "coordinates": [[[441, 226], [440, 227], [438, 227], [436, 229], [436, 234], [437, 235], [437, 236], [438, 237], [438, 238], [443, 243], [444, 243], [445, 244], [446, 244], [448, 246], [450, 246], [451, 247], [452, 246], [453, 246], [454, 245], [454, 244], [455, 243], [455, 238], [454, 237], [454, 236], [452, 234], [452, 233], [448, 229], [447, 229], [446, 228], [445, 228], [444, 227], [442, 227], [441, 226]]]}, "properties": {"objectType": "annotation", "classification": {"name": "Connective", "color": [35, 92, 236]}}}, {"type": "Feature", "id": "ceb9242e-859b-4bf7-8173-4921353b7b74", "geometry": {"type": "Polygon", "coordinates": [[[18, 231], [16, 233], [16, 234], [15, 235], [15, 237], [14, 238], [14, 240], [13, 241], [13, 242], [14, 243], [14, 244], [15, 245], [15, 246], [16, 247], [16, 248], [19, 251], [20, 251], [21, 252], [26, 252], [27, 251], [28, 251], [30, 249], [31, 249], [36, 244], [36, 242], [35, 241], [34, 241], [33, 240], [29, 240], [28, 239], [25, 239], [22, 236], [22, 235], [21, 234], [21, 233], [20, 232], [19, 232], [18, 231]]]}, "properties": {"objectType": "annotation", "classification": {"name": "Connective", "color": [35, 92, 236]}}}, {"type": "Feature", "id": "e5197e9d-4da0-4742-b41e-0d4927939220", "geometry": {"type": "Polygon", "coordinates": [[[199, 232], [198, 233], [197, 233], [196, 234], [195, 234], [194, 235], [194, 238], [195, 239], [195, 241], [196, 242], [196, 243], [198, 245], [198, 246], [201, 249], [205, 249], [207, 247], [208, 247], [208, 246], [209, 245], [209, 243], [210, 242], [210, 237], [209, 236], [209, 235], [208, 234], [208, 233], [207, 233], [206, 232], [199, 232]]]}, "properties": {"objectType": "annotation", "classification": {"name": "Inflammatory", "color": [34, 221, 77]}}}, {"type": "Feature", "id": "8c1ec66e-3da0-4036-b7b5-4295a710360f", "geometry": {"type": "Polygon", "coordinates": [[[315, 235], [314, 236], [313, 236], [312, 237], [311, 237], [310, 238], [309, 238], [307, 240], [306, 240], [300, 246], [300, 247], [299, 248], [299, 249], [298, 250], [298, 251], [297, 252], [297, 257], [298, 258], [298, 259], [300, 261], [300, 262], [303, 265], [308, 265], [309, 264], [312, 264], [313, 263], [315, 263], [316, 262], [317, 262], [318, 261], [319, 261], [321, 259], [322, 259], [325, 256], [325, 255], [326, 254], [326, 253], [327, 252], [327, 244], [326, 243], [326, 241], [325, 240], [325, 239], [321, 235], [315, 235]]]}, "properties": {"objectType": "annotation", "classification": {"name": "Neoplastic", "color": [255, 0, 0]}}}, {"type": "Feature", "id": "77d48091-b3ce-43f6-a273-5f5dfb970c33", "geometry": {"type": "Polygon", "coordinates": [[[376, 237], [374, 239], [374, 240], [373, 241], [373, 247], [374, 248], [374, 250], [375, 251], [380, 251], [381, 250], [382, 250], [386, 246], [386, 245], [388, 243], [388, 238], [387, 237], [376, 237]]]}, "properties": {"objectType": "annotation", "classification": {"name": "Neoplastic", "color": [255, 0, 0]}}}, {"type": "Feature", "id": "b635b713-2cbc-42c1-ae2b-c6b7aed326f7", "geometry": {"type": "Polygon", "coordinates": [[[350, 245], [349, 246], [347, 246], [346, 247], [345, 247], [344, 248], [343, 248], [342, 249], [342, 250], [341, 251], [341, 252], [340, 253], [340, 256], [339, 257], [339, 261], [340, 262], [340, 265], [341, 266], [341, 267], [342, 268], [343, 268], [344, 269], [345, 269], [346, 270], [348, 270], [349, 269], [350, 269], [351, 268], [352, 268], [355, 265], [355, 264], [356, 263], [356, 261], [357, 260], [357, 258], [358, 257], [358, 256], [359, 255], [359, 253], [360, 252], [360, 250], [359, 249], [359, 248], [358, 247], [357, 247], [356, 246], [354, 246], [353, 245], [350, 245]]]}, "properties": {"objectType": "annotation", "classification": {"name": "Neoplastic", "color": [255, 0, 0]}}}, {"type": "Feature", "id": "158426d4-ef6c-4282-a17d-40979c64983b", "geometry": {"type": "Polygon", "coordinates": [[[269, 249], [265, 253], [265, 256], [264, 257], [264, 259], [265, 260], [265, 261], [264, 262], [264, 277], [263, 278], [263, 280], [265, 282], [268, 282], [269, 281], [270, 281], [273, 278], [273, 277], [275, 275], [275, 266], [276, 265], [276, 263], [277, 262], [277, 260], [278, 259], [278, 258], [279, 257], [279, 253], [278, 252], [278, 251], [276, 249], [269, 249]]]}, "properties": {"objectType": "annotation", "classification": {"name": "Neoplastic", "color": [255, 0, 0]}}}, {"type": "Feature", "id": "8913153a-eaec-4c49-b303-26366f032e33", "geometry": {"type": "Polygon", "coordinates": [[[36, 250], [35, 251], [33, 251], [31, 253], [30, 253], [29, 254], [28, 254], [27, 255], [26, 255], [23, 258], [23, 266], [24, 267], [24, 268], [27, 271], [28, 271], [29, 272], [30, 272], [31, 273], [39, 273], [40, 272], [46, 272], [47, 271], [51, 271], [52, 270], [53, 270], [55, 268], [55, 266], [56, 265], [56, 263], [55, 262], [55, 261], [54, 260], [54, 259], [53, 258], [53, 257], [51, 255], [51, 254], [49, 252], [48, 252], [47, 251], [46, 251], [45, 250], [36, 250]]]}, "properties": {"objectType": "annotation", "classification": {"name": "Connective", "color": [35, 92, 236]}}}, {"type": "Feature", "id": "f364794f-7a94-4850-b39b-61c682783f2f", "geometry": {"type": "Polygon", "coordinates": [[[132, 251], [131, 252], [128, 252], [127, 253], [125, 253], [122, 256], [122, 257], [121, 258], [121, 260], [124, 263], [126, 263], [127, 264], [130, 264], [131, 265], [135, 265], [136, 264], [138, 264], [141, 261], [141, 256], [139, 254], [139, 253], [138, 253], [136, 251], [132, 251]]]}, "properties": {"objectType": "annotation", "classification": {"name": "Inflammatory", "color": [34, 221, 77]}}}, {"type": "Feature", "id": "897b8b37-803e-4efc-a84e-fbe8bdd84042", "geometry": {"type": "Polygon", "coordinates": [[[90, 259], [89, 260], [88, 260], [87, 261], [86, 261], [84, 263], [82, 263], [81, 264], [81, 265], [80, 266], [80, 267], [79, 268], [79, 270], [78, 271], [78, 273], [77, 274], [77, 276], [76, 277], [76, 281], [77, 282], [77, 283], [78, 284], [81, 284], [82, 283], [83, 283], [84, 282], [85, 282], [86, 281], [87, 281], [88, 280], [90, 280], [91, 279], [92, 279], [93, 278], [95, 278], [97, 276], [98, 276], [99, 275], [100, 275], [101, 274], [103, 274], [104, 273], [105, 273], [107, 271], [107, 270], [108, 269], [108, 264], [107, 263], [106, 263], [105, 262], [104, 262], [103, 261], [101, 261], [100, 260], [95, 260], [94, 259], [90, 259]]]}, "properties": {"objectType": "annotation", "classification": {"name": "Connective", "color": [35, 92, 236]}}}, {"type": "Feature", "id": "8cdadbb7-73a4-419d-b99e-4c5bb27ecac8", "geometry": {"type": "Polygon", "coordinates": [[[467, 262], [466, 263], [465, 263], [463, 265], [461, 265], [460, 264], [453, 264], [452, 265], [452, 270], [453, 271], [453, 274], [454, 275], [454, 277], [455, 278], [455, 280], [459, 284], [461, 284], [462, 285], [465, 285], [466, 284], [467, 284], [468, 283], [469, 283], [470, 282], [471, 282], [472, 281], [473, 281], [478, 276], [478, 272], [477, 271], [477, 269], [475, 267], [475, 266], [474, 265], [474, 264], [472, 262], [467, 262]]]}, "properties": {"objectType": "annotation", "classification": {"name": "Connective", "color": [35, 92, 236]}}}, {"type": "Feature", "id": "b8f3486f-2895-4e3d-b7fa-bbee1173470f", "geometry": {"type": "Polygon", "coordinates": [[[228, 262], [227, 263], [224, 263], [223, 264], [223, 265], [222, 266], [222, 277], [223, 278], [223, 282], [224, 283], [224, 285], [225, 286], [225, 287], [226, 288], [226, 289], [228, 291], [230, 291], [231, 292], [232, 291], [234, 291], [236, 289], [236, 288], [237, 287], [237, 286], [238, 285], [238, 271], [237, 270], [237, 267], [235, 265], [235, 264], [234, 264], [233, 263], [232, 263], [231, 262], [228, 262]]]}, "properties": {"objectType": "annotation", "classification": {"name": "Neoplastic", "color": [255, 0, 0]}}}, {"type": "Feature", "id": "a39e5082-a550-48f5-85a8-49b5d1473fde", "geometry": {"type": "Polygon", "coordinates": [[[282, 263], [281, 264], [281, 265], [279, 267], [279, 268], [277, 270], [277, 272], [276, 273], [276, 277], [277, 278], [277, 280], [279, 282], [280, 282], [281, 283], [288, 283], [290, 281], [290, 278], [291, 277], [291, 270], [290, 269], [290, 267], [288, 265], [288, 264], [287, 264], [286, 263], [282, 263]]]}, "properties": {"objectType": "annotation", "classification": {"name": "Neoplastic", "color": [255, 0, 0]}}}, {"type": "Feature", "id": "19065e67-dda3-4930-9813-b3451e0c6d02", "geometry": {"type": "Polygon", "coordinates": [[[321, 265], [320, 266], [318, 266], [315, 269], [315, 274], [316, 275], [316, 276], [317, 277], [318, 277], [319, 278], [320, 278], [321, 279], [325, 279], [326, 278], [326, 277], [327, 276], [327, 274], [328, 273], [328, 271], [327, 270], [327, 267], [325, 265], [321, 265]]]}, "properties": {"objectType": "annotation", "classification": {"name": "Neoplastic", "color": [255, 0, 0]}}}, {"type": "Feature", "id": "9489e7b1-8351-4ae2-a725-b77c0f429ce5", "geometry": {"type": "Polygon", "coordinates": [[[149, 269], [146, 272], [145, 272], [144, 273], [143, 273], [141, 275], [141, 276], [139, 278], [139, 279], [137, 281], [135, 281], [132, 284], [132, 286], [133, 287], [133, 288], [136, 288], [137, 287], [139, 287], [140, 286], [148, 286], [150, 284], [152, 284], [153, 283], [154, 283], [155, 282], [157, 282], [158, 281], [162, 281], [163, 280], [164, 280], [165, 279], [165, 276], [166, 275], [166, 274], [165, 273], [165, 271], [163, 269], [149, 269]]]}, "properties": {"objectType": "annotation", "classification": {"name": "Connective", "color": [35, 92, 236]}}}, {"type": "Feature", "id": "3156d2e1-7875-4a71-96fc-a5f504eedcde", "geometry": {"type": "Polygon", "coordinates": [[[394, 268], [393, 269], [389, 269], [388, 270], [384, 270], [383, 271], [382, 271], [381, 272], [380, 272], [370, 282], [369, 282], [368, 283], [368, 284], [363, 289], [363, 290], [366, 293], [366, 294], [368, 296], [370, 296], [371, 297], [373, 297], [374, 298], [375, 298], [376, 299], [378, 299], [379, 300], [387, 300], [394, 293], [395, 293], [396, 292], [397, 292], [398, 291], [399, 291], [400, 290], [401, 290], [403, 288], [403, 286], [404, 285], [404, 281], [405, 280], [405, 277], [404, 276], [404, 273], [403, 272], [403, 271], [402, 270], [401, 270], [400, 269], [397, 269], [396, 268], [394, 268]]]}, "properties": {"objectType": "annotation", "classification": {"name": "Neoplastic", "color": [255, 0, 0]}}}, {"type": "Feature", "id": "eee203fa-d6cc-4a6d-aae3-86f6e1af5487", "geometry": {"type": "Polygon", "coordinates": [[[243, 277], [242, 278], [242, 279], [241, 280], [241, 288], [242, 289], [242, 291], [244, 293], [245, 293], [246, 294], [248, 294], [249, 295], [252, 295], [254, 293], [254, 289], [253, 288], [253, 287], [252, 286], [252, 285], [251, 284], [251, 283], [245, 277], [243, 277]]]}, "properties": {"objectType": "annotation", "classification": {"name": "Neoplastic", "color": [255, 0, 0]}}}, {"type": "Feature", "id": "d0ea8cc5-757c-452c-9599-47f399412ce6", "geometry": {"type": "Polygon", "coordinates": [[[314, 283], [313, 284], [312, 284], [311, 285], [311, 286], [310, 287], [310, 293], [311, 294], [311, 295], [312, 296], [312, 298], [315, 301], [318, 301], [319, 302], [326, 302], [328, 300], [328, 299], [329, 298], [329, 297], [330, 296], [330, 293], [329, 292], [329, 291], [328, 290], [328, 289], [326, 287], [325, 287], [323, 285], [322, 285], [321, 284], [317, 284], [316, 283], [314, 283]]]}, "properties": {"objectType": "annotation", "classification": {"name": "Neoplastic", "color": [255, 0, 0]}}}, {"type": "Feature", "id": "8a650952-277b-411b-800b-d4a93e809ad7", "geometry": {"type": "Polygon", "coordinates": [[[163, 281], [162, 282], [158, 282], [157, 283], [155, 283], [154, 284], [153, 284], [152, 285], [150, 285], [148, 287], [147, 287], [147, 289], [148, 290], [148, 291], [153, 296], [154, 296], [156, 298], [157, 298], [159, 300], [160, 300], [161, 301], [163, 301], [164, 302], [175, 302], [176, 301], [176, 300], [177, 299], [177, 292], [176, 291], [176, 290], [175, 289], [175, 288], [174, 287], [173, 287], [171, 285], [170, 285], [168, 283], [167, 283], [165, 281], [163, 281]]]}, "properties": {"objectType": "annotation", "classification": {"name": "Connective", "color": [35, 92, 236]}}}, {"type": "Feature", "id": "278161e1-94be-4a9e-bedb-ebb019b460be", "geometry": {"type": "Polygon", "coordinates": [[[97, 286], [96, 287], [91, 287], [90, 288], [89, 288], [88, 289], [87, 289], [86, 290], [85, 290], [82, 293], [82, 300], [83, 301], [84, 301], [85, 302], [86, 302], [87, 303], [92, 303], [93, 302], [94, 302], [97, 299], [99, 299], [100, 298], [101, 298], [101, 297], [103, 295], [103, 294], [104, 293], [104, 292], [105, 291], [105, 290], [104, 289], [104, 288], [103, 288], [102, 287], [101, 287], [100, 286], [97, 286]]]}, "properties": {"objectType": "annotation", "classification": {"name": "Inflammatory", "color": [34, 221, 77]}}}, {"type": "Feature", "id": "5a3af1a8-4423-48ef-991a-b2d1299da492", "geometry": {"type": "Polygon", "coordinates": [[[289, 283], [288, 284], [283, 284], [282, 285], [281, 285], [280, 286], [277, 286], [276, 287], [275, 287], [273, 289], [273, 291], [272, 292], [272, 294], [273, 295], [273, 296], [274, 297], [274, 298], [276, 300], [277, 300], [279, 302], [281, 302], [282, 303], [289, 303], [290, 302], [290, 301], [294, 297], [294, 290], [293, 289], [293, 287], [290, 284], [290, 283], [289, 283]]]}, "properties": {"objectType": "annotation", "classification": {"name": "Neoplastic", "color": [255, 0, 0]}}}, {"type": "Feature", "id": "a20d5175-5d79-4634-93f1-4309724eadec", "geometry": {"type": "Polygon", "coordinates": [[[115, 297], [114, 298], [111, 298], [110, 299], [108, 299], [107, 300], [106, 300], [105, 301], [104, 301], [103, 302], [102, 302], [101, 303], [100, 303], [99, 304], [98, 304], [97, 305], [97, 308], [101, 312], [102, 312], [103, 313], [105, 313], [106, 314], [107, 314], [108, 315], [110, 315], [112, 317], [116, 317], [117, 316], [118, 316], [119, 315], [120, 315], [123, 312], [123, 311], [124, 310], [124, 306], [123, 305], [123, 304], [122, 303], [122, 302], [121, 301], [121, 300], [119, 298], [117, 298], [116, 297], [115, 297]]]}, "properties": {"objectType": "annotation", "classification": {"name": "Inflammatory", "color": [34, 221, 77]}}}, {"type": "Feature", "id": "ae574eae-1ed2-4265-8cd9-6956e809a1eb", "geometry": {"type": "Polygon", "coordinates": [[[499, 303], [498, 304], [495, 304], [494, 305], [491, 305], [490, 306], [488, 306], [487, 307], [485, 307], [483, 309], [483, 310], [486, 313], [489, 313], [490, 314], [494, 314], [495, 315], [499, 315], [500, 316], [506, 316], [507, 315], [508, 315], [510, 313], [510, 312], [511, 311], [511, 308], [510, 308], [507, 305], [506, 305], [505, 304], [503, 304], [502, 303], [499, 303]]]}, "properties": {"objectType": "annotation", "classification": {"name": "Connective", "color": [35, 92, 236]}}}, {"type": "Feature", "id": "50d29944-5d1f-47f0-a013-6ecfee8f7e85", "geometry": {"type": "Polygon", "coordinates": [[[81, 309], [80, 310], [79, 310], [78, 311], [77, 311], [77, 312], [76, 313], [76, 322], [77, 323], [77, 324], [81, 328], [85, 328], [86, 329], [87, 328], [93, 328], [94, 327], [96, 327], [97, 326], [97, 325], [98, 324], [98, 319], [97, 318], [97, 317], [94, 314], [94, 313], [93, 313], [92, 312], [91, 312], [90, 311], [88, 311], [87, 310], [84, 310], [83, 309], [81, 309]]]}, "properties": {"objectType": "annotation", "classification": {"name": "Connective", "color": [35, 92, 236]}}}, {"type": "Feature", "id": "4a6619a8-c458-47ae-bdd8-ef381cabac7d", "geometry": {"type": "Polygon", "coordinates": [[[427, 317], [426, 318], [424, 318], [423, 319], [422, 319], [421, 320], [420, 320], [419, 321], [418, 321], [415, 324], [415, 325], [414, 326], [414, 327], [413, 328], [413, 332], [414, 333], [421, 333], [422, 332], [424, 332], [425, 331], [426, 331], [427, 330], [428, 330], [429, 329], [430, 329], [431, 328], [432, 328], [433, 327], [434, 327], [439, 322], [439, 318], [438, 317], [427, 317]]]}, "properties": {"objectType": "annotation", "classification": {"name": "Connective", "color": [35, 92, 236]}}}, {"type": "Feature", "id": "a3c17258-058a-47ee-80f1-9c5aab6b46c9", "geometry": {"type": "Polygon", "coordinates": [[[301, 322], [300, 323], [299, 323], [297, 325], [296, 325], [287, 334], [286, 334], [285, 335], [285, 336], [283, 338], [283, 339], [280, 342], [280, 343], [275, 348], [275, 349], [273, 351], [273, 352], [272, 353], [272, 358], [273, 358], [274, 359], [281, 359], [282, 358], [284, 358], [285, 357], [286, 357], [289, 354], [289, 353], [291, 351], [291, 350], [292, 349], [292, 348], [294, 346], [294, 345], [296, 343], [297, 343], [303, 337], [304, 337], [305, 336], [305, 335], [306, 334], [306, 333], [307, 332], [307, 331], [308, 330], [308, 326], [305, 323], [304, 323], [303, 322], [301, 322]]]}, "properties": {"objectType": "annotation", "classification": {"name": "Connective", "color": [35, 92, 236]}}}, {"type": "Feature", "id": "3c232e9c-e8dc-4983-b25f-20fc2b99b2f1", "geometry": {"type": "Polygon", "coordinates": [[[389, 334], [388, 335], [387, 335], [384, 338], [381, 338], [380, 339], [381, 339], [382, 338], [385, 338], [386, 339], [390, 339], [391, 338], [394, 338], [395, 337], [396, 337], [396, 336], [397, 335], [397, 334], [389, 334]]]}, "properties": {"objectType": "annotation", "classification": {"name": "Connective", "color": [35, 92, 236]}}}, {"type": "Feature", "id": "2df0807d-6ac5-43af-a041-3a6713eb784a", "geometry": {"type": "Polygon", "coordinates": [[[318, 335], [317, 336], [316, 336], [315, 337], [314, 337], [312, 339], [311, 339], [308, 342], [308, 344], [310, 346], [311, 346], [312, 345], [314, 345], [316, 343], [317, 343], [323, 337], [323, 336], [322, 336], [321, 335], [318, 335]]]}, "properties": {"objectType": "annotation", "classification": {"name": "Connective", "color": [35, 92, 236]}}}, {"type": "Feature", "id": "755e2757-c9e1-4caf-9cf7-c3e3fc510e76", "geometry": {"type": "Polygon", "coordinates": [[[7, 334], [6, 335], [5, 335], [3, 337], [3, 338], [2, 339], [2, 341], [0, 343], [0, 362], [2, 362], [4, 360], [5, 360], [8, 357], [8, 356], [11, 353], [11, 352], [12, 351], [12, 343], [11, 342], [11, 337], [8, 334], [7, 334]]]}, "properties": {"objectType": "annotation", "classification": {"name": "Connective", "color": [35, 92, 236]}}}, {"type": "Feature", "id": "8411487f-bb8b-41d4-a239-36eb9ed524a2", "geometry": {"type": "Polygon", "coordinates": [[[368, 334], [367, 335], [366, 335], [365, 336], [364, 336], [362, 338], [361, 338], [359, 340], [358, 340], [356, 342], [355, 342], [349, 348], [349, 349], [348, 350], [348, 351], [347, 352], [347, 355], [351, 355], [352, 354], [354, 354], [355, 353], [356, 353], [358, 351], [359, 351], [362, 348], [363, 348], [368, 343], [368, 342], [370, 340], [370, 339], [372, 337], [372, 334], [368, 334]]]}, "properties": {"objectType": "annotation", "classification": {"name": "Connective", "color": [35, 92, 236]}}}, {"type": "Feature", "id": "08fddf12-0ead-4e54-92cd-fc456ef824c8", "geometry": {"type": "Polygon", "coordinates": [[[323, 349], [322, 350], [320, 350], [318, 352], [318, 353], [315, 356], [315, 357], [312, 360], [312, 361], [311, 362], [311, 365], [313, 367], [318, 367], [327, 358], [327, 357], [328, 356], [328, 355], [329, 354], [329, 352], [327, 350], [326, 350], [325, 349], [323, 349]]]}, "properties": {"objectType": "annotation", "classification": {"name": "Connective", "color": [35, 92, 236]}}}, {"type": "Feature", "id": "533eb715-c2bd-4924-a3bf-602cf04a4690", "geometry": {"type": "Polygon", "coordinates": [[[248, 353], [245, 356], [245, 357], [244, 358], [244, 363], [243, 364], [243, 365], [242, 366], [242, 367], [241, 368], [241, 373], [242, 374], [242, 375], [243, 376], [245, 376], [246, 375], [247, 375], [253, 369], [253, 364], [254, 363], [254, 358], [253, 357], [253, 355], [252, 354], [251, 354], [250, 353], [248, 353]]]}, "properties": {"objectType": "annotation", "classification": {"name": "Connective", "color": [35, 92, 236]}}}, {"type": "Feature", "id": "2ee6ca47-5aec-4c7f-bc48-72c364927ec5", "geometry": {"type": "Polygon", "coordinates": [[[290, 359], [289, 360], [286, 360], [285, 361], [284, 361], [283, 362], [281, 362], [280, 363], [279, 363], [278, 364], [276, 364], [275, 365], [274, 365], [273, 366], [272, 366], [270, 368], [269, 368], [268, 369], [267, 369], [266, 370], [265, 370], [263, 372], [262, 372], [261, 373], [260, 373], [256, 377], [256, 378], [257, 379], [261, 379], [262, 378], [265, 378], [266, 377], [270, 377], [271, 376], [273, 376], [274, 375], [278, 375], [279, 374], [283, 374], [284, 373], [286, 373], [287, 372], [288, 372], [293, 367], [293, 366], [294, 365], [294, 363], [293, 362], [293, 360], [292, 359], [290, 359]]]}, "properties": {"objectType": "annotation", "classification": {"name": "Connective", "color": [35, 92, 236]}}}, {"type": "Feature", "id": "8948a49b-c5e3-4f22-a54a-611be3157b2f", "geometry": {"type": "Polygon", "coordinates": [[[60, 361], [58, 363], [57, 363], [54, 366], [54, 367], [53, 368], [53, 369], [52, 370], [52, 371], [51, 372], [51, 373], [50, 374], [50, 382], [51, 383], [51, 384], [52, 385], [52, 386], [53, 387], [53, 389], [54, 390], [54, 391], [55, 392], [55, 393], [56, 394], [56, 396], [58, 398], [58, 399], [61, 402], [64, 402], [65, 401], [66, 401], [67, 400], [67, 399], [68, 398], [68, 397], [69, 396], [69, 395], [70, 394], [70, 393], [71, 392], [71, 391], [74, 388], [74, 386], [75, 385], [75, 382], [76, 381], [76, 379], [77, 378], [76, 377], [76, 376], [75, 376], [74, 375], [72, 375], [70, 373], [70, 371], [71, 370], [71, 366], [70, 365], [70, 364], [69, 363], [68, 363], [66, 361], [60, 361]]]}, "properties": {"objectType": "annotation", "classification": {"name": "Neoplastic", "color": [255, 0, 0]}}}, {"type": "Feature", "id": "3d178653-3c5c-4d59-959e-4bb9dfbed013", "geometry": {"type": "Polygon", "coordinates": [[[126, 366], [125, 367], [124, 367], [123, 368], [121, 368], [119, 370], [118, 370], [117, 371], [117, 372], [115, 374], [115, 375], [114, 376], [114, 380], [113, 381], [113, 387], [112, 388], [112, 389], [111, 390], [111, 391], [109, 393], [109, 401], [110, 402], [110, 403], [111, 404], [111, 406], [114, 406], [115, 407], [116, 407], [117, 408], [118, 408], [119, 409], [120, 408], [123, 408], [125, 406], [125, 405], [126, 404], [126, 402], [127, 401], [127, 400], [132, 395], [132, 394], [133, 393], [133, 392], [135, 390], [135, 389], [136, 388], [136, 385], [137, 384], [137, 383], [138, 382], [138, 376], [137, 375], [137, 373], [136, 372], [136, 370], [132, 366], [126, 366]]]}, "properties": {"objectType": "annotation", "classification": {"name": "Neoplastic", "color": [255, 0, 0]}}}, {"type": "Feature", "id": "db2fe71b-fb64-4b59-b32d-ee4e9d73e5ba", "geometry": {"type": "Polygon", "coordinates": [[[1, 370], [0, 371], [0, 399], [1, 398], [1, 396], [2, 395], [2, 394], [7, 389], [7, 388], [8, 387], [8, 386], [9, 385], [9, 383], [10, 382], [10, 381], [11, 380], [11, 377], [10, 376], [10, 375], [8, 373], [7, 373], [6, 372], [5, 372], [4, 371], [2, 371], [1, 370]]]}, "properties": {"objectType": "annotation", "classification": {"name": "Connective", "color": [35, 92, 236]}}}, {"type": "Feature", "id": "a332c266-fb44-41c4-9e48-c062a0e0e86b", "geometry": {"type": "Polygon", "coordinates": [[[285, 377], [284, 378], [281, 378], [280, 379], [276, 379], [275, 380], [272, 380], [271, 381], [271, 384], [274, 387], [274, 389], [275, 390], [275, 391], [278, 388], [279, 388], [280, 387], [282, 387], [283, 386], [284, 386], [285, 385], [286, 385], [288, 383], [289, 383], [291, 381], [291, 378], [290, 377], [285, 377]]]}, "properties": {"objectType": "annotation", "classification": {"name": "Connective", "color": [35, 92, 236]}}}, {"type": "Feature", "id": "bb3430aa-b63e-44e6-8893-e47a85018dfa", "geometry": {"type": "Polygon", "coordinates": [[[363, 379], [362, 380], [361, 380], [357, 384], [357, 385], [355, 387], [355, 389], [354, 390], [354, 391], [355, 392], [356, 392], [357, 393], [363, 393], [364, 392], [367, 392], [372, 387], [372, 385], [373, 384], [373, 383], [372, 382], [372, 381], [371, 381], [369, 379], [363, 379]]]}, "properties": {"objectType": "annotation", "classification": {"name": "Connective", "color": [35, 92, 236]}}}, {"type": "Feature", "id": "bf3bb186-416f-43a5-a797-924987b47446", "geometry": {"type": "Polygon", "coordinates": [[[269, 381], [268, 382], [265, 382], [264, 383], [262, 383], [261, 384], [259, 384], [258, 385], [257, 385], [256, 386], [255, 386], [254, 387], [253, 387], [252, 388], [249, 388], [248, 389], [246, 389], [245, 390], [244, 390], [243, 391], [241, 391], [240, 392], [238, 392], [237, 393], [231, 393], [230, 394], [229, 394], [228, 395], [227, 395], [227, 396], [226, 397], [226, 398], [227, 398], [228, 399], [231, 399], [232, 400], [237, 400], [238, 401], [241, 401], [242, 402], [245, 402], [246, 403], [249, 403], [250, 404], [252, 404], [253, 403], [258, 403], [259, 402], [260, 402], [261, 401], [263, 401], [264, 400], [265, 400], [267, 398], [268, 398], [273, 393], [274, 393], [274, 390], [273, 389], [273, 387], [270, 384], [270, 381], [269, 381]]]}, "properties": {"objectType": "annotation", "classification": {"name": "Connective", "color": [35, 92, 236]}}}, {"type": "Feature", "id": "c007a45d-80b5-45e0-9b72-50023832d4db", "geometry": {"type": "Polygon", "coordinates": [[[302, 387], [301, 388], [300, 388], [297, 391], [297, 393], [296, 394], [296, 397], [298, 399], [300, 399], [302, 397], [302, 396], [303, 395], [303, 394], [304, 393], [304, 387], [302, 387]]]}, "properties": {"objectType": "annotation", "classification": {"name": "Connective", "color": [35, 92, 236]}}}, {"type": "Feature", "id": "28a7e670-435f-4465-82f3-cf75097c04a2", "geometry": {"type": "Polygon", "coordinates": [[[319, 389], [318, 390], [313, 390], [309, 394], [309, 400], [310, 401], [316, 401], [317, 402], [325, 402], [326, 401], [327, 401], [328, 400], [328, 396], [327, 395], [327, 394], [323, 390], [321, 390], [320, 389], [319, 389]]]}, "properties": {"objectType": "annotation", "classification": {"name": "Connective", "color": [35, 92, 236]}}}, {"type": "Feature", "id": "d54893b0-6621-4e81-9eb3-874a99c8f214", "geometry": {"type": "Polygon", "coordinates": [[[85, 388], [84, 389], [81, 389], [80, 390], [79, 390], [75, 394], [75, 395], [72, 398], [72, 399], [71, 400], [71, 401], [70, 402], [70, 403], [69, 404], [69, 411], [70, 412], [70, 413], [72, 415], [72, 416], [73, 416], [76, 419], [77, 419], [78, 420], [83, 420], [84, 419], [86, 419], [89, 416], [89, 415], [90, 414], [90, 413], [91, 412], [91, 411], [92, 410], [92, 407], [93, 406], [93, 397], [92, 396], [92, 394], [91, 393], [91, 392], [90, 391], [90, 390], [89, 389], [87, 389], [86, 388], [85, 388]]]}, "properties": {"objectType": "annotation", "classification": {"name": "Neoplastic", "color": [255, 0, 0]}}}, {"type": "Feature", "id": "2458539c-0c2a-4793-b9d7-a85d0127b408", "geometry": {"type": "Polygon", "coordinates": [[[145, 390], [144, 391], [143, 391], [140, 394], [140, 395], [139, 396], [139, 397], [138, 398], [138, 401], [139, 402], [139, 405], [142, 408], [142, 410], [143, 411], [143, 414], [145, 414], [146, 415], [147, 415], [148, 416], [149, 416], [150, 417], [151, 417], [152, 418], [153, 418], [154, 419], [159, 419], [159, 418], [160, 417], [160, 406], [159, 405], [159, 401], [158, 400], [158, 398], [156, 396], [156, 395], [155, 394], [155, 393], [153, 391], [152, 391], [151, 390], [145, 390]]]}, "properties": {"objectType": "annotation", "classification": {"name": "Neoplastic", "color": [255, 0, 0]}}}, {"type": "Feature", "id": "382a554f-0030-47f4-a36c-e40ccbc8fa1e", "geometry": {"type": "Polygon", "coordinates": [[[31, 396], [30, 397], [29, 397], [27, 399], [27, 411], [28, 412], [28, 414], [29, 415], [31, 415], [32, 414], [32, 412], [33, 411], [33, 409], [34, 408], [34, 406], [35, 405], [35, 401], [34, 400], [34, 398], [33, 397], [33, 396], [31, 396]]]}, "properties": {"objectType": "annotation", "classification": {"name": "Connective", "color": [35, 92, 236]}}}, {"type": "Feature", "id": "3cb971e1-0aee-4c23-9339-a2ea794f2324", "geometry": {"type": "Polygon", "coordinates": [[[111, 407], [110, 408], [107, 408], [100, 415], [100, 416], [99, 417], [99, 419], [98, 420], [98, 423], [101, 426], [103, 426], [104, 427], [109, 427], [110, 426], [111, 426], [112, 425], [113, 425], [114, 424], [114, 422], [115, 421], [115, 416], [116, 415], [116, 411], [118, 409], [117, 409], [116, 408], [115, 408], [114, 407], [111, 407]]]}, "properties": {"objectType": "annotation", "classification": {"name": "Neoplastic", "color": [255, 0, 0]}}}, {"type": "Feature", "id": "7c791ee7-aed6-433f-8df0-afff82a329e6", "geometry": {"type": "Polygon", "coordinates": [[[43, 409], [41, 411], [41, 412], [40, 413], [40, 422], [41, 423], [41, 424], [42, 425], [42, 427], [43, 428], [43, 429], [44, 430], [44, 432], [45, 433], [45, 435], [46, 436], [46, 437], [47, 438], [48, 438], [49, 439], [51, 439], [52, 438], [54, 438], [55, 437], [55, 436], [56, 435], [56, 433], [57, 432], [57, 431], [58, 430], [58, 418], [57, 417], [57, 415], [56, 414], [56, 413], [53, 410], [51, 410], [50, 409], [43, 409]]]}, "properties": {"objectType": "annotation", "classification": {"name": "Neoplastic", "color": [255, 0, 0]}}}, {"type": "Feature", "id": "53b58a5a-5cf9-4fa5-976c-6270cf673c72", "geometry": {"type": "Polygon", "coordinates": [[[143, 415], [143, 416], [141, 418], [140, 418], [140, 419], [138, 421], [138, 424], [142, 428], [143, 428], [146, 431], [147, 431], [148, 432], [149, 432], [150, 433], [152, 433], [153, 432], [154, 432], [156, 430], [156, 428], [157, 427], [157, 423], [158, 422], [158, 421], [159, 420], [154, 420], [153, 419], [152, 419], [151, 418], [150, 418], [149, 417], [148, 417], [147, 416], [146, 416], [145, 415], [143, 415]]]}, "properties": {"objectType": "annotation", "classification": {"name": "Neoplastic", "color": [255, 0, 0]}}}, {"type": "Feature", "id": "95f74db6-09b6-42c4-b393-2e0ab659bb2a", "geometry": {"type": "Polygon", "coordinates": [[[329, 418], [327, 420], [326, 420], [319, 427], [319, 428], [318, 429], [318, 433], [320, 435], [321, 435], [322, 436], [323, 436], [324, 435], [325, 435], [335, 425], [335, 424], [336, 423], [336, 420], [335, 419], [334, 419], [333, 418], [329, 418]]]}, "properties": {"objectType": "annotation", "classification": {"name": "Connective", "color": [35, 92, 236]}}}, {"type": "Feature", "id": "4125f6b8-649d-4c50-bc91-5574d357bc10", "geometry": {"type": "Polygon", "coordinates": [[[62, 419], [61, 420], [60, 420], [59, 421], [59, 431], [60, 432], [60, 433], [61, 434], [61, 436], [62, 437], [62, 438], [63, 439], [63, 440], [64, 441], [65, 441], [69, 445], [72, 445], [73, 446], [75, 446], [76, 445], [77, 445], [82, 440], [82, 437], [83, 436], [83, 430], [82, 429], [82, 428], [80, 426], [79, 426], [78, 425], [77, 425], [76, 424], [75, 424], [74, 423], [72, 423], [71, 422], [70, 422], [69, 421], [68, 421], [66, 419], [62, 419]]]}, "properties": {"objectType": "annotation", "classification": {"name": "Neoplastic", "color": [255, 0, 0]}}}, {"type": "Feature", "id": "99c808d8-0ee5-44b2-850e-73deefe60f5d", "geometry": {"type": "Polygon", "coordinates": [[[217, 423], [216, 424], [212, 424], [211, 425], [206, 425], [205, 426], [201, 426], [200, 427], [197, 427], [196, 428], [195, 428], [193, 430], [192, 430], [191, 431], [191, 432], [190, 433], [190, 435], [191, 436], [191, 437], [195, 441], [202, 441], [203, 440], [204, 440], [205, 439], [206, 439], [207, 438], [208, 438], [210, 436], [211, 436], [212, 435], [213, 435], [220, 428], [220, 425], [218, 423], [217, 423]]]}, "properties": {"objectType": "annotation", "classification": {"name": "Connective", "color": [35, 92, 236]}}}, {"type": "Feature", "id": "bb2f952e-e879-4de4-8fdc-869668967ecc", "geometry": {"type": "Polygon", "coordinates": [[[93, 427], [92, 428], [91, 428], [90, 429], [90, 430], [89, 431], [89, 433], [88, 434], [88, 436], [87, 437], [87, 438], [85, 440], [85, 442], [84, 443], [84, 445], [83, 446], [83, 449], [82, 450], [82, 453], [83, 454], [83, 455], [87, 459], [92, 459], [93, 458], [94, 458], [95, 457], [96, 457], [98, 455], [98, 454], [99, 453], [99, 452], [100, 451], [100, 450], [101, 449], [101, 446], [102, 445], [102, 435], [101, 434], [101, 433], [100, 432], [100, 431], [98, 429], [97, 429], [96, 428], [95, 428], [94, 427], [93, 427]]]}, "properties": {"objectType": "annotation", "classification": {"name": "Neoplastic", "color": [255, 0, 0]}}}, {"type": "Feature", "id": "6a321eeb-6512-4864-87bc-974ea2fe319c", "geometry": {"type": "Polygon", "coordinates": [[[4, 432], [3, 433], [0, 433], [0, 451], [3, 451], [5, 449], [6, 449], [11, 444], [11, 443], [13, 441], [13, 440], [14, 439], [14, 438], [15, 437], [15, 435], [13, 433], [12, 433], [11, 432], [4, 432]]]}, "properties": {"objectType": "annotation", "classification": {"name": "Neoplastic", "color": [255, 0, 0]}}}, {"type": "Feature", "id": "a16fc26d-23c0-4639-a7de-03bb346838e5", "geometry": {"type": "Polygon", "coordinates": [[[22, 439], [21, 440], [20, 440], [19, 441], [18, 441], [14, 445], [14, 446], [7, 453], [6, 453], [3, 456], [2, 456], [0, 458], [0, 466], [1, 466], [2, 467], [5, 467], [6, 466], [16, 466], [17, 465], [18, 465], [19, 464], [20, 464], [23, 461], [23, 460], [24, 459], [24, 458], [25, 457], [25, 455], [26, 454], [26, 451], [27, 450], [27, 448], [26, 447], [26, 445], [25, 444], [25, 442], [22, 439]]]}, "properties": {"objectType": "annotation", "classification": {"name": "Neoplastic", "color": [255, 0, 0]}}}, {"type": "Feature", "id": "1e7f0338-d100-44a8-9e2f-b9ca0be3e269", "geometry": {"type": "Polygon", "coordinates": [[[312, 440], [311, 441], [309, 441], [307, 443], [306, 443], [301, 448], [300, 448], [299, 449], [296, 449], [295, 450], [294, 450], [293, 451], [292, 451], [292, 452], [291, 453], [291, 457], [293, 459], [294, 459], [295, 460], [296, 460], [297, 461], [299, 461], [300, 462], [307, 462], [308, 461], [309, 461], [309, 460], [310, 459], [310, 458], [311, 457], [311, 453], [312, 452], [312, 450], [315, 447], [315, 444], [314, 443], [314, 442], [312, 440]]]}, "properties": {"objectType": "annotation", "classification": {"name": "Connective", "color": [35, 92, 236]}}}, {"type": "Feature", "id": "43b1ebc8-0692-436f-a383-abb263e85d7a", "geometry": {"type": "Polygon", "coordinates": [[[57, 444], [56, 445], [55, 445], [53, 447], [52, 447], [48, 451], [48, 452], [47, 453], [47, 454], [46, 455], [47, 456], [47, 458], [48, 459], [48, 460], [53, 465], [54, 465], [55, 466], [56, 466], [57, 467], [62, 467], [63, 466], [66, 466], [67, 465], [68, 465], [72, 461], [72, 454], [70, 452], [70, 451], [69, 451], [67, 449], [67, 448], [64, 445], [63, 445], [62, 444], [57, 444]]]}, "properties": {"objectType": "annotation", "classification": {"name": "Neoplastic", "color": [255, 0, 0]}}}, {"type": "Feature", "id": "daa65196-080c-4890-a1fd-19d3931d6fd8", "geometry": {"type": "Polygon", "coordinates": [[[354, 453], [352, 455], [352, 456], [351, 457], [351, 462], [354, 465], [354, 466], [355, 467], [355, 468], [356, 468], [357, 469], [358, 469], [359, 468], [360, 468], [361, 467], [361, 466], [363, 464], [363, 456], [361, 454], [359, 454], [358, 453], [354, 453]]]}, "properties": {"objectType": "annotation", "classification": {"name": "Inflammatory", "color": [34, 221, 77]}}}, {"type": "Feature", "id": "ef3d5cb5-445e-4d53-911e-9e2531658637", "geometry": {"type": "Polygon", "coordinates": [[[423, 461], [422, 462], [420, 462], [419, 463], [418, 463], [416, 465], [415, 465], [403, 477], [403, 479], [410, 479], [411, 478], [413, 478], [414, 477], [415, 477], [417, 475], [418, 475], [423, 470], [423, 469], [424, 468], [424, 467], [425, 466], [425, 464], [426, 463], [426, 462], [427, 461], [423, 461]]]}, "properties": {"objectType": "annotation", "classification": {"name": "Connective", "color": [35, 92, 236]}}}, {"type": "Feature", "id": "50caced1-45a1-42b5-a480-a2a52974f470", "geometry": {"type": "Polygon", "coordinates": [[[386, 463], [385, 464], [384, 464], [383, 465], [382, 465], [378, 469], [378, 471], [377, 472], [377, 482], [378, 483], [378, 484], [379, 484], [380, 485], [382, 485], [383, 484], [384, 484], [384, 483], [385, 482], [385, 481], [388, 478], [388, 477], [390, 475], [390, 473], [391, 472], [391, 471], [392, 470], [392, 468], [393, 467], [393, 464], [392, 463], [386, 463]]]}, "properties": {"objectType": "annotation", "classification": {"name": "Connective", "color": [35, 92, 236]}}}, {"type": "Feature", "id": "beabdd1d-b27d-49bf-a285-bb0b42777c18", "geometry": {"type": "Polygon", "coordinates": [[[86, 470], [85, 471], [84, 471], [83, 472], [82, 472], [81, 473], [81, 474], [80, 475], [80, 482], [82, 484], [83, 484], [84, 483], [86, 483], [87, 482], [88, 482], [89, 481], [90, 481], [94, 477], [94, 476], [95, 475], [95, 473], [94, 472], [94, 471], [93, 470], [86, 470]]]}, "properties": {"objectType": "annotation", "classification": {"name": "Inflammatory", "color": [34, 221, 77]}}}, {"type": "Feature", "id": "99791b6c-cdd7-4233-a3f3-489636530b46", "geometry": {"type": "Polygon", "coordinates": [[[69, 474], [68, 475], [62, 475], [61, 476], [60, 476], [58, 478], [57, 478], [56, 479], [56, 480], [55, 481], [55, 483], [54, 484], [54, 487], [53, 488], [53, 490], [52, 491], [52, 492], [53, 493], [53, 495], [54, 495], [57, 498], [61, 498], [67, 492], [67, 491], [69, 489], [69, 488], [70, 487], [70, 486], [71, 485], [71, 484], [72, 483], [72, 482], [73, 481], [73, 479], [72, 478], [72, 477], [69, 474]]]}, "properties": {"objectType": "annotation", "classification": {"name": "Neoplastic", "color": [255, 0, 0]}}}, {"type": "Feature", "id": "cffa68ac-9c61-4a0c-afab-5644b4cac34f", "geometry": {"type": "Polygon", "coordinates": [[[293, 477], [287, 483], [286, 483], [285, 484], [283, 484], [283, 485], [280, 488], [280, 489], [281, 490], [281, 492], [284, 495], [287, 495], [288, 496], [289, 495], [291, 495], [292, 494], [293, 494], [294, 493], [295, 493], [296, 492], [297, 492], [300, 489], [301, 489], [302, 488], [303, 488], [304, 487], [305, 487], [306, 486], [307, 486], [308, 485], [308, 484], [309, 483], [308, 482], [308, 481], [306, 479], [303, 479], [302, 478], [299, 478], [298, 477], [293, 477]]]}, "properties": {"objectType": "annotation", "classification": {"name": "Connective", "color": [35, 92, 236]}}}, {"type": "Feature", "id": "e3155edd-6e60-4259-a217-7048616f78d0", "geometry": {"type": "Polygon", "coordinates": [[[41, 479], [40, 480], [39, 480], [39, 481], [38, 482], [38, 492], [39, 493], [39, 495], [40, 496], [40, 497], [41, 498], [41, 500], [42, 501], [42, 502], [48, 508], [49, 508], [51, 510], [56, 510], [57, 509], [57, 505], [53, 501], [53, 496], [52, 495], [52, 493], [51, 492], [51, 490], [50, 489], [50, 487], [49, 486], [49, 485], [47, 483], [47, 482], [45, 480], [44, 480], [43, 479], [41, 479]]]}, "properties": {"objectType": "annotation", "classification": {"name": "Neoplastic", "color": [255, 0, 0]}}}, {"type": "Feature", "id": "132ec260-a5bf-443a-b1d8-a1870a8cd200", "geometry": {"type": "Polygon", "coordinates": [[[11, 483], [10, 484], [8, 484], [5, 487], [5, 499], [10, 504], [10, 505], [11, 506], [11, 507], [12, 508], [12, 509], [13, 509], [14, 510], [17, 510], [18, 509], [20, 509], [24, 505], [25, 505], [30, 500], [30, 499], [32, 497], [32, 489], [31, 488], [31, 487], [30, 487], [28, 485], [27, 485], [26, 484], [25, 484], [24, 483], [11, 483]]]}, "properties": {"objectType": "annotation", "classification": {"name": "Neoplastic", "color": [255, 0, 0]}}}, {"type": "Feature", "id": "5de6d193-0820-4d51-b081-fbef86c85a5f", "geometry": {"type": "Polygon", "coordinates": [[[78, 489], [77, 490], [76, 490], [75, 491], [75, 492], [73, 494], [73, 495], [71, 497], [71, 498], [70, 499], [70, 501], [69, 502], [69, 504], [68, 505], [68, 508], [67, 509], [68, 510], [67, 511], [81, 511], [81, 510], [80, 509], [80, 508], [81, 507], [81, 506], [87, 500], [87, 496], [86, 495], [86, 494], [82, 490], [80, 490], [79, 489], [78, 489]]]}, "properties": {"objectType": "annotation", "classification": {"name": "Neoplastic", "color": [255, 0, 0]}}}, {"type": "Feature", "id": "ee487f62-845c-4fc0-9d3b-febf70763a62", "geometry": {"type": "Polygon", "coordinates": [[[255, 496], [254, 497], [253, 497], [252, 498], [251, 498], [250, 499], [248, 499], [247, 500], [244, 500], [243, 501], [240, 501], [239, 502], [238, 502], [237, 501], [229, 501], [226, 504], [226, 506], [231, 511], [265, 511], [265, 502], [264, 501], [264, 500], [262, 498], [261, 498], [260, 497], [258, 497], [257, 496], [255, 496]]]}, "properties": {"objectType": "annotation", "classification": {"name": "Connective", "color": [35, 92, 236]}}}, {"type": "Feature", "id": "a8bbb1ef-5939-4ace-860b-1fb4f070309b", "geometry": {"type": "Polygon", "coordinates": [[[403, 498], [402, 499], [401, 499], [399, 501], [398, 501], [398, 502], [395, 505], [395, 510], [396, 511], [409, 511], [411, 509], [411, 508], [412, 507], [412, 503], [411, 502], [411, 500], [409, 498], [403, 498]]]}, "properties": {"objectType": "annotation", "classification": {"name": "Inflammatory", "color": [34, 221, 77]}}}, {"type": "Feature", "id": "68bbe1cb-c9cd-4982-96f1-f9929a95d30a", "geometry": {"type": "Polygon", "coordinates": [[[350, 502], [349, 503], [348, 503], [346, 505], [345, 505], [342, 508], [341, 508], [338, 511], [337, 511], [348, 511], [348, 510], [349, 509], [349, 508], [350, 507], [350, 506], [351, 505], [351, 504], [352, 503], [352, 502], [350, 502]]]}, "properties": {"objectType": "annotation", "classification": {"name": "Connective", "color": [35, 92, 236]}}}]