[{"type": "Feature", "id": "1097e0be-0694-4cc3-b375-7225fda4211d", "geometry": {"type": "Polygon", "coordinates": [[[151, 0], [151, 3], [150, 4], [150, 12], [151, 13], [152, 13], [153, 12], [154, 12], [158, 8], [158, 7], [162, 3], [162, 2], [164, 0], [151, 0]]]}, "properties": {"objectType": "annotation", "classification": {"name": "Connective", "color": [35, 92, 236]}}}, {"type": "Feature", "id": "4618c502-021e-48bf-b0c6-ec0591e4b1b0", "geometry": {"type": "Polygon", "coordinates": [[[280, 0], [279, 1], [279, 15], [280, 16], [280, 18], [281, 19], [281, 21], [283, 23], [283, 24], [286, 27], [287, 27], [288, 28], [293, 28], [294, 27], [296, 27], [297, 26], [298, 26], [299, 25], [300, 25], [301, 24], [302, 24], [304, 22], [304, 16], [303, 15], [303, 9], [302, 8], [302, 4], [300, 2], [300, 1], [299, 0], [280, 0]]]}, "properties": {"objectType": "annotation", "classification": {"name": "Neoplastic", "color": [255, 0, 0]}}}, {"type": "Feature", "id": "73ff6dc4-2d21-48af-ba80-556b969c5d24", "geometry": {"type": "Polygon", "coordinates": [[[306, 0], [305, 1], [305, 12], [309, 16], [310, 16], [313, 19], [314, 19], [315, 20], [316, 19], [318, 19], [319, 18], [320, 18], [321, 17], [322, 17], [326, 13], [326, 12], [329, 9], [329, 8], [330, 7], [330, 6], [331, 5], [331, 0], [306, 0]]]}, "properties": {"objectType": "annotation", "classification": {"name": "Neoplastic", "color": [255, 0, 0]}}}, {"type": "Feature", "id": "6f60265f-5469-41aa-b058-502b3a077623", "geometry": {"type": "Polygon", "coordinates": [[[349, 0], [348, 1], [348, 3], [347, 4], [347, 6], [348, 7], [348, 9], [349, 10], [349, 11], [351, 13], [364, 13], [365, 12], [366, 12], [367, 11], [369, 11], [372, 8], [372, 7], [373, 6], [373, 5], [374, 4], [374, 2], [375, 1], [375, 0], [349, 0]]]}, "properties": {"objectType": "annotation", "classification": {"name": "Neoplastic", "color": [255, 0, 0]}}}, {"type": "Feature", "id": "1cb6389b-0cb6-496d-916b-aa6ce09903fc", "geometry": {"type": "Polygon", "coordinates": [[[488, 0], [488, 4], [487, 5], [487, 6], [488, 7], [488, 10], [491, 13], [499, 13], [500, 12], [501, 12], [506, 7], [506, 6], [507, 5], [507, 4], [508, 3], [508, 2], [509, 1], [509, 0], [488, 0]]]}, "properties": {"objectType": "annotation", "classification": {"name": "Connective", "color": [35, 92, 236]}}}, {"type": "Feature", "id": "adeed258-1c64-4be8-927b-9dafa0bc432e", "geometry": {"type": "Polygon", "coordinates": [[[164, 13], [163, 14], [162, 14], [161, 15], [160, 15], [158, 17], [158, 18], [156, 20], [156, 24], [155, 25], [155, 30], [154, 31], [154, 35], [153, 36], [153, 45], [154, 46], [154, 48], [156, 50], [159, 50], [162, 47], [163, 47], [163, 46], [164, 45], [164, 43], [169, 38], [170, 38], [170, 36], [171, 35], [171, 34], [172, 33], [172, 31], [173, 30], [173, 27], [174, 26], [174, 21], [173, 20], [173, 17], [170, 14], [169, 14], [168, 13], [164, 13]]]}, "properties": {"objectType": "annotation", "classification": {"name": "Connective", "color": [35, 92, 236]}}}, {"type": "Feature", "id": "74943b4c-2176-481b-b43c-6b3de28d5684", "geometry": {"type": "Polygon", "coordinates": [[[469, 21], [468, 22], [467, 22], [466, 23], [464, 23], [463, 24], [462, 24], [460, 26], [459, 26], [454, 31], [454, 35], [455, 36], [457, 36], [458, 37], [460, 37], [461, 36], [462, 36], [463, 35], [464, 35], [470, 29], [471, 29], [474, 26], [474, 23], [472, 21], [469, 21]]]}, "properties": {"objectType": "annotation", "classification": {"name": "Connective", "color": [35, 92, 236]}}}, {"type": "Feature", "id": "f40a7a14-93c4-4ee0-9036-326642bcc0d2", "geometry": {"type": "Polygon", "coordinates": [[[385, 26], [384, 27], [382, 27], [381, 28], [381, 29], [380, 30], [380, 31], [381, 32], [381, 33], [382, 34], [382, 35], [384, 37], [384, 38], [385, 39], [386, 39], [388, 41], [398, 41], [399, 42], [403, 42], [406, 39], [406, 38], [407, 37], [407, 31], [406, 30], [406, 29], [405, 28], [404, 28], [403, 27], [401, 27], [400, 26], [385, 26]]]}, "properties": {"objectType": "annotation", "classification": {"name": "Neoplastic", "color": [255, 0, 0]}}}, {"type": "Feature", "id": "3f2793ea-ea49-4729-8aa2-4fd10dda0877", "geometry": {"type": "Polygon", "coordinates": [[[328, 30], [327, 31], [325, 31], [324, 32], [323, 32], [319, 36], [319, 37], [317, 39], [317, 47], [322, 52], [324, 52], [325, 53], [327, 53], [328, 52], [329, 52], [330, 51], [331, 51], [337, 45], [337, 44], [338, 43], [338, 42], [339, 41], [339, 39], [340, 38], [340, 36], [339, 35], [339, 34], [335, 30], [328, 30]]]}, "properties": {"objectType": "annotation", "classification": {"name": "Neoplastic", "color": [255, 0, 0]}}}, {"type": "Feature", "id": "9af6d91c-4c71-4e94-8d2b-449327b4562f", "geometry": {"type": "Polygon", "coordinates": [[[423, 35], [422, 36], [421, 36], [419, 38], [419, 39], [418, 40], [418, 43], [419, 44], [419, 45], [422, 48], [423, 48], [425, 50], [426, 50], [427, 51], [430, 51], [431, 52], [435, 52], [436, 51], [438, 51], [441, 48], [441, 47], [442, 46], [442, 42], [441, 41], [441, 40], [439, 38], [438, 38], [437, 37], [434, 37], [433, 36], [431, 36], [430, 35], [423, 35]]]}, "properties": {"objectType": "annotation", "classification": {"name": "Connective", "color": [35, 92, 236]}}}, {"type": "Feature", "id": "78fefea0-9697-4a19-81ad-3d08284fe93b", "geometry": {"type": "Polygon", "coordinates": [[[243, 36], [242, 37], [241, 37], [238, 40], [238, 41], [237, 42], [237, 46], [238, 47], [238, 49], [241, 52], [241, 53], [242, 53], [244, 55], [248, 55], [249, 54], [250, 54], [251, 53], [252, 53], [253, 52], [253, 48], [252, 47], [252, 46], [250, 44], [250, 41], [249, 40], [249, 39], [248, 38], [248, 37], [247, 36], [243, 36]]]}, "properties": {"objectType": "annotation", "classification": {"name": "Connective", "color": [35, 92, 236]}}}, {"type": "Feature", "id": "bd534ddc-1e14-4755-83bb-44746af826e8", "geometry": {"type": "Polygon", "coordinates": [[[17, 36], [16, 37], [15, 37], [14, 38], [13, 38], [11, 40], [10, 40], [2, 48], [1, 48], [0, 49], [0, 60], [2, 60], [3, 59], [4, 59], [5, 58], [6, 58], [10, 54], [11, 54], [16, 49], [16, 48], [18, 46], [18, 44], [19, 43], [19, 42], [20, 41], [20, 37], [19, 36], [17, 36]]]}, "properties": {"objectType": "annotation", "classification": {"name": "Connective", "color": [35, 92, 236]}}}, {"type": "Feature", "id": "67515944-8252-4126-94d9-c570ddd38e39", "geometry": {"type": "Polygon", "coordinates": [[[169, 39], [165, 43], [165, 45], [164, 46], [164, 48], [163, 49], [163, 54], [164, 55], [164, 56], [166, 58], [166, 59], [167, 60], [168, 60], [169, 61], [170, 61], [171, 62], [175, 62], [176, 61], [178, 61], [180, 59], [180, 58], [181, 57], [181, 48], [180, 47], [180, 44], [175, 39], [169, 39]]]}, "properties": {"objectType": "annotation", "classification": {"name": "Connective", "color": [35, 92, 236]}}}, {"type": "Feature", "id": "70ee2e02-c871-40a4-8137-e26fba5534b3", "geometry": {"type": "Polygon", "coordinates": [[[396, 45], [395, 46], [394, 46], [392, 48], [392, 49], [391, 50], [391, 51], [390, 52], [390, 60], [391, 61], [391, 62], [397, 68], [399, 68], [400, 69], [408, 69], [409, 68], [410, 68], [411, 67], [411, 66], [412, 65], [412, 58], [411, 57], [411, 56], [410, 55], [410, 54], [409, 53], [409, 52], [403, 46], [402, 46], [401, 45], [396, 45]]]}, "properties": {"objectType": "annotation", "classification": {"name": "Neoplastic", "color": [255, 0, 0]}}}, {"type": "Feature", "id": "f4423821-47e1-45db-8d9e-9fde42b9d075", "geometry": {"type": "Polygon", "coordinates": [[[208, 55], [206, 57], [206, 60], [207, 61], [207, 62], [211, 66], [216, 66], [218, 64], [218, 61], [217, 60], [217, 59], [216, 58], [215, 58], [213, 56], [212, 56], [211, 55], [208, 55]]]}, "properties": {"objectType": "annotation", "classification": {"name": "Inflammatory", "color": [34, 221, 77]}}}, {"type": "Feature", "id": "a52ed79c-434c-44b4-a98f-9f309a793e5d", "geometry": {"type": "Polygon", "coordinates": [[[163, 71], [162, 72], [161, 72], [156, 77], [155, 77], [154, 78], [154, 79], [151, 82], [151, 83], [148, 86], [148, 87], [147, 88], [147, 89], [146, 90], [146, 95], [145, 96], [145, 99], [147, 101], [149, 101], [150, 100], [151, 100], [157, 94], [158, 94], [166, 86], [166, 85], [167, 84], [167, 75], [166, 74], [166, 73], [164, 71], [163, 71]]]}, "properties": {"objectType": "annotation", "classification": {"name": "Connective", "color": [35, 92, 236]}}}, {"type": "Feature", "id": "89df22d2-d21b-4940-a392-30ed3513ff90", "geometry": {"type": "Polygon", "coordinates": [[[364, 73], [363, 74], [361, 74], [359, 76], [358, 76], [357, 77], [357, 78], [355, 80], [355, 88], [356, 89], [356, 91], [359, 94], [360, 94], [361, 95], [365, 95], [366, 94], [367, 94], [368, 93], [369, 93], [373, 89], [373, 88], [374, 87], [374, 78], [371, 75], [370, 75], [369, 74], [368, 74], [367, 73], [364, 73]]]}, "properties": {"objectType": "annotation", "classification": {"name": "Connective", "color": [35, 92, 236]}}}, {"type": "Feature", "id": "df170c9e-db8b-4adb-be2e-4733c0765518", "geometry": {"type": "Polygon", "coordinates": [[[211, 76], [211, 77], [210, 78], [210, 82], [211, 83], [211, 84], [215, 88], [219, 88], [221, 86], [221, 83], [218, 80], [218, 79], [216, 77], [215, 77], [214, 76], [211, 76]]]}, "properties": {"objectType": "annotation", "classification": {"name": "Connective", "color": [35, 92, 236]}}}, {"type": "Feature", "id": "5dbbe584-049c-40df-acb1-ff1682a8cd57", "geometry": {"type": "Polygon", "coordinates": [[[192, 77], [191, 78], [189, 78], [188, 79], [187, 79], [186, 80], [185, 80], [184, 81], [184, 82], [181, 85], [181, 86], [179, 88], [179, 89], [178, 90], [178, 91], [177, 92], [177, 93], [176, 94], [176, 96], [175, 97], [175, 99], [174, 100], [174, 107], [175, 108], [175, 110], [177, 112], [178, 112], [179, 113], [180, 113], [181, 114], [184, 114], [185, 113], [188, 113], [189, 112], [190, 112], [191, 111], [192, 111], [193, 110], [193, 109], [196, 106], [196, 105], [198, 103], [198, 101], [199, 100], [199, 99], [200, 98], [200, 95], [201, 94], [201, 86], [200, 85], [200, 83], [199, 82], [199, 81], [196, 78], [195, 78], [194, 77], [192, 77]]]}, "properties": {"objectType": "annotation", "classification": {"name": "Neoplastic", "color": [255, 0, 0]}}}, {"type": "Feature", "id": "36fee149-2778-4b9f-ad62-ab5af05dd6e6", "geometry": {"type": "Polygon", "coordinates": [[[222, 90], [221, 91], [220, 91], [218, 93], [218, 96], [219, 97], [219, 98], [222, 101], [224, 101], [225, 102], [230, 102], [231, 103], [239, 103], [240, 102], [242, 102], [243, 101], [243, 100], [242, 99], [242, 98], [240, 96], [240, 95], [239, 94], [238, 94], [237, 93], [236, 93], [235, 92], [234, 92], [233, 91], [231, 91], [230, 90], [222, 90]]]}, "properties": {"objectType": "annotation", "classification": {"name": "Connective", "color": [35, 92, 236]}}}, {"type": "Feature", "id": "5ea00d3a-58ff-4d91-8ef1-2ad1ce67374f", "geometry": {"type": "Polygon", "coordinates": [[[288, 101], [287, 102], [284, 102], [283, 103], [281, 103], [280, 104], [279, 104], [277, 106], [277, 108], [276, 109], [276, 112], [277, 113], [277, 115], [278, 116], [278, 118], [282, 122], [284, 122], [285, 123], [290, 123], [291, 124], [291, 125], [290, 126], [289, 126], [288, 127], [286, 127], [285, 128], [283, 128], [281, 130], [281, 131], [282, 132], [286, 132], [287, 131], [290, 131], [291, 130], [294, 130], [295, 129], [298, 129], [299, 128], [301, 128], [304, 125], [304, 120], [308, 116], [308, 115], [310, 113], [310, 112], [312, 110], [312, 105], [310, 103], [308, 103], [307, 102], [304, 102], [303, 101], [302, 101], [301, 102], [299, 102], [298, 101], [288, 101]]]}, "properties": {"objectType": "annotation", "classification": {"name": "Connective", "color": [35, 92, 236]}}}, {"type": "Feature", "id": "7ae89066-a7e9-4346-966b-202899352ddf", "geometry": {"type": "Polygon", "coordinates": [[[133, 187], [132, 188], [131, 188], [129, 190], [128, 190], [127, 191], [126, 191], [125, 192], [123, 192], [122, 193], [121, 193], [120, 194], [119, 194], [118, 195], [117, 195], [115, 197], [114, 197], [113, 198], [113, 202], [114, 203], [119, 203], [120, 202], [123, 202], [124, 201], [126, 201], [127, 200], [128, 200], [129, 199], [130, 199], [131, 198], [133, 198], [134, 197], [134, 196], [135, 195], [135, 187], [133, 187]]]}, "properties": {"objectType": "annotation", "classification": {"name": "Connective", "color": [35, 92, 236]}}}, {"type": "Feature", "id": "3b0d87ae-406a-44d7-901e-f84120afa5ee", "geometry": {"type": "Polygon", "coordinates": [[[9, 206], [7, 208], [6, 208], [5, 209], [4, 209], [2, 211], [2, 216], [4, 218], [5, 218], [6, 219], [8, 219], [9, 220], [10, 220], [11, 221], [12, 221], [13, 222], [14, 222], [15, 223], [17, 223], [18, 224], [19, 223], [21, 223], [22, 222], [23, 222], [24, 221], [24, 217], [21, 214], [20, 214], [16, 210], [15, 210], [14, 209], [13, 209], [11, 207], [10, 207], [9, 206]]]}, "properties": {"objectType": "annotation", "classification": {"name": "Inflammatory", "color": [34, 221, 77]}}}, {"type": "Feature", "id": "5638d28e-0099-401f-a486-77f7be89e85d", "geometry": {"type": "Polygon", "coordinates": [[[321, 238], [320, 239], [315, 239], [314, 240], [312, 240], [311, 241], [308, 241], [307, 242], [305, 242], [304, 243], [303, 243], [302, 244], [301, 244], [300, 245], [299, 245], [298, 246], [297, 246], [296, 247], [295, 247], [293, 249], [292, 249], [289, 252], [288, 252], [278, 262], [278, 266], [280, 268], [284, 268], [285, 267], [286, 267], [287, 266], [289, 266], [290, 265], [291, 265], [293, 263], [294, 263], [295, 262], [296, 262], [297, 261], [298, 261], [300, 259], [301, 259], [304, 256], [305, 256], [306, 255], [307, 255], [309, 253], [310, 253], [311, 252], [312, 252], [313, 251], [314, 251], [316, 249], [317, 249], [319, 247], [320, 247], [325, 242], [325, 239], [324, 238], [321, 238]]]}, "properties": {"objectType": "annotation", "classification": {"name": "Connective", "color": [35, 92, 236]}}}, {"type": "Feature", "id": "143f284e-c97b-4a6a-8c93-2c50c7c3645c", "geometry": {"type": "Polygon", "coordinates": [[[158, 291], [157, 292], [156, 292], [155, 293], [155, 298], [156, 299], [156, 300], [159, 303], [165, 303], [166, 302], [167, 302], [169, 300], [169, 294], [168, 293], [167, 293], [166, 292], [164, 292], [163, 291], [158, 291]]]}, "properties": {"objectType": "annotation", "classification": {"name": "Inflammatory", "color": [34, 221, 77]}}}, {"type": "Feature", "id": "5a868b8f-fc26-4a00-a82a-4aaad25c653e", "geometry": {"type": "Polygon", "coordinates": [[[196, 303], [195, 304], [194, 304], [194, 305], [191, 308], [191, 309], [190, 310], [190, 311], [188, 313], [188, 314], [186, 316], [186, 321], [187, 322], [191, 322], [192, 321], [194, 321], [195, 320], [196, 320], [197, 319], [198, 319], [199, 318], [200, 318], [201, 317], [204, 317], [205, 316], [207, 316], [208, 315], [209, 315], [212, 312], [212, 310], [209, 307], [208, 307], [206, 305], [205, 305], [204, 304], [203, 304], [202, 303], [196, 303]]]}, "properties": {"objectType": "annotation", "classification": {"name": "Connective", "color": [35, 92, 236]}}}, {"type": "Feature", "id": "af2e1c1b-5653-4e79-80d5-00be60baa98a", "geometry": {"type": "Polygon", "coordinates": [[[222, 350], [221, 351], [218, 351], [217, 352], [214, 352], [213, 353], [212, 353], [211, 354], [210, 354], [209, 355], [207, 355], [203, 359], [202, 359], [201, 360], [199, 360], [199, 361], [198, 362], [197, 362], [196, 363], [195, 363], [195, 366], [202, 366], [203, 365], [207, 365], [208, 364], [213, 364], [214, 363], [222, 363], [223, 362], [227, 362], [228, 361], [231, 361], [232, 360], [235, 360], [236, 359], [238, 359], [240, 357], [241, 357], [242, 356], [242, 355], [243, 354], [243, 351], [234, 351], [233, 350], [222, 350]]]}, "properties": {"objectType": "annotation", "classification": {"name": "Connective", "color": [35, 92, 236]}}}, {"type": "Feature", "id": "6670d25e-4bf2-4430-9009-642784ce52a1", "geometry": {"type": "Polygon", "coordinates": [[[277, 350], [275, 352], [274, 352], [260, 366], [260, 367], [257, 370], [257, 371], [256, 372], [256, 374], [257, 375], [264, 375], [265, 374], [268, 374], [274, 368], [274, 367], [276, 365], [276, 364], [277, 363], [277, 362], [278, 361], [278, 359], [279, 358], [279, 357], [280, 356], [280, 354], [281, 353], [281, 352], [280, 351], [280, 350], [277, 350]]]}, "properties": {"objectType": "annotation", "classification": {"name": "Connective", "color": [35, 92, 236]}}}, {"type": "Feature", "id": "215f27db-4c84-44da-91d9-efea9258b069", "geometry": {"type": "Polygon", "coordinates": [[[379, 373], [378, 374], [377, 374], [376, 375], [375, 375], [375, 376], [374, 377], [374, 378], [372, 380], [372, 381], [371, 382], [371, 384], [370, 385], [370, 397], [371, 398], [371, 399], [376, 404], [379, 404], [380, 403], [380, 402], [381, 401], [381, 392], [382, 391], [382, 387], [383, 386], [383, 383], [384, 382], [384, 379], [385, 378], [385, 377], [384, 376], [384, 375], [382, 373], [379, 373]]]}, "properties": {"objectType": "annotation", "classification": {"name": "Connective", "color": [35, 92, 236]}}}, {"type": "Feature", "id": "36134223-051b-4d05-bc44-5836461c4065", "geometry": {"type": "Polygon", "coordinates": [[[420, 380], [417, 383], [417, 384], [412, 389], [411, 389], [411, 392], [410, 393], [410, 397], [409, 398], [409, 402], [410, 403], [413, 403], [416, 400], [416, 399], [417, 398], [417, 397], [418, 396], [418, 395], [419, 394], [419, 393], [420, 392], [420, 390], [421, 389], [421, 388], [422, 387], [422, 380], [420, 380]]]}, "properties": {"objectType": "annotation", "classification": {"name": "Connective", "color": [35, 92, 236]}}}, {"type": "Feature", "id": "4ddf2396-48e5-4759-a539-f34c28b26484", "geometry": {"type": "Polygon", "coordinates": [[[194, 397], [193, 398], [190, 398], [189, 399], [187, 399], [186, 400], [185, 400], [184, 401], [183, 401], [182, 402], [181, 402], [180, 403], [179, 403], [177, 405], [176, 405], [173, 408], [172, 408], [172, 409], [171, 410], [171, 412], [172, 413], [179, 413], [180, 412], [182, 412], [183, 411], [186, 411], [187, 410], [189, 410], [190, 409], [192, 409], [193, 408], [195, 408], [196, 407], [197, 407], [200, 404], [200, 400], [198, 398], [197, 398], [196, 397], [194, 397]]]}, "properties": {"objectType": "annotation", "classification": {"name": "Connective", "color": [35, 92, 236]}}}, {"type": "Feature", "id": "4a5edf6c-2fad-415f-b4ef-51790a1da50b", "geometry": {"type": "Polygon", "coordinates": [[[36, 412], [34, 414], [33, 414], [32, 415], [32, 416], [31, 417], [31, 421], [32, 422], [32, 423], [33, 424], [37, 424], [39, 422], [40, 422], [42, 420], [43, 420], [44, 419], [45, 419], [47, 417], [47, 414], [45, 412], [36, 412]]]}, "properties": {"objectType": "annotation", "classification": {"name": "Connective", "color": [35, 92, 236]}}}, {"type": "Feature", "id": "0c46eab0-18b2-47d8-bfed-1ad26ce7d548", "geometry": {"type": "Polygon", "coordinates": [[[436, 463], [434, 465], [433, 465], [429, 469], [429, 470], [428, 471], [428, 473], [429, 474], [434, 474], [435, 473], [436, 473], [440, 469], [440, 465], [438, 463], [436, 463]]]}, "properties": {"objectType": "annotation", "classification": {"name": "Connective", "color": [35, 92, 236]}}}, {"type": "Feature", "id": "fa5b43d7-4fcb-49d6-88dc-db2a3ef5048c", "geometry": {"type": "Polygon", "coordinates": [[[481, 471], [480, 472], [476, 472], [473, 475], [473, 476], [472, 477], [472, 483], [474, 485], [474, 486], [477, 489], [483, 489], [487, 485], [487, 484], [488, 483], [488, 482], [489, 481], [489, 480], [490, 479], [490, 475], [487, 472], [483, 472], [482, 471], [481, 471]]]}, "properties": {"objectType": "annotation", "classification": {"name": "Inflammatory", "color": [34, 221, 77]}}}, {"type": "Feature", "id": "eb676509-b701-4a21-9ba0-6c466b640d80", "geometry": {"type": "Polygon", "coordinates": [[[23, 474], [22, 475], [21, 475], [20, 476], [20, 477], [19, 478], [19, 484], [20, 485], [20, 486], [21, 487], [22, 487], [23, 488], [24, 488], [25, 489], [31, 489], [32, 488], [34, 488], [35, 487], [36, 487], [37, 486], [37, 485], [38, 484], [38, 483], [37, 482], [37, 480], [34, 477], [33, 477], [32, 476], [30, 476], [29, 475], [27, 475], [26, 474], [23, 474]]]}, "properties": {"objectType": "annotation", "classification": {"name": "Connective", "color": [35, 92, 236]}}}, {"type": "Feature", "id": "e1dfc12c-2b9f-4270-87b2-fca9ca530731", "geometry": {"type": "Polygon", "coordinates": [[[391, 484], [390, 485], [386, 485], [385, 486], [380, 486], [380, 487], [381, 488], [381, 494], [383, 494], [384, 493], [389, 493], [390, 492], [393, 492], [396, 489], [396, 486], [395, 486], [394, 485], [392, 485], [391, 484]]]}, "properties": {"objectType": "annotation", "classification": {"name": "Connective", "color": [35, 92, 236]}}}, {"type": "Feature", "id": "343e4023-3ee6-4602-b472-e98ebb6e7f99", "geometry": {"type": "Polygon", "coordinates": [[[38, 486], [38, 491], [39, 492], [39, 493], [42, 496], [43, 496], [45, 498], [49, 498], [50, 497], [50, 494], [48, 492], [47, 492], [42, 487], [41, 487], [40, 486], [38, 486]]]}, "properties": {"objectType": "annotation", "classification": {"name": "Connective", "color": [35, 92, 236]}}}, {"type": "Feature", "id": "3fd53357-9fe3-4ea1-8c35-142a59f2ed04", "geometry": {"type": "Polygon", "coordinates": [[[373, 487], [372, 488], [369, 488], [368, 489], [366, 489], [365, 490], [363, 490], [362, 491], [361, 491], [360, 492], [359, 492], [357, 494], [356, 494], [356, 495], [355, 496], [355, 499], [357, 501], [358, 501], [359, 502], [361, 502], [362, 501], [366, 501], [367, 500], [370, 500], [371, 499], [372, 499], [373, 498], [374, 498], [376, 496], [377, 496], [378, 495], [379, 495], [380, 494], [380, 488], [379, 487], [373, 487]]]}, "properties": {"objectType": "annotation", "classification": {"name": "Connective", "color": [35, 92, 236]}}}]